<?xml version="1.0" encoding="UTF-8"?>
<gpx xmlns="http://www.topografix.com/GPX/1/1" xmlns:xsi="http://www.w3.org/2001/XMLSchema-instance" xsi:schemaLocation="http://www.topografix.com/GPX/1/1 http://www.topografix.com/GPX/1/1/gpx.xsd" version="1.1" creator="gpx.py -- https://github.com/tkrajina/gpxpy">
  <metadata>
    <name>2024-11-21T22:27:25+00:00</name>
    <desc></desc>
  </metadata>
  <trk>
    <name>2024-11-21T22:27:25+00:00</name>
    <desc></desc>
    <type>walk</type>
    <trkseg>
    </trkseg>
  </trk>
</gpx>