<?xml version="1.0" encoding="UTF-8"?><TrainingCenterDatabase xmlns="http://www.garmin.com/xmlschemas/TrainingCenterDatabase/v2" xmlns:ns2="http://www.garmin.com/xmlschemas/UserProfile/v2" xmlns:ns3="http://www.garmin.com/xmlschemas/ActivityExtension/v2" xmlns:ns5="http://www.garmin.com/xmlschemas/ActivityGoals/v1" xmlns:xsi="http://www.w3.org/2001/XMLSchema-instance" xsi:schemaLocation="http://www.garmin.com/xmlschemas/TrainingCenterDatabase/v2 http://www.garmin.com/xmlschemas/TrainingCenterDatabasev2.xsd"><Activities><Activity Sport="Run"><Id>2025-07-16T19:21:13Z</Id><Creator><Name>Amazfit Bip U Pro</Name></Creator><Lap StartTime="2025-07-16T19:21:13Z"><Calories>64.0</Calories><DistanceMeters>409.0</DistanceMeters><TotalTimeSeconds>607</TotalTimeSeconds><AverageHeartRateBpm><Value>103</Value></AverageHeartRateBpm><Extensions><ns3:LX><ns3:AvgSpeed>1.483</ns3:AvgSpeed></ns3:LX></Extensions><Track><Trackpoint><Time>2025-07-16T19:21:13Z</Time></Trackpoint><Trackpoint><Time>2025-07-16T19:21:24Z</Time><Cadence>47</Cadence><Extensions><ns3:TPX><ns3:Speed>0.0</ns3:Speed></ns3:TPX></Extensions></Trackpoint><Trackpoint><Time>2025-07-16T19:21:27Z</Time><HeartRateBpm><Value>98</Value></HeartRateBpm><Cadence>47</Cadence><Extensions><ns3:TPX><ns3:Speed>0.0</ns3:Speed></ns3:TPX></Extensions></Trackpoint><Trackpoint><Time>2025-07-16T19:21:32Z</Time><HeartRateBpm><Value>98</Value></HeartRateBpm><Cadence>47</Cadence><Extensions><ns3:TPX><ns3:Speed>0.0</ns3:Speed></ns3:TPX></Extensions></Trackpoint><Trackpoint><Time>2025-07-16T19:21:37Z</Time><HeartRateBpm><Value>98</Value></HeartRateBpm><Cadence>47</Cadence><Extensions><ns3:TPX><ns3:Speed>0.0</ns3:Speed></ns3:TPX></Extensions></Trackpoint><Trackpoint><Time>2025-07-16T19:21:38Z</Time><HeartRateBpm><Value>97</Value></HeartRateBpm><Cadence>47</Cadence><Extensions><ns3:TPX><ns3:Speed>0.0</ns3:Speed></ns3:TPX></Extensions></Trackpoint><Trackpoint><Time>2025-07-16T19:21:42Z</Time><HeartRateBpm><Value>96</Value></HeartRateBpm><Cadence>47</Cadence><Extensions><ns3:TPX><ns3:Speed>0.0</ns3:Speed></ns3:TPX></Extensions></Trackpoint><Trackpoint><Time>2025-07-16T19:21:43Z</Time><HeartRateBpm><Value>95</Value></HeartRateBpm><Cadence>47</Cadence><Extensions><ns3:TPX><ns3:Speed>0.0</ns3:Speed></ns3:TPX></Extensions></Trackpoint><Trackpoint><Time>2025-07-16T19:21:45Z</Time><HeartRateBpm><Value>93</Value></HeartRateBpm><Cadence>47</Cadence><Extensions><ns3:TPX><ns3:Speed>0.0</ns3:Speed></ns3:TPX></Extensions></Trackpoint><Trackpoint><Time>2025-07-16T19:21:49Z</Time><HeartRateBpm><Value>94</Value></HeartRateBpm><Cadence>47</Cadence><Extensions><ns3:TPX><ns3:Speed>0.0</ns3:Speed></ns3:TPX></Extensions></Trackpoint><Trackpoint><Time>2025-07-16T19:21:50Z</Time><HeartRateBpm><Value>97</Value></HeartRateBpm><Cadence>47</Cadence><Extensions><ns3:TPX><ns3:Speed>0.0</ns3:Speed></ns3:TPX></Extensions></Trackpoint><Trackpoint><Time>2025-07-16T19:21:51Z</Time><HeartRateBpm><Value>100</Value></HeartRateBpm><Cadence>47</Cadence><Extensions><ns3:TPX><ns3:Speed>0.0</ns3:Speed></ns3:TPX></Extensions></Trackpoint><Trackpoint><Time>2025-07-16T19:21:56Z</Time><HeartRateBpm><Value>100</Value></HeartRateBpm><Cadence>47</Cadence><Extensions><ns3:TPX><ns3:Speed>0.0</ns3:Speed></ns3:TPX></Extensions></Trackpoint><Trackpoint><Time>2025-07-16T19:21:59Z</Time><HeartRateBpm><Value>99</Value></HeartRateBpm><Cadence>47</Cadence><Extensions><ns3:TPX><ns3:Speed>0.0</ns3:Speed></ns3:TPX></Extensions></Trackpoint><Trackpoint><Time>2025-07-16T19:22:00Z</Time><HeartRateBpm><Value>98</Value></HeartRateBpm><Cadence>47</Cadence><Extensions><ns3:TPX><ns3:Speed>0.0</ns3:Speed></ns3:TPX></Extensions></Trackpoint><Trackpoint><Time>2025-07-16T19:22:01Z</Time><HeartRateBpm><Value>97</Value></HeartRateBpm><Cadence>47</Cadence><Extensions><ns3:TPX><ns3:Speed>0.0</ns3:Speed></ns3:TPX></Extensions></Trackpoint><Trackpoint><Time>2025-07-16T19:22:06Z</Time><HeartRateBpm><Value>96</Value></HeartRateBpm><Cadence>47</Cadence><Extensions><ns3:TPX><ns3:Speed>0.0</ns3:Speed></ns3:TPX></Extensions></Trackpoint><Trackpoint><Time>2025-07-16T19:22:08Z</Time><HeartRateBpm><Value>95</Value></HeartRateBpm><Cadence>47</Cadence><Extensions><ns3:TPX><ns3:Speed>0.0</ns3:Speed></ns3:TPX></Extensions></Trackpoint><Trackpoint><Time>2025-07-16T19:22:11Z</Time><HeartRateBpm><Value>96</Value></HeartRateBpm><Cadence>47</Cadence><Extensions><ns3:TPX><ns3:Speed>0.0</ns3:Speed></ns3:TPX></Extensions></Trackpoint><Trackpoint><Time>2025-07-16T19:22:15Z</Time><HeartRateBpm><Value>96</Value></HeartRateBpm><Cadence>47</Cadence><Extensions><ns3:TPX><ns3:Speed>0.0</ns3:Speed></ns3:TPX></Extensions></Trackpoint><Trackpoint><Time>2025-07-16T19:22:16Z</Time><HeartRateBpm><Value>98</Value></HeartRateBpm><Cadence>47</Cadence><Extensions><ns3:TPX><ns3:Speed>0.0</ns3:Speed></ns3:TPX></Extensions></Trackpoint><Trackpoint><Time>2025-07-16T19:22:20Z</Time><HeartRateBpm><Value>100</Value></HeartRateBpm><Cadence>47</Cadence><Extensions><ns3:TPX><ns3:Speed>0.0</ns3:Speed></ns3:TPX></Extensions></Trackpoint><Trackpoint><Time>2025-07-16T19:22:21Z</Time><HeartRateBpm><Value>101</Value></HeartRateBpm><Cadence>47</Cadence><Extensions><ns3:TPX><ns3:Speed>0.0</ns3:Speed></ns3:TPX></Extensions></Trackpoint><Trackpoint><Time>2025-07-16T19:22:22Z</Time><HeartRateBpm><Value>102</Value></HeartRateBpm><Cadence>47</Cadence><Extensions><ns3:TPX><ns3:Speed>0.0</ns3:Speed></ns3:TPX></Extensions></Trackpoint><Trackpoint><Time>2025-07-16T19:22:27Z</Time><HeartRateBpm><Value>103</Value></HeartRateBpm><Cadence>47</Cadence><Extensions><ns3:TPX><ns3:Speed>0.0</ns3:Speed></ns3:TPX></Extensions></Trackpoint><Trackpoint><Time>2025-07-16T19:22:28Z</Time><HeartRateBpm><Value>102</Value></HeartRateBpm><Cadence>47</Cadence><Extensions><ns3:TPX><ns3:Speed>0.0</ns3:Speed></ns3:TPX></Extensions></Trackpoint><Trackpoint><Time>2025-07-16T19:22:32Z</Time><HeartRateBpm><Value>101</Value></HeartRateBpm><Cadence>47</Cadence><Extensions><ns3:TPX><ns3:Speed>0.0</ns3:Speed></ns3:TPX></Extensions></Trackpoint><Trackpoint><Time>2025-07-16T19:22:36Z</Time><Position><LatitudeDegrees>-8.04440999</LatitudeDegrees><LongitudeDegrees>-34.93921667</LongitudeDegrees></Position><HeartRateBpm><Value>101</Value></HeartRateBpm><Cadence>47</Cadence><Extensions><ns3:TPX><ns3:Speed>0.0</ns3:Speed></ns3:TPX></Extensions></Trackpoint><Trackpoint><Time>2025-07-16T19:22:37Z</Time><HeartRateBpm><Value>101</Value></HeartRateBpm><Cadence>47</Cadence><Extensions><ns3:TPX><ns3:Speed>0.0</ns3:Speed></ns3:TPX></Extensions></Trackpoint><Trackpoint><Time>2025-07-16T19:22:38Z</Time><Position><LatitudeDegrees>-8.04441832</LatitudeDegrees><LongitudeDegrees>-34.93902333</LongitudeDegrees></Position><HeartRateBpm><Value>102</Value></HeartRateBpm><Cadence>47</Cadence><Extensions><ns3:TPX><ns3:Speed>0.0</ns3:Speed></ns3:TPX></Extensions></Trackpoint><Trackpoint><Time>2025-07-16T19:22:40Z</Time><Position><LatitudeDegrees>-8.04440166</LatitudeDegrees><LongitudeDegrees>-34.93902666</LongitudeDegrees></Position><HeartRateBpm><Value>102</Value></HeartRateBpm><Cadence>47</Cadence><Extensions><ns3:TPX><ns3:Speed>0.0</ns3:Speed></ns3:TPX></Extensions></Trackpoint><Trackpoint><Time>2025-07-16T19:22:42Z</Time><Position><LatitudeDegrees>-8.0444</LatitudeDegrees><LongitudeDegrees>-34.93902999</LongitudeDegrees></Position><HeartRateBpm><Value>102</Value></HeartRateBpm><Cadence>47</Cadence><Extensions><ns3:TPX><ns3:Speed>0.0</ns3:Speed></ns3:TPX></Extensions></Trackpoint><Trackpoint><Time>2025-07-16T19:22:43Z</Time><Position><LatitudeDegrees>-8.04439201</LatitudeDegrees><LongitudeDegrees>-34.93903266</LongitudeDegrees></Position><HeartRateBpm><Value>104</Value></HeartRateBpm><Cadence>47</Cadence><Extensions><ns3:TPX><ns3:Speed>0.0</ns3:Speed></ns3:TPX></Extensions></Trackpoint><Trackpoint><Time>2025-07-16T19:22:44Z</Time><Position><LatitudeDegrees>-8.04438234</LatitudeDegrees><LongitudeDegrees>-34.93904765</LongitudeDegrees></Position><HeartRateBpm><Value>105</Value></HeartRateBpm><Cadence>47</Cadence><Extensions><ns3:TPX><ns3:Speed>0.0</ns3:Speed></ns3:TPX></Extensions></Trackpoint><Trackpoint><Time>2025-07-16T19:22:45Z</Time><Position><LatitudeDegrees>-8.04437269</LatitudeDegrees><LongitudeDegrees>-34.93907064</LongitudeDegrees></Position><HeartRateBpm><Value>106</Value></HeartRateBpm><Cadence>47</Cadence><Extensions><ns3:TPX><ns3:Speed>0.0</ns3:Speed></ns3:TPX></Extensions></Trackpoint><Trackpoint><Time>2025-07-16T19:22:46Z</Time><Position><LatitudeDegrees>-8.04436335</LatitudeDegrees><LongitudeDegrees>-34.93909264</LongitudeDegrees></Position><HeartRateBpm><Value>106</Value></HeartRateBpm><Cadence>47</Cadence><Extensions><ns3:TPX><ns3:Speed>0.0</ns3:Speed></ns3:TPX></Extensions></Trackpoint><Trackpoint><Time>2025-07-16T19:22:47Z</Time><Position><LatitudeDegrees>-8.04435502</LatitudeDegrees><LongitudeDegrees>-34.93911396</LongitudeDegrees></Position><HeartRateBpm><Value>105</Value></HeartRateBpm><Cadence>47</Cadence><Extensions><ns3:TPX><ns3:Speed>0.0</ns3:Speed></ns3:TPX></Extensions></Trackpoint><Trackpoint><Time>2025-07-16T19:22:48Z</Time><Position><LatitudeDegrees>-8.04435236</LatitudeDegrees><LongitudeDegrees>-34.93913496</LongitudeDegrees></Position><HeartRateBpm><Value>105</Value></HeartRateBpm><Cadence>47</Cadence><Extensions><ns3:TPX><ns3:Speed>0.0</ns3:Speed></ns3:TPX></Extensions></Trackpoint><Trackpoint><Time>2025-07-16T19:22:49Z</Time><Position><LatitudeDegrees>-8.04435003</LatitudeDegrees><LongitudeDegrees>-34.93915062</LongitudeDegrees></Position><HeartRateBpm><Value>103</Value></HeartRateBpm><Cadence>47</Cadence><Extensions><ns3:TPX><ns3:Speed>0.0</ns3:Speed></ns3:TPX></Extensions></Trackpoint><Trackpoint><Time>2025-07-16T19:22:50Z</Time><Position><LatitudeDegrees>-8.04435302</LatitudeDegrees><LongitudeDegrees>-34.93917095</LongitudeDegrees></Position><HeartRateBpm><Value>102</Value></HeartRateBpm><Cadence>47</Cadence><Extensions><ns3:TPX><ns3:Speed>0.0</ns3:Speed></ns3:TPX></Extensions></Trackpoint><Trackpoint><Time>2025-07-16T19:22:51Z</Time><Position><LatitudeDegrees>-8.04435802</LatitudeDegrees><LongitudeDegrees>-34.93919194</LongitudeDegrees></Position><HeartRateBpm><Value>102</Value></HeartRateBpm><Cadence>47</Cadence><Extensions><ns3:TPX><ns3:Speed>0.0</ns3:Speed></ns3:TPX></Extensions></Trackpoint><Trackpoint><Time>2025-07-16T19:22:52Z</Time><Position><LatitudeDegrees>-8.04436068</LatitudeDegrees><LongitudeDegrees>-34.93920161</LongitudeDegrees></Position><HeartRateBpm><Value>102</Value></HeartRateBpm><Cadence>47</Cadence><Extensions><ns3:TPX><ns3:Speed>0.0</ns3:Speed></ns3:TPX></Extensions></Trackpoint><Trackpoint><Time>2025-07-16T19:22:53Z</Time><Position><LatitudeDegrees>-8.04436434</LatitudeDegrees><LongitudeDegrees>-34.9392096</LongitudeDegrees></Position><HeartRateBpm><Value>102</Value></HeartRateBpm><Cadence>47</Cadence><Extensions><ns3:TPX><ns3:Speed>0.0</ns3:Speed></ns3:TPX></Extensions></Trackpoint><Trackpoint><Time>2025-07-16T19:22:54Z</Time><Position><LatitudeDegrees>-8.044366</LatitudeDegrees><LongitudeDegrees>-34.93921693</LongitudeDegrees></Position><HeartRateBpm><Value>103</Value></HeartRateBpm><Cadence>47</Cadence><Extensions><ns3:TPX><ns3:Speed>0.0</ns3:Speed></ns3:TPX></Extensions></Trackpoint><Trackpoint><Time>2025-07-16T19:22:55Z</Time><Position><LatitudeDegrees>-8.04436732</LatitudeDegrees><LongitudeDegrees>-34.93922592</LongitudeDegrees></Position><HeartRateBpm><Value>103</Value></HeartRateBpm><Cadence>47</Cadence><Extensions><ns3:TPX><ns3:Speed>0.0</ns3:Speed></ns3:TPX></Extensions></Trackpoint><Trackpoint><Time>2025-07-16T19:22:56Z</Time><Position><LatitudeDegrees>-8.04436965</LatitudeDegrees><LongitudeDegrees>-34.93923491</LongitudeDegrees></Position><HeartRateBpm><Value>103</Value></HeartRateBpm><Cadence>47</Cadence><Extensions><ns3:TPX><ns3:Speed>0.0</ns3:Speed><ns3:Pace>1.68</ns3:Pace></ns3:TPX></Extensions></Trackpoint><Trackpoint><Time>2025-07-16T19:22:57Z</Time><Position><LatitudeDegrees>-8.04437264</LatitudeDegrees><LongitudeDegrees>-34.93924458</LongitudeDegrees></Position><HeartRateBpm><Value>104</Value></HeartRateBpm><Cadence>47</Cadence><Extensions><ns3:TPX><ns3:Speed>0.5899999737739563</ns3:Speed><ns3:Pace>1.68</ns3:Pace></ns3:TPX></Extensions></Trackpoint><Trackpoint><Time>2025-07-16T19:22:58Z</Time><Position><LatitudeDegrees>-8.04437597</LatitudeDegrees><LongitudeDegrees>-34.93925457</LongitudeDegrees></Position><HeartRateBpm><Value>104</Value></HeartRateBpm><Cadence>47</Cadence><Extensions><ns3:TPX><ns3:Speed>0.5899999737739563</ns3:Speed><ns3:Pace>0.95</ns3:Pace></ns3:TPX></Extensions></Trackpoint><Trackpoint><Time>2025-07-16T19:22:59Z</Time><Position><LatitudeDegrees>-8.04438064</LatitudeDegrees><LongitudeDegrees>-34.9392629</LongitudeDegrees></Position><HeartRateBpm><Value>105</Value></HeartRateBpm><Cadence>47</Cadence><Extensions><ns3:TPX><ns3:Speed>1.0499999523162842</ns3:Speed><ns3:Pace>1.1</ns3:Pace></ns3:TPX></Extensions></Trackpoint><Trackpoint><Time>2025-07-16T19:23:00Z</Time><Position><LatitudeDegrees>-8.04438629</LatitudeDegrees><LongitudeDegrees>-34.93927156</LongitudeDegrees></Position><HeartRateBpm><Value>105</Value></HeartRateBpm><Cadence>47</Cadence><Extensions><ns3:TPX><ns3:Speed>0.8999999761581421</ns3:Speed><ns3:Pace>1.12</ns3:Pace></ns3:TPX></Extensions></Trackpoint><Trackpoint><Time>2025-07-16T19:23:01Z</Time><Position><LatitudeDegrees>-8.04439396</LatitudeDegrees><LongitudeDegrees>-34.93928356</LongitudeDegrees></Position><HeartRateBpm><Value>105</Value></HeartRateBpm><Cadence>47</Cadence><Extensions><ns3:TPX><ns3:Speed>0.8799999952316284</ns3:Speed><ns3:Pace>2.24</ns3:Pace></ns3:TPX></Extensions></Trackpoint><Trackpoint><Time>2025-07-16T19:23:02Z</Time><Position><LatitudeDegrees>-8.04440028</LatitudeDegrees><LongitudeDegrees>-34.93928889</LongitudeDegrees></Position><HeartRateBpm><Value>105</Value></HeartRateBpm><Cadence>70</Cadence><Extensions><ns3:TPX><ns3:Speed>0.4399999976158142</ns3:Speed></ns3:TPX></Extensions></Trackpoint><Trackpoint><Time>2025-07-16T19:23:03Z</Time><Position><LatitudeDegrees>-8.04440462</LatitudeDegrees><LongitudeDegrees>-34.93928921</LongitudeDegrees></Position><HeartRateBpm><Value>105</Value></HeartRateBpm><Cadence>70</Cadence><Extensions><ns3:TPX><ns3:Speed>0.0</ns3:Speed></ns3:TPX></Extensions></Trackpoint><Trackpoint><Time>2025-07-16T19:23:04Z</Time><Position><LatitudeDegrees>-8.04440627</LatitudeDegrees><LongitudeDegrees>-34.93928987</LongitudeDegrees></Position><HeartRateBpm><Value>105</Value></HeartRateBpm><Cadence>70</Cadence><Extensions><ns3:TPX><ns3:Speed>0.0</ns3:Speed></ns3:TPX></Extensions></Trackpoint><Trackpoint><Time>2025-07-16T19:23:06Z</Time><Position><LatitudeDegrees>-8.04441327</LatitudeDegrees><LongitudeDegrees>-34.93929487</LongitudeDegrees></Position><HeartRateBpm><Value>105</Value></HeartRateBpm><Cadence>70</Cadence><Extensions><ns3:TPX><ns3:Speed>0.0</ns3:Speed></ns3:TPX></Extensions></Trackpoint><Trackpoint><Time>2025-07-16T19:23:07Z</Time><Position><LatitudeDegrees>-8.04441195</LatitudeDegrees><LongitudeDegrees>-34.93929586</LongitudeDegrees></Position><HeartRateBpm><Value>105</Value></HeartRateBpm><Cadence>70</Cadence><Extensions><ns3:TPX><ns3:Speed>0.0</ns3:Speed></ns3:TPX></Extensions></Trackpoint><Trackpoint><Time>2025-07-16T19:23:08Z</Time><Position><LatitudeDegrees>-8.04441129</LatitudeDegrees><LongitudeDegrees>-34.93929618</LongitudeDegrees></Position><HeartRateBpm><Value>106</Value></HeartRateBpm><Cadence>70</Cadence><Extensions><ns3:TPX><ns3:Speed>0.0</ns3:Speed></ns3:TPX></Extensions></Trackpoint><Trackpoint><Time>2025-07-16T19:23:09Z</Time><Position><LatitudeDegrees>-8.04441328</LatitudeDegrees><LongitudeDegrees>-34.93929553</LongitudeDegrees></Position><HeartRateBpm><Value>106</Value></HeartRateBpm><Cadence>70</Cadence><Extensions><ns3:TPX><ns3:Speed>0.0</ns3:Speed></ns3:TPX></Extensions></Trackpoint><Trackpoint><Time>2025-07-16T19:23:10Z</Time><Position><LatitudeDegrees>-8.04441428</LatitudeDegrees><LongitudeDegrees>-34.93929319</LongitudeDegrees></Position><HeartRateBpm><Value>106</Value></HeartRateBpm><Cadence>70</Cadence><Extensions><ns3:TPX><ns3:Speed>0.0</ns3:Speed></ns3:TPX></Extensions></Trackpoint><Trackpoint><Time>2025-07-16T19:23:11Z</Time><Position><LatitudeDegrees>-8.04441461</LatitudeDegrees><LongitudeDegrees>-34.93928954</LongitudeDegrees></Position><HeartRateBpm><Value>106</Value></HeartRateBpm><Cadence>70</Cadence><Extensions><ns3:TPX><ns3:Speed>0.0</ns3:Speed></ns3:TPX></Extensions></Trackpoint><Trackpoint><Time>2025-07-16T19:23:12Z</Time><Position><LatitudeDegrees>-8.04441394</LatitudeDegrees><LongitudeDegrees>-34.93928355</LongitudeDegrees></Position><HeartRateBpm><Value>106</Value></HeartRateBpm><Cadence>70</Cadence><Extensions><ns3:TPX><ns3:Speed>0.0</ns3:Speed></ns3:TPX></Extensions></Trackpoint><Trackpoint><Time>2025-07-16T19:23:13Z</Time><Position><LatitudeDegrees>-8.04441327</LatitudeDegrees><LongitudeDegrees>-34.93927855</LongitudeDegrees></Position><HeartRateBpm><Value>107</Value></HeartRateBpm><Cadence>70</Cadence><Extensions><ns3:TPX><ns3:Speed>0.0</ns3:Speed></ns3:TPX></Extensions></Trackpoint><Trackpoint><Time>2025-07-16T19:23:14Z</Time><Position><LatitudeDegrees>-8.04441494</LatitudeDegrees><LongitudeDegrees>-34.93927456</LongitudeDegrees></Position><HeartRateBpm><Value>107</Value></HeartRateBpm><Cadence>70</Cadence><Extensions><ns3:TPX><ns3:Speed>0.0</ns3:Speed></ns3:TPX></Extensions></Trackpoint><Trackpoint><Time>2025-07-16T19:23:15Z</Time><Position><LatitudeDegrees>-8.04441494</LatitudeDegrees><LongitudeDegrees>-34.93926522</LongitudeDegrees></Position><HeartRateBpm><Value>108</Value></HeartRateBpm><Cadence>70</Cadence><Extensions><ns3:TPX><ns3:Speed>0.0</ns3:Speed></ns3:TPX></Extensions></Trackpoint><Trackpoint><Time>2025-07-16T19:23:16Z</Time><Position><LatitudeDegrees>-8.04441593</LatitudeDegrees><LongitudeDegrees>-34.93925456</LongitudeDegrees></Position><HeartRateBpm><Value>108</Value></HeartRateBpm><Cadence>70</Cadence><Extensions><ns3:TPX><ns3:Speed>0.0</ns3:Speed></ns3:TPX></Extensions></Trackpoint><Trackpoint><Time>2025-07-16T19:23:17Z</Time><Position><LatitudeDegrees>-8.0444156</LatitudeDegrees><LongitudeDegrees>-34.93924257</LongitudeDegrees></Position><HeartRateBpm><Value>108</Value></HeartRateBpm><Cadence>70</Cadence><Extensions><ns3:TPX><ns3:Speed>0.0</ns3:Speed></ns3:TPX></Extensions></Trackpoint><Trackpoint><Time>2025-07-16T19:23:18Z</Time><Position><LatitudeDegrees>-8.04441527</LatitudeDegrees><LongitudeDegrees>-34.93922924</LongitudeDegrees></Position><HeartRateBpm><Value>107</Value></HeartRateBpm><Cadence>70</Cadence><Extensions><ns3:TPX><ns3:Speed>0.0</ns3:Speed></ns3:TPX></Extensions></Trackpoint><Trackpoint><Time>2025-07-16T19:23:19Z</Time><Position><LatitudeDegrees>-8.04441627</LatitudeDegrees><LongitudeDegrees>-34.93922058</LongitudeDegrees></Position><HeartRateBpm><Value>107</Value></HeartRateBpm><Cadence>70</Cadence><Extensions><ns3:TPX><ns3:Speed>0.0</ns3:Speed></ns3:TPX></Extensions></Trackpoint><Trackpoint><Time>2025-07-16T19:23:20Z</Time><Position><LatitudeDegrees>-8.04441726</LatitudeDegrees><LongitudeDegrees>-34.93921425</LongitudeDegrees></Position><HeartRateBpm><Value>107</Value></HeartRateBpm><Cadence>70</Cadence><Extensions><ns3:TPX><ns3:Speed>0.0</ns3:Speed></ns3:TPX></Extensions></Trackpoint><Trackpoint><Time>2025-07-16T19:23:21Z</Time><Position><LatitudeDegrees>-8.04441759</LatitudeDegrees><LongitudeDegrees>-34.93920693</LongitudeDegrees></Position><HeartRateBpm><Value>107</Value></HeartRateBpm><Cadence>70</Cadence><Extensions><ns3:TPX><ns3:Speed>0.0</ns3:Speed></ns3:TPX></Extensions></Trackpoint><Trackpoint><Time>2025-07-16T19:23:22Z</Time><Position><LatitudeDegrees>-8.04441493</LatitudeDegrees><LongitudeDegrees>-34.9391986</LongitudeDegrees></Position><HeartRateBpm><Value>107</Value></HeartRateBpm><Cadence>70</Cadence><Extensions><ns3:TPX><ns3:Speed>0.0</ns3:Speed></ns3:TPX></Extensions></Trackpoint><Trackpoint><Time>2025-07-16T19:23:23Z</Time><Position><LatitudeDegrees>-8.04441226</LatitudeDegrees><LongitudeDegrees>-34.93918893</LongitudeDegrees></Position><HeartRateBpm><Value>107</Value></HeartRateBpm><Cadence>70</Cadence><Extensions><ns3:TPX><ns3:Speed>0.0</ns3:Speed></ns3:TPX></Extensions></Trackpoint><Trackpoint><Time>2025-07-16T19:23:24Z</Time><Position><LatitudeDegrees>-8.0444086</LatitudeDegrees><LongitudeDegrees>-34.93917961</LongitudeDegrees></Position><HeartRateBpm><Value>109</Value></HeartRateBpm><Cadence>70</Cadence><Extensions><ns3:TPX><ns3:Speed>0.0</ns3:Speed></ns3:TPX></Extensions></Trackpoint><Trackpoint><Time>2025-07-16T19:23:25Z</Time><Position><LatitudeDegrees>-8.04440527</LatitudeDegrees><LongitudeDegrees>-34.93917095</LongitudeDegrees></Position><HeartRateBpm><Value>110</Value></HeartRateBpm><Cadence>70</Cadence><Extensions><ns3:TPX><ns3:Speed>0.0</ns3:Speed></ns3:TPX></Extensions></Trackpoint><Trackpoint><Time>2025-07-16T19:23:26Z</Time><Position><LatitudeDegrees>-8.04440395</LatitudeDegrees><LongitudeDegrees>-34.93916562</LongitudeDegrees></Position><HeartRateBpm><Value>110</Value></HeartRateBpm><Cadence>70</Cadence><Extensions><ns3:TPX><ns3:Speed>0.0</ns3:Speed></ns3:TPX></Extensions></Trackpoint><Trackpoint><Time>2025-07-16T19:23:27Z</Time><Position><LatitudeDegrees>-8.04440328</LatitudeDegrees><LongitudeDegrees>-34.93915995</LongitudeDegrees></Position><HeartRateBpm><Value>110</Value></HeartRateBpm><Cadence>70</Cadence><Extensions><ns3:TPX><ns3:Speed>0.0</ns3:Speed></ns3:TPX></Extensions></Trackpoint><Trackpoint><Time>2025-07-16T19:23:28Z</Time><Position><LatitudeDegrees>-8.04440096</LatitudeDegrees><LongitudeDegrees>-34.93915162</LongitudeDegrees></Position><HeartRateBpm><Value>110</Value></HeartRateBpm><Cadence>70</Cadence><Extensions><ns3:TPX><ns3:Speed>0.0</ns3:Speed></ns3:TPX></Extensions></Trackpoint><Trackpoint><Time>2025-07-16T19:23:29Z</Time><Position><LatitudeDegrees>-8.04440063</LatitudeDegrees><LongitudeDegrees>-34.93914496</LongitudeDegrees></Position><HeartRateBpm><Value>110</Value></HeartRateBpm><Cadence>70</Cadence><Extensions><ns3:TPX><ns3:Speed>0.0</ns3:Speed></ns3:TPX></Extensions></Trackpoint><Trackpoint><Time>2025-07-16T19:23:30Z</Time><Position><LatitudeDegrees>-8.04440296</LatitudeDegrees><LongitudeDegrees>-34.93914063</LongitudeDegrees></Position><HeartRateBpm><Value>108</Value></HeartRateBpm><Cadence>70</Cadence><Extensions><ns3:TPX><ns3:Speed>0.0</ns3:Speed></ns3:TPX></Extensions></Trackpoint><Trackpoint><Time>2025-07-16T19:23:31Z</Time><Position><LatitudeDegrees>-8.04440728</LatitudeDegrees><LongitudeDegrees>-34.93913764</LongitudeDegrees></Position><HeartRateBpm><Value>107</Value></HeartRateBpm><Cadence>70</Cadence><Extensions><ns3:TPX><ns3:Speed>0.0</ns3:Speed></ns3:TPX></Extensions></Trackpoint><Trackpoint><Time>2025-07-16T19:23:32Z</Time><Position><LatitudeDegrees>-8.04441362</LatitudeDegrees><LongitudeDegrees>-34.93913665</LongitudeDegrees></Position><HeartRateBpm><Value>106</Value></HeartRateBpm><Cadence>70</Cadence><Extensions><ns3:TPX><ns3:Speed>0.0</ns3:Speed></ns3:TPX></Extensions></Trackpoint><Trackpoint><Time>2025-07-16T19:23:33Z</Time><Position><LatitudeDegrees>-8.04442161</LatitudeDegrees><LongitudeDegrees>-34.9391373</LongitudeDegrees></Position><HeartRateBpm><Value>106</Value></HeartRateBpm><Cadence>70</Cadence><Extensions><ns3:TPX><ns3:Speed>0.0</ns3:Speed></ns3:TPX></Extensions></Trackpoint><Trackpoint><Time>2025-07-16T19:23:35Z</Time><HeartRateBpm><Value>107</Value></HeartRateBpm><Cadence>70</Cadence><Extensions><ns3:TPX><ns3:Speed>0.0</ns3:Speed></ns3:TPX></Extensions></Trackpoint><Trackpoint><Time>2025-07-16T19:23:37Z</Time><Position><LatitudeDegrees>-8.04447327</LatitudeDegrees><LongitudeDegrees>-34.93913829</LongitudeDegrees></Position><HeartRateBpm><Value>108</Value></HeartRateBpm><Cadence>70</Cadence><Extensions><ns3:TPX><ns3:Speed>0.0</ns3:Speed><ns3:Pace>2.01</ns3:Pace></ns3:TPX></Extensions></Trackpoint><Trackpoint><Time>2025-07-16T19:23:38Z</Time><Position><LatitudeDegrees>-8.04447227</LatitudeDegrees><LongitudeDegrees>-34.93913697</LongitudeDegrees></Position><HeartRateBpm><Value>108</Value></HeartRateBpm><Cadence>70</Cadence><Extensions><ns3:TPX><ns3:Speed>0.49000000953674316</ns3:Speed><ns3:Pace>2.01</ns3:Pace></ns3:TPX></Extensions></Trackpoint><Trackpoint><Time>2025-07-16T19:23:39Z</Time><Position><LatitudeDegrees>-8.04447062</LatitudeDegrees><LongitudeDegrees>-34.93913597</LongitudeDegrees></Position><HeartRateBpm><Value>107</Value></HeartRateBpm><Cadence>70</Cadence><Extensions><ns3:TPX><ns3:Speed>0.49000000953674316</ns3:Speed><ns3:Pace>2.01</ns3:Pace></ns3:TPX></Extensions></Trackpoint><Trackpoint><Time>2025-07-16T19:23:40Z</Time><Position><LatitudeDegrees>-8.04446762</LatitudeDegrees><LongitudeDegrees>-34.93913498</LongitudeDegrees></Position><HeartRateBpm><Value>107</Value></HeartRateBpm><Cadence>70</Cadence><Extensions><ns3:TPX><ns3:Speed>0.49000000953674316</ns3:Speed></ns3:TPX></Extensions></Trackpoint><Trackpoint><Time>2025-07-16T19:23:41Z</Time><Position><LatitudeDegrees>-8.04446529</LatitudeDegrees><LongitudeDegrees>-34.93913965</LongitudeDegrees></Position><HeartRateBpm><Value>107</Value></HeartRateBpm><Cadence>70</Cadence><Extensions><ns3:TPX><ns3:Speed>0.0</ns3:Speed></ns3:TPX></Extensions></Trackpoint><Trackpoint><Time>2025-07-16T19:23:42Z</Time><Position><LatitudeDegrees>-8.04446895</LatitudeDegrees><LongitudeDegrees>-34.93915664</LongitudeDegrees></Position><HeartRateBpm><Value>106</Value></HeartRateBpm><Cadence>70</Cadence><Extensions><ns3:TPX><ns3:Speed>0.0</ns3:Speed></ns3:TPX></Extensions></Trackpoint><Trackpoint><Time>2025-07-16T19:23:43Z</Time><Position><LatitudeDegrees>-8.04448162</LatitudeDegrees><LongitudeDegrees>-34.93918863</LongitudeDegrees></Position><HeartRateBpm><Value>106</Value></HeartRateBpm><Cadence>70</Cadence><Extensions><ns3:TPX><ns3:Speed>0.0</ns3:Speed></ns3:TPX></Extensions></Trackpoint><Trackpoint><Time>2025-07-16T19:23:44Z</Time><Position><LatitudeDegrees>-8.04449562</LatitudeDegrees><LongitudeDegrees>-34.93921728</LongitudeDegrees></Position><HeartRateBpm><Value>107</Value></HeartRateBpm><Cadence>70</Cadence><Extensions><ns3:TPX><ns3:Speed>0.0</ns3:Speed></ns3:TPX></Extensions></Trackpoint><Trackpoint><Time>2025-07-16T19:23:45Z</Time><Position><LatitudeDegrees>-8.04451461</LatitudeDegrees><LongitudeDegrees>-34.93925694</LongitudeDegrees></Position><HeartRateBpm><Value>107</Value></HeartRateBpm><Cadence>70</Cadence><Extensions><ns3:TPX><ns3:Speed>0.0</ns3:Speed></ns3:TPX></Extensions></Trackpoint><Trackpoint><Time>2025-07-16T19:23:46Z</Time><Position><LatitudeDegrees>-8.04453761</LatitudeDegrees><LongitudeDegrees>-34.93930694</LongitudeDegrees></Position><HeartRateBpm><Value>107</Value></HeartRateBpm><Cadence>70</Cadence><Extensions><ns3:TPX><ns3:Speed>0.0</ns3:Speed></ns3:TPX></Extensions></Trackpoint><Trackpoint><Time>2025-07-16T19:23:47Z</Time><Position><LatitudeDegrees>-8.04455627</LatitudeDegrees><LongitudeDegrees>-34.93935161</LongitudeDegrees></Position><HeartRateBpm><Value>107</Value></HeartRateBpm><Cadence>70</Cadence><Extensions><ns3:TPX><ns3:Speed>0.0</ns3:Speed></ns3:TPX></Extensions></Trackpoint><Trackpoint><Time>2025-07-16T19:23:49Z</Time><Position><LatitudeDegrees>-8.04461493</LatitudeDegrees><LongitudeDegrees>-34.93950827</LongitudeDegrees></Position><HeartRateBpm><Value>107</Value></HeartRateBpm><Cadence>70</Cadence><Extensions><ns3:TPX><ns3:Speed>0.0</ns3:Speed></ns3:TPX></Extensions></Trackpoint><Trackpoint><Time>2025-07-16T19:23:50Z</Time><Position><LatitudeDegrees>-8.04461725</LatitudeDegrees><LongitudeDegrees>-34.93952093</LongitudeDegrees></Position><HeartRateBpm><Value>107</Value></HeartRateBpm><Cadence>70</Cadence><Extensions><ns3:TPX><ns3:Speed>0.0</ns3:Speed></ns3:TPX></Extensions></Trackpoint><Trackpoint><Time>2025-07-16T19:23:51Z</Time><Position><LatitudeDegrees>-8.04462025</LatitudeDegrees><LongitudeDegrees>-34.93954026</LongitudeDegrees></Position><HeartRateBpm><Value>107</Value></HeartRateBpm><Cadence>70</Cadence><Extensions><ns3:TPX><ns3:Speed>0.0</ns3:Speed></ns3:TPX></Extensions></Trackpoint><Trackpoint><Time>2025-07-16T19:23:52Z</Time><Position><LatitudeDegrees>-8.04462791</LatitudeDegrees><LongitudeDegrees>-34.93956793</LongitudeDegrees></Position><HeartRateBpm><Value>107</Value></HeartRateBpm><Cadence>70</Cadence><Extensions><ns3:TPX><ns3:Speed>0.0</ns3:Speed></ns3:TPX></Extensions></Trackpoint><Trackpoint><Time>2025-07-16T19:23:53Z</Time><Position><LatitudeDegrees>-8.04463024</LatitudeDegrees><LongitudeDegrees>-34.93959692</LongitudeDegrees></Position><HeartRateBpm><Value>107</Value></HeartRateBpm><Cadence>70</Cadence><Extensions><ns3:TPX><ns3:Speed>0.0</ns3:Speed></ns3:TPX></Extensions></Trackpoint><Trackpoint><Time>2025-07-16T19:23:54Z</Time><Position><LatitudeDegrees>-8.04462291</LatitudeDegrees><LongitudeDegrees>-34.93961559</LongitudeDegrees></Position><HeartRateBpm><Value>106</Value></HeartRateBpm><Cadence>70</Cadence><Extensions><ns3:TPX><ns3:Speed>0.0</ns3:Speed><ns3:Pace>0.92</ns3:Pace></ns3:TPX></Extensions></Trackpoint><Trackpoint><Time>2025-07-16T19:23:55Z</Time><Position><LatitudeDegrees>-8.04460891</LatitudeDegrees><LongitudeDegrees>-34.93962024</LongitudeDegrees></Position><HeartRateBpm><Value>106</Value></HeartRateBpm><Cadence>70</Cadence><Extensions><ns3:TPX><ns3:Speed>1.0800000429153442</ns3:Speed><ns3:Pace>0.47</ns3:Pace></ns3:TPX></Extensions></Trackpoint><Trackpoint><Time>2025-07-16T19:23:56Z</Time><Position><LatitudeDegrees>-8.04459124</LatitudeDegrees><LongitudeDegrees>-34.93961992</LongitudeDegrees></Position><HeartRateBpm><Value>106</Value></HeartRateBpm><Cadence>70</Cadence><Extensions><ns3:TPX><ns3:Speed>2.109999895095825</ns3:Speed><ns3:Pace>0.52</ns3:Pace></ns3:TPX></Extensions></Trackpoint><Trackpoint><Time>2025-07-16T19:23:57Z</Time><Position><LatitudeDegrees>-8.04456825</LatitudeDegrees><LongitudeDegrees>-34.93961793</LongitudeDegrees></Position><HeartRateBpm><Value>106</Value></HeartRateBpm><Cadence>70</Cadence><Extensions><ns3:TPX><ns3:Speed>1.9199999570846558</ns3:Speed><ns3:Pace>0.56</ns3:Pace></ns3:TPX></Extensions></Trackpoint><Trackpoint><Time>2025-07-16T19:23:58Z</Time><Position><LatitudeDegrees>-8.04455725</LatitudeDegrees><LongitudeDegrees>-34.93962725</LongitudeDegrees></Position><HeartRateBpm><Value>105</Value></HeartRateBpm><Cadence>70</Cadence><Extensions><ns3:TPX><ns3:Speed>1.7699999809265137</ns3:Speed><ns3:Pace>0.56</ns3:Pace></ns3:TPX></Extensions></Trackpoint><Trackpoint><Time>2025-07-16T19:23:59Z</Time><Position><LatitudeDegrees>-8.0445516</LatitudeDegrees><LongitudeDegrees>-34.93964291</LongitudeDegrees></Position><HeartRateBpm><Value>105</Value></HeartRateBpm><Cadence>70</Cadence><Extensions><ns3:TPX><ns3:Speed>1.7699999809265137</ns3:Speed><ns3:Pace>0.56</ns3:Pace></ns3:TPX></Extensions></Trackpoint><Trackpoint><Time>2025-07-16T19:24:00Z</Time><Position><LatitudeDegrees>-8.0445536</LatitudeDegrees><LongitudeDegrees>-34.93966458</LongitudeDegrees></Position><HeartRateBpm><Value>105</Value></HeartRateBpm><Cadence>70</Cadence><Extensions><ns3:TPX><ns3:Speed>1.7699999809265137</ns3:Speed><ns3:Pace>0.55</ns3:Pace></ns3:TPX></Extensions></Trackpoint><Trackpoint><Time>2025-07-16T19:24:01Z</Time><Position><LatitudeDegrees>-8.04455193</LatitudeDegrees><LongitudeDegrees>-34.93968124</LongitudeDegrees></Position><HeartRateBpm><Value>104</Value></HeartRateBpm><Cadence>70</Cadence><Extensions><ns3:TPX><ns3:Speed>1.7999999523162842</ns3:Speed><ns3:Pace>0.56</ns3:Pace></ns3:TPX></Extensions></Trackpoint><Trackpoint><Time>2025-07-16T19:24:02Z</Time><Position><LatitudeDegrees>-8.04454894</LatitudeDegrees><LongitudeDegrees>-34.93970157</LongitudeDegrees></Position><HeartRateBpm><Value>103</Value></HeartRateBpm><Cadence>70</Cadence><Extensions><ns3:TPX><ns3:Speed>1.7699999809265137</ns3:Speed><ns3:Pace>0.57</ns3:Pace></ns3:TPX></Extensions></Trackpoint><Trackpoint><Time>2025-07-16T19:24:03Z</Time><Position><LatitudeDegrees>-8.04453994</LatitudeDegrees><LongitudeDegrees>-34.93971022</LongitudeDegrees></Position><HeartRateBpm><Value>103</Value></HeartRateBpm><Cadence>70</Cadence><Extensions><ns3:TPX><ns3:Speed>1.7300000190734863</ns3:Speed><ns3:Pace>0.57</ns3:Pace></ns3:TPX></Extensions></Trackpoint><Trackpoint><Time>2025-07-16T19:24:05Z</Time><Position><LatitudeDegrees>-8.04452828</LatitudeDegrees><LongitudeDegrees>-34.93973656</LongitudeDegrees></Position><HeartRateBpm><Value>103</Value></HeartRateBpm><Cadence>70</Cadence><Extensions><ns3:TPX><ns3:Speed>1.7300000190734863</ns3:Speed><ns3:Pace>0.58</ns3:Pace></ns3:TPX></Extensions></Trackpoint><Trackpoint><Time>2025-07-16T19:24:06Z</Time><Position><LatitudeDegrees>-8.04452763</LatitudeDegrees><LongitudeDegrees>-34.93972989</LongitudeDegrees></Position><HeartRateBpm><Value>103</Value></HeartRateBpm><Cadence>70</Cadence><Extensions><ns3:TPX><ns3:Speed>1.7000000476837158</ns3:Speed><ns3:Pace>0.66</ns3:Pace></ns3:TPX></Extensions></Trackpoint><Trackpoint><Time>2025-07-16T19:24:07Z</Time><Position><LatitudeDegrees>-8.04453662</LatitudeDegrees><LongitudeDegrees>-34.93973222</LongitudeDegrees></Position><HeartRateBpm><Value>104</Value></HeartRateBpm><Cadence>70</Cadence><Extensions><ns3:TPX><ns3:Speed>1.4900000095367432</ns3:Speed><ns3:Pace>0.76</ns3:Pace></ns3:TPX></Extensions></Trackpoint><Trackpoint><Time>2025-07-16T19:24:08Z</Time><Position><LatitudeDegrees>-8.04455095</LatitudeDegrees><LongitudeDegrees>-34.93974189</LongitudeDegrees></Position><HeartRateBpm><Value>104</Value></HeartRateBpm><Cadence>70</Cadence><Extensions><ns3:TPX><ns3:Speed>1.2999999523162842</ns3:Speed><ns3:Pace>0.77</ns3:Pace></ns3:TPX></Extensions></Trackpoint><Trackpoint><Time>2025-07-16T19:24:10Z</Time><Position><LatitudeDegrees>-8.04466828</LatitudeDegrees><LongitudeDegrees>-34.93987821</LongitudeDegrees></Position><HeartRateBpm><Value>104</Value></HeartRateBpm><Cadence>70</Cadence><Extensions><ns3:TPX><ns3:Speed>1.2799999713897705</ns3:Speed><ns3:Pace>0.77</ns3:Pace></ns3:TPX></Extensions></Trackpoint><Trackpoint><Time>2025-07-16T19:24:11Z</Time><Position><LatitudeDegrees>-8.04466563</LatitudeDegrees><LongitudeDegrees>-34.93985955</LongitudeDegrees></Position><HeartRateBpm><Value>104</Value></HeartRateBpm><Cadence>70</Cadence><Extensions><ns3:TPX><ns3:Speed>1.2799999713897705</ns3:Speed><ns3:Pace>1.55</ns3:Pace></ns3:TPX></Extensions></Trackpoint><Trackpoint><Time>2025-07-16T19:24:12Z</Time><HeartRateBpm><Value>106</Value></HeartRateBpm><Cadence>70</Cadence><Extensions><ns3:TPX><ns3:Speed>0.6399999856948853</ns3:Speed></ns3:TPX></Extensions></Trackpoint><Trackpoint><Time>2025-07-16T19:24:13Z</Time><Position><LatitudeDegrees>-8.04455997</LatitudeDegrees><LongitudeDegrees>-34.93956656</LongitudeDegrees></Position><HeartRateBpm><Value>106</Value></HeartRateBpm><Cadence>70</Cadence><Extensions><ns3:TPX><ns3:Speed>0.6399999856948853</ns3:Speed></ns3:TPX></Extensions></Trackpoint><Trackpoint><Time>2025-07-16T19:24:15Z</Time><Position><LatitudeDegrees>-8.04451831</LatitudeDegrees><LongitudeDegrees>-34.93944822</LongitudeDegrees></Position><HeartRateBpm><Value>106</Value></HeartRateBpm><Cadence>70</Cadence><Extensions><ns3:TPX><ns3:Speed>0.0</ns3:Speed></ns3:TPX></Extensions></Trackpoint><Trackpoint><Time>2025-07-16T19:24:16Z</Time><Position><LatitudeDegrees>-8.04451864</LatitudeDegrees><LongitudeDegrees>-34.93944589</LongitudeDegrees></Position><HeartRateBpm><Value>108</Value></HeartRateBpm><Cadence>70</Cadence><Extensions><ns3:TPX><ns3:Speed>0.0</ns3:Speed></ns3:TPX></Extensions></Trackpoint><Trackpoint><Time>2025-07-16T19:24:17Z</Time><Position><LatitudeDegrees>-8.04451597</LatitudeDegrees><LongitudeDegrees>-34.93943557</LongitudeDegrees></Position><HeartRateBpm><Value>108</Value></HeartRateBpm><Cadence>70</Cadence><Extensions><ns3:TPX><ns3:Speed>0.0</ns3:Speed></ns3:TPX></Extensions></Trackpoint><Trackpoint><Time>2025-07-16T19:24:18Z</Time><Position><LatitudeDegrees>-8.04450798</LatitudeDegrees><LongitudeDegrees>-34.93941723</LongitudeDegrees></Position><HeartRateBpm><Value>110</Value></HeartRateBpm><Cadence>70</Cadence><Extensions><ns3:TPX><ns3:Speed>0.0</ns3:Speed></ns3:TPX></Extensions></Trackpoint><Trackpoint><Time>2025-07-16T19:24:21Z</Time><Position><LatitudeDegrees>-8.04448665</LatitudeDegrees><LongitudeDegrees>-34.93940657</LongitudeDegrees></Position><HeartRateBpm><Value>111</Value></HeartRateBpm><Cadence>70</Cadence><Extensions><ns3:TPX><ns3:Speed>0.0</ns3:Speed></ns3:TPX></Extensions></Trackpoint><Trackpoint><Time>2025-07-16T19:24:22Z</Time><Position><LatitudeDegrees>-8.04448865</LatitudeDegrees><LongitudeDegrees>-34.93939991</LongitudeDegrees></Position><HeartRateBpm><Value>113</Value></HeartRateBpm><Cadence>70</Cadence><Extensions><ns3:TPX><ns3:Speed>0.0</ns3:Speed></ns3:TPX></Extensions></Trackpoint><Trackpoint><Time>2025-07-16T19:24:23Z</Time><Position><LatitudeDegrees>-8.04448465</LatitudeDegrees><LongitudeDegrees>-34.93936459</LongitudeDegrees></Position><HeartRateBpm><Value>113</Value></HeartRateBpm><Cadence>70</Cadence><Extensions><ns3:TPX><ns3:Speed>0.0</ns3:Speed></ns3:TPX></Extensions></Trackpoint><Trackpoint><Time>2025-07-16T19:24:24Z</Time><Position><LatitudeDegrees>-8.04448099</LatitudeDegrees><LongitudeDegrees>-34.93932659</LongitudeDegrees></Position><HeartRateBpm><Value>115</Value></HeartRateBpm><Cadence>70</Cadence><Extensions><ns3:TPX><ns3:Speed>0.0</ns3:Speed></ns3:TPX></Extensions></Trackpoint><Trackpoint><Time>2025-07-16T19:24:25Z</Time><Position><LatitudeDegrees>-8.04448532</LatitudeDegrees><LongitudeDegrees>-34.9393096</LongitudeDegrees></Position><HeartRateBpm><Value>111</Value></HeartRateBpm><Cadence>70</Cadence><Extensions><ns3:TPX><ns3:Speed>0.0</ns3:Speed></ns3:TPX></Extensions></Trackpoint><Trackpoint><Time>2025-07-16T19:24:26Z</Time><Position><LatitudeDegrees>-8.04449831</LatitudeDegrees><LongitudeDegrees>-34.9393116</LongitudeDegrees></Position><HeartRateBpm><Value>112</Value></HeartRateBpm><Cadence>70</Cadence><Extensions><ns3:TPX><ns3:Speed>0.0</ns3:Speed></ns3:TPX></Extensions></Trackpoint><Trackpoint><Time>2025-07-16T19:24:27Z</Time><Position><LatitudeDegrees>-8.0445173</LatitudeDegrees><LongitudeDegrees>-34.93932892</LongitudeDegrees></Position><HeartRateBpm><Value>110</Value></HeartRateBpm><Cadence>70</Cadence><Extensions><ns3:TPX><ns3:Speed>0.0</ns3:Speed></ns3:TPX></Extensions></Trackpoint><Trackpoint><Time>2025-07-16T19:24:28Z</Time><Position><LatitudeDegrees>-8.04454097</LatitudeDegrees><LongitudeDegrees>-34.93934825</LongitudeDegrees></Position><HeartRateBpm><Value>107</Value></HeartRateBpm><Cadence>70</Cadence><Extensions><ns3:TPX><ns3:Speed>0.0</ns3:Speed></ns3:TPX></Extensions></Trackpoint><Trackpoint><Time>2025-07-16T19:24:29Z</Time><Position><LatitudeDegrees>-8.04456564</LatitudeDegrees><LongitudeDegrees>-34.93935959</LongitudeDegrees></Position><HeartRateBpm><Value>107</Value></HeartRateBpm><Cadence>70</Cadence><Extensions><ns3:TPX><ns3:Speed>0.0</ns3:Speed></ns3:TPX></Extensions></Trackpoint><Trackpoint><Time>2025-07-16T19:24:30Z</Time><Position><LatitudeDegrees>-8.04458296</LatitudeDegrees><LongitudeDegrees>-34.93935192</LongitudeDegrees></Position><HeartRateBpm><Value>105</Value></HeartRateBpm><Cadence>70</Cadence><Extensions><ns3:TPX><ns3:Speed>0.0</ns3:Speed></ns3:TPX></Extensions></Trackpoint><Trackpoint><Time>2025-07-16T19:24:31Z</Time><Position><LatitudeDegrees>-8.04459429</LatitudeDegrees><LongitudeDegrees>-34.93933325</LongitudeDegrees></Position><HeartRateBpm><Value>101</Value></HeartRateBpm><Cadence>70</Cadence><Extensions><ns3:TPX><ns3:Speed>0.0</ns3:Speed></ns3:TPX></Extensions></Trackpoint><Trackpoint><Time>2025-07-16T19:24:32Z</Time><Position><LatitudeDegrees>-8.04460662</LatitudeDegrees><LongitudeDegrees>-34.93931526</LongitudeDegrees></Position><HeartRateBpm><Value>101</Value></HeartRateBpm><Cadence>70</Cadence><Extensions><ns3:TPX><ns3:Speed>0.0</ns3:Speed></ns3:TPX></Extensions></Trackpoint><Trackpoint><Time>2025-07-16T19:24:33Z</Time><Position><LatitudeDegrees>-8.04462028</LatitudeDegrees><LongitudeDegrees>-34.9393046</LongitudeDegrees></Position><HeartRateBpm><Value>101</Value></HeartRateBpm><Cadence>70</Cadence><Extensions><ns3:TPX><ns3:Speed>0.0</ns3:Speed></ns3:TPX></Extensions></Trackpoint><Trackpoint><Time>2025-07-16T19:24:34Z</Time><Position><LatitudeDegrees>-8.04463194</LatitudeDegrees><LongitudeDegrees>-34.9392966</LongitudeDegrees></Position><HeartRateBpm><Value>100</Value></HeartRateBpm><Cadence>70</Cadence><Extensions><ns3:TPX><ns3:Speed>0.0</ns3:Speed></ns3:TPX></Extensions></Trackpoint><Trackpoint><Time>2025-07-16T19:24:35Z</Time><Position><LatitudeDegrees>-8.04464161</LatitudeDegrees><LongitudeDegrees>-34.93928994</LongitudeDegrees></Position><HeartRateBpm><Value>100</Value></HeartRateBpm><Cadence>70</Cadence><Extensions><ns3:TPX><ns3:Speed>0.0</ns3:Speed></ns3:TPX></Extensions></Trackpoint><Trackpoint><Time>2025-07-16T19:24:37Z</Time><Position><LatitudeDegrees>-8.04465993</LatitudeDegrees><LongitudeDegrees>-34.93927495</LongitudeDegrees></Position><HeartRateBpm><Value>99</Value></HeartRateBpm><Cadence>70</Cadence><Extensions><ns3:TPX><ns3:Speed>0.0</ns3:Speed></ns3:TPX></Extensions></Trackpoint><Trackpoint><Time>2025-07-16T19:24:38Z</Time><Position><LatitudeDegrees>-8.04465893</LatitudeDegrees><LongitudeDegrees>-34.93927694</LongitudeDegrees></Position><HeartRateBpm><Value>99</Value></HeartRateBpm><Cadence>70</Cadence><Extensions><ns3:TPX><ns3:Speed>0.0</ns3:Speed></ns3:TPX></Extensions></Trackpoint><Trackpoint><Time>2025-07-16T19:24:39Z</Time><Position><LatitudeDegrees>-8.04465727</LatitudeDegrees><LongitudeDegrees>-34.93927827</LongitudeDegrees></Position><HeartRateBpm><Value>99</Value></HeartRateBpm><Cadence>70</Cadence><Extensions><ns3:TPX><ns3:Speed>0.0</ns3:Speed></ns3:TPX></Extensions></Trackpoint><Trackpoint><Time>2025-07-16T19:24:40Z</Time><Position><LatitudeDegrees>-8.04465561</LatitudeDegrees><LongitudeDegrees>-34.93928226</LongitudeDegrees></Position><HeartRateBpm><Value>99</Value></HeartRateBpm><Cadence>70</Cadence><Extensions><ns3:TPX><ns3:Speed>0.0</ns3:Speed><ns3:Pace>1.64</ns3:Pace></ns3:TPX></Extensions></Trackpoint><Trackpoint><Time>2025-07-16T19:24:41Z</Time><Position><LatitudeDegrees>-8.04465195</LatitudeDegrees><LongitudeDegrees>-34.93928559</LongitudeDegrees></Position><HeartRateBpm><Value>99</Value></HeartRateBpm><Cadence>70</Cadence><Extensions><ns3:TPX><ns3:Speed>0.6000000238418579</ns3:Speed><ns3:Pace>1.64</ns3:Pace></ns3:TPX></Extensions></Trackpoint><Trackpoint><Time>2025-07-16T19:24:42Z</Time><Position><LatitudeDegrees>-8.04464596</LatitudeDegrees><LongitudeDegrees>-34.93928692</LongitudeDegrees></Position><HeartRateBpm><Value>99</Value></HeartRateBpm><Cadence>70</Cadence><Extensions><ns3:TPX><ns3:Speed>0.6000000238418579</ns3:Speed><ns3:Pace>0.83</ns3:Pace></ns3:TPX></Extensions></Trackpoint><Trackpoint><Time>2025-07-16T19:24:43Z</Time><Position><LatitudeDegrees>-8.04463563</LatitudeDegrees><LongitudeDegrees>-34.93928626</LongitudeDegrees></Position><HeartRateBpm><Value>98</Value></HeartRateBpm><Cadence>70</Cadence><Extensions><ns3:TPX><ns3:Speed>1.190000057220459</ns3:Speed><ns3:Pace>0.88</ns3:Pace></ns3:TPX></Extensions></Trackpoint><Trackpoint><Time>2025-07-16T19:24:44Z</Time><Position><LatitudeDegrees>-8.04462296</LatitudeDegrees><LongitudeDegrees>-34.93928626</LongitudeDegrees></Position><HeartRateBpm><Value>99</Value></HeartRateBpm><Cadence>70</Cadence><Extensions><ns3:TPX><ns3:Speed>1.1299999952316284</ns3:Speed><ns3:Pace>0.91</ns3:Pace></ns3:TPX></Extensions></Trackpoint><Trackpoint><Time>2025-07-16T19:24:45Z</Time><Position><LatitudeDegrees>-8.04461097</LatitudeDegrees><LongitudeDegrees>-34.93929126</LongitudeDegrees></Position><HeartRateBpm><Value>99</Value></HeartRateBpm><Cadence>70</Cadence><Extensions><ns3:TPX><ns3:Speed>1.090000033378601</ns3:Speed><ns3:Pace>0.91</ns3:Pace></ns3:TPX></Extensions></Trackpoint><Trackpoint><Time>2025-07-16T19:24:47Z</Time><Position><LatitudeDegrees>-8.0445483</LatitudeDegrees><LongitudeDegrees>-34.93929992</LongitudeDegrees></Position><HeartRateBpm><Value>100</Value></HeartRateBpm><Cadence>70</Cadence><Extensions><ns3:TPX><ns3:Speed>1.090000033378601</ns3:Speed><ns3:Pace>0.91</ns3:Pace></ns3:TPX></Extensions></Trackpoint><Trackpoint><Time>2025-07-16T19:24:48Z</Time><Position><LatitudeDegrees>-8.04453898</LatitudeDegrees><LongitudeDegrees>-34.93929825</LongitudeDegrees></Position><HeartRateBpm><Value>100</Value></HeartRateBpm><Cadence>70</Cadence><Extensions><ns3:TPX><ns3:Speed>1.090000033378601</ns3:Speed><ns3:Pace>0.86</ns3:Pace></ns3:TPX></Extensions></Trackpoint><Trackpoint><Time>2025-07-16T19:24:49Z</Time><Position><LatitudeDegrees>-8.04451898</LatitudeDegrees><LongitudeDegrees>-34.93929193</LongitudeDegrees></Position><HeartRateBpm><Value>100</Value></HeartRateBpm><Cadence>70</Cadence><Extensions><ns3:TPX><ns3:Speed>1.149999976158142</ns3:Speed><ns3:Pace>0.76</ns3:Pace></ns3:TPX></Extensions></Trackpoint><Trackpoint><Time>2025-07-16T19:24:50Z</Time><Position><LatitudeDegrees>-8.04448432</LatitudeDegrees><LongitudeDegrees>-34.9392766</LongitudeDegrees></Position><HeartRateBpm><Value>100</Value></HeartRateBpm><Cadence>70</Cadence><Extensions><ns3:TPX><ns3:Speed>1.2999999523162842</ns3:Speed><ns3:Pace>0.72</ns3:Pace></ns3:TPX></Extensions></Trackpoint><Trackpoint><Time>2025-07-16T19:24:51Z</Time><HeartRateBpm><Value>101</Value></HeartRateBpm><Cadence>70</Cadence><Extensions><ns3:TPX><ns3:Speed>1.3799999952316284</ns3:Speed></ns3:TPX></Extensions></Trackpoint><Trackpoint><Time>2025-07-16T19:24:53Z</Time><Position><LatitudeDegrees>-8.04433167</LatitudeDegrees><LongitudeDegrees>-34.93922326</LongitudeDegrees></Position><HeartRateBpm><Value>101</Value></HeartRateBpm><Cadence>70</Cadence><Extensions><ns3:TPX><ns3:Speed>1.3799999952316284</ns3:Speed><ns3:Pace>0.72</ns3:Pace></ns3:TPX></Extensions></Trackpoint><Trackpoint><Time>2025-07-16T19:24:54Z</Time><Position><LatitudeDegrees>-8.04433001</LatitudeDegrees><LongitudeDegrees>-34.93922194</LongitudeDegrees></Position><HeartRateBpm><Value>101</Value></HeartRateBpm><Cadence>70</Cadence><Extensions><ns3:TPX><ns3:Speed>1.3799999952316284</ns3:Speed><ns3:Pace>0.71</ns3:Pace></ns3:TPX></Extensions></Trackpoint><Trackpoint><Time>2025-07-16T19:24:56Z</Time><Position><LatitudeDegrees>-8.044335</LatitudeDegrees><LongitudeDegrees>-34.93926993</LongitudeDegrees></Position><HeartRateBpm><Value>100</Value></HeartRateBpm><Cadence>70</Cadence><Extensions><ns3:TPX><ns3:Speed>1.3899999856948853</ns3:Speed><ns3:Pace>0.72</ns3:Pace></ns3:TPX></Extensions></Trackpoint><Trackpoint><Time>2025-07-16T19:24:57Z</Time><Position><LatitudeDegrees>-8.04433567</LatitudeDegrees><LongitudeDegrees>-34.93927659</LongitudeDegrees></Position><HeartRateBpm><Value>101</Value></HeartRateBpm><Cadence>70</Cadence><Extensions><ns3:TPX><ns3:Speed>1.3700000047683716</ns3:Speed><ns3:Pace>0.76</ns3:Pace></ns3:TPX></Extensions></Trackpoint><Trackpoint><Time>2025-07-16T19:24:58Z</Time><Position><LatitudeDegrees>-8.04433068</LatitudeDegrees><LongitudeDegrees>-34.93928959</LongitudeDegrees></Position><HeartRateBpm><Value>101</Value></HeartRateBpm><Cadence>70</Cadence><Extensions><ns3:TPX><ns3:Speed>1.309999942779541</ns3:Speed><ns3:Pace>0.76</ns3:Pace></ns3:TPX></Extensions></Trackpoint><Trackpoint><Time>2025-07-16T19:24:59Z</Time><Position><LatitudeDegrees>-8.04431968</LatitudeDegrees><LongitudeDegrees>-34.93930158</LongitudeDegrees></Position><HeartRateBpm><Value>101</Value></HeartRateBpm><Cadence>70</Cadence><Extensions><ns3:TPX><ns3:Speed>1.309999942779541</ns3:Speed><ns3:Pace>0.76</ns3:Pace></ns3:TPX></Extensions></Trackpoint><Trackpoint><Time>2025-07-16T19:25:00Z</Time><Position><LatitudeDegrees>-8.04430469</LatitudeDegrees><LongitudeDegrees>-34.9393079</LongitudeDegrees></Position><HeartRateBpm><Value>101</Value></HeartRateBpm><Cadence>70</Cadence><Extensions><ns3:TPX><ns3:Speed>1.309999942779541</ns3:Speed><ns3:Pace>0.82</ns3:Pace></ns3:TPX></Extensions></Trackpoint><Trackpoint><Time>2025-07-16T19:25:01Z</Time><Position><LatitudeDegrees>-8.04428735</LatitudeDegrees><LongitudeDegrees>-34.93931157</LongitudeDegrees></Position><HeartRateBpm><Value>100</Value></HeartRateBpm><Cadence>70</Cadence><Extensions><ns3:TPX><ns3:Speed>1.2100000381469727</ns3:Speed><ns3:Pace>0.9</ns3:Pace></ns3:TPX></Extensions></Trackpoint><Trackpoint><Time>2025-07-16T19:25:02Z</Time><Position><LatitudeDegrees>-8.0442677</LatitudeDegrees><LongitudeDegrees>-34.93930824</LongitudeDegrees></Position><HeartRateBpm><Value>99</Value></HeartRateBpm><Cadence>70</Cadence><Extensions><ns3:TPX><ns3:Speed>1.100000023841858</ns3:Speed></ns3:TPX></Extensions></Trackpoint><Trackpoint><Time>2025-07-16T19:25:04Z</Time><HeartRateBpm><Value>98</Value></HeartRateBpm><Cadence>70</Cadence><Extensions><ns3:TPX><ns3:Speed>1.0299999713897705</ns3:Speed></ns3:TPX></Extensions></Trackpoint><Trackpoint><Time>2025-07-16T19:25:05Z</Time><HeartRateBpm><Value>97</Value></HeartRateBpm><Cadence>70</Cadence><Extensions><ns3:TPX><ns3:Speed>1.0299999713897705</ns3:Speed></ns3:TPX></Extensions></Trackpoint><Trackpoint><Time>2025-07-16T19:25:06Z</Time><HeartRateBpm><Value>96</Value></HeartRateBpm><Cadence>70</Cadence><Extensions><ns3:TPX><ns3:Speed>1.0299999713897705</ns3:Speed></ns3:TPX></Extensions></Trackpoint><Trackpoint><Time>2025-07-16T19:25:11Z</Time><HeartRateBpm><Value>96</Value></HeartRateBpm><Cadence>70</Cadence><Extensions><ns3:TPX><ns3:Speed>0.0</ns3:Speed></ns3:TPX></Extensions></Trackpoint><Trackpoint><Time>2025-07-16T19:25:12Z</Time><HeartRateBpm><Value>97</Value></HeartRateBpm><Cadence>70</Cadence><Extensions><ns3:TPX><ns3:Speed>0.0</ns3:Speed></ns3:TPX></Extensions></Trackpoint><Trackpoint><Time>2025-07-16T19:25:16Z</Time><HeartRateBpm><Value>96</Value></HeartRateBpm><Cadence>70</Cadence><Extensions><ns3:TPX><ns3:Speed>0.0</ns3:Speed></ns3:TPX></Extensions></Trackpoint><Trackpoint><Time>2025-07-16T19:25:21Z</Time><HeartRateBpm><Value>96</Value></HeartRateBpm><Cadence>70</Cadence><Extensions><ns3:TPX><ns3:Speed>0.0</ns3:Speed></ns3:TPX></Extensions></Trackpoint><Trackpoint><Time>2025-07-16T19:25:25Z</Time><HeartRateBpm><Value>97</Value></HeartRateBpm><Cadence>70</Cadence><Extensions><ns3:TPX><ns3:Speed>0.0</ns3:Speed></ns3:TPX></Extensions></Trackpoint><Trackpoint><Time>2025-07-16T19:25:27Z</Time><HeartRateBpm><Value>98</Value></HeartRateBpm><Cadence>70</Cadence><Extensions><ns3:TPX><ns3:Speed>0.0</ns3:Speed></ns3:TPX></Extensions></Trackpoint><Trackpoint><Time>2025-07-16T19:25:28Z</Time><HeartRateBpm><Value>99</Value></HeartRateBpm><Cadence>70</Cadence><Extensions><ns3:TPX><ns3:Speed>0.0</ns3:Speed></ns3:TPX></Extensions></Trackpoint><Trackpoint><Time>2025-07-16T19:25:29Z</Time><HeartRateBpm><Value>101</Value></HeartRateBpm><Cadence>70</Cadence><Extensions><ns3:TPX><ns3:Speed>0.0</ns3:Speed></ns3:TPX></Extensions></Trackpoint><Trackpoint><Time>2025-07-16T19:25:30Z</Time><HeartRateBpm><Value>102</Value></HeartRateBpm><Cadence>70</Cadence><Extensions><ns3:TPX><ns3:Speed>0.0</ns3:Speed></ns3:TPX></Extensions></Trackpoint><Trackpoint><Time>2025-07-16T19:25:35Z</Time><HeartRateBpm><Value>103</Value></HeartRateBpm><Cadence>70</Cadence><Extensions><ns3:TPX><ns3:Speed>0.0</ns3:Speed></ns3:TPX></Extensions></Trackpoint><Trackpoint><Time>2025-07-16T19:25:36Z</Time><HeartRateBpm><Value>104</Value></HeartRateBpm><Cadence>70</Cadence><Extensions><ns3:TPX><ns3:Speed>0.0</ns3:Speed></ns3:TPX></Extensions></Trackpoint><Trackpoint><Time>2025-07-16T19:25:41Z</Time><HeartRateBpm><Value>105</Value></HeartRateBpm><Cadence>70</Cadence><Extensions><ns3:TPX><ns3:Speed>0.0</ns3:Speed></ns3:TPX></Extensions></Trackpoint><Trackpoint><Time>2025-07-16T19:25:42Z</Time><HeartRateBpm><Value>106</Value></HeartRateBpm><Cadence>70</Cadence><Extensions><ns3:TPX><ns3:Speed>0.0</ns3:Speed></ns3:TPX></Extensions></Trackpoint><Trackpoint><Time>2025-07-16T19:25:47Z</Time><HeartRateBpm><Value>106</Value></HeartRateBpm><Cadence>70</Cadence><Extensions><ns3:TPX><ns3:Speed>0.0</ns3:Speed></ns3:TPX></Extensions></Trackpoint><Trackpoint><Time>2025-07-16T19:25:48Z</Time><HeartRateBpm><Value>104</Value></HeartRateBpm><Cadence>70</Cadence><Extensions><ns3:TPX><ns3:Speed>0.0</ns3:Speed></ns3:TPX></Extensions></Trackpoint><Trackpoint><Time>2025-07-16T19:25:51Z</Time><HeartRateBpm><Value>103</Value></HeartRateBpm><Cadence>70</Cadence><Extensions><ns3:TPX><ns3:Speed>0.0</ns3:Speed></ns3:TPX></Extensions></Trackpoint><Trackpoint><Time>2025-07-16T19:25:52Z</Time><HeartRateBpm><Value>102</Value></HeartRateBpm><Cadence>70</Cadence><Extensions><ns3:TPX><ns3:Speed>0.0</ns3:Speed></ns3:TPX></Extensions></Trackpoint><Trackpoint><Time>2025-07-16T19:25:53Z</Time><HeartRateBpm><Value>101</Value></HeartRateBpm><Cadence>70</Cadence><Extensions><ns3:TPX><ns3:Speed>0.0</ns3:Speed></ns3:TPX></Extensions></Trackpoint><Trackpoint><Time>2025-07-16T19:25:57Z</Time><HeartRateBpm><Value>102</Value></HeartRateBpm><Cadence>70</Cadence><Extensions><ns3:TPX><ns3:Speed>0.0</ns3:Speed></ns3:TPX></Extensions></Trackpoint><Trackpoint><Time>2025-07-16T19:25:59Z</Time><Position><LatitudeDegrees>-8.04473169</LatitudeDegrees><LongitudeDegrees>-34.93966824</LongitudeDegrees></Position><HeartRateBpm><Value>103</Value></HeartRateBpm><Cadence>70</Cadence><Extensions><ns3:TPX><ns3:Speed>0.0</ns3:Speed></ns3:TPX></Extensions></Trackpoint><Trackpoint><Time>2025-07-16T19:26:04Z</Time><HeartRateBpm><Value>103</Value></HeartRateBpm><Cadence>70</Cadence><Extensions><ns3:TPX><ns3:Speed>0.0</ns3:Speed></ns3:TPX></Extensions></Trackpoint><Trackpoint><Time>2025-07-16T19:26:06Z</Time><HeartRateBpm><Value>102</Value></HeartRateBpm><Cadence>70</Cadence><Extensions><ns3:TPX><ns3:Speed>0.0</ns3:Speed></ns3:TPX></Extensions></Trackpoint><Trackpoint><Time>2025-07-16T19:26:11Z</Time><HeartRateBpm><Value>102</Value></HeartRateBpm><Cadence>70</Cadence><Extensions><ns3:TPX><ns3:Speed>0.0</ns3:Speed></ns3:TPX></Extensions></Trackpoint><Trackpoint><Time>2025-07-16T19:26:12Z</Time><HeartRateBpm><Value>98</Value></HeartRateBpm><Cadence>70</Cadence><Extensions><ns3:TPX><ns3:Speed>0.0</ns3:Speed></ns3:TPX></Extensions></Trackpoint><Trackpoint><Time>2025-07-16T19:26:13Z</Time><HeartRateBpm><Value>96</Value></HeartRateBpm><Cadence>70</Cadence><Extensions><ns3:TPX><ns3:Speed>0.0</ns3:Speed></ns3:TPX></Extensions></Trackpoint><Trackpoint><Time>2025-07-16T19:26:15Z</Time><HeartRateBpm><Value>95</Value></HeartRateBpm><Cadence>70</Cadence><Extensions><ns3:TPX><ns3:Speed>0.0</ns3:Speed></ns3:TPX></Extensions></Trackpoint><Trackpoint><Time>2025-07-16T19:26:16Z</Time><HeartRateBpm><Value>94</Value></HeartRateBpm><Cadence>70</Cadence><Extensions><ns3:TPX><ns3:Speed>0.0</ns3:Speed></ns3:TPX></Extensions></Trackpoint><Trackpoint><Time>2025-07-16T19:26:19Z</Time><HeartRateBpm><Value>95</Value></HeartRateBpm><Cadence>70</Cadence><Extensions><ns3:TPX><ns3:Speed>0.0</ns3:Speed></ns3:TPX></Extensions></Trackpoint><Trackpoint><Time>2025-07-16T19:26:21Z</Time><HeartRateBpm><Value>96</Value></HeartRateBpm><Cadence>70</Cadence><Extensions><ns3:TPX><ns3:Speed>0.0</ns3:Speed></ns3:TPX></Extensions></Trackpoint><Trackpoint><Time>2025-07-16T19:26:25Z</Time><HeartRateBpm><Value>95</Value></HeartRateBpm><Cadence>70</Cadence><Extensions><ns3:TPX><ns3:Speed>0.0</ns3:Speed></ns3:TPX></Extensions></Trackpoint><Trackpoint><Time>2025-07-16T19:26:28Z</Time><HeartRateBpm><Value>94</Value></HeartRateBpm><Cadence>70</Cadence><Extensions><ns3:TPX><ns3:Speed>0.0</ns3:Speed></ns3:TPX></Extensions></Trackpoint><Trackpoint><Time>2025-07-16T19:26:31Z</Time><HeartRateBpm><Value>93</Value></HeartRateBpm><Cadence>70</Cadence><Extensions><ns3:TPX><ns3:Speed>0.0</ns3:Speed></ns3:TPX></Extensions></Trackpoint><Trackpoint><Time>2025-07-16T19:26:33Z</Time><HeartRateBpm><Value>91</Value></HeartRateBpm><Cadence>70</Cadence><Extensions><ns3:TPX><ns3:Speed>0.0</ns3:Speed></ns3:TPX></Extensions></Trackpoint><Trackpoint><Time>2025-07-16T19:26:34Z</Time><HeartRateBpm><Value>90</Value></HeartRateBpm><Cadence>70</Cadence><Extensions><ns3:TPX><ns3:Speed>0.0</ns3:Speed></ns3:TPX></Extensions></Trackpoint><Trackpoint><Time>2025-07-16T19:26:39Z</Time><HeartRateBpm><Value>90</Value></HeartRateBpm><Cadence>70</Cadence><Extensions><ns3:TPX><ns3:Speed>0.0</ns3:Speed></ns3:TPX></Extensions></Trackpoint><Trackpoint><Time>2025-07-16T19:26:45Z</Time><HeartRateBpm><Value>90</Value></HeartRateBpm><Cadence>70</Cadence><Extensions><ns3:TPX><ns3:Speed>0.0</ns3:Speed></ns3:TPX></Extensions></Trackpoint><Trackpoint><Time>2025-07-16T19:26:49Z</Time><HeartRateBpm><Value>90</Value></HeartRateBpm><Cadence>70</Cadence><Extensions><ns3:TPX><ns3:Speed>0.0</ns3:Speed></ns3:TPX></Extensions></Trackpoint><Trackpoint><Time>2025-07-16T19:26:52Z</Time><HeartRateBpm><Value>91</Value></HeartRateBpm><Cadence>70</Cadence><Extensions><ns3:TPX><ns3:Speed>0.0</ns3:Speed></ns3:TPX></Extensions></Trackpoint><Trackpoint><Time>2025-07-16T19:26:53Z</Time><HeartRateBpm><Value>92</Value></HeartRateBpm><Cadence>70</Cadence><Extensions><ns3:TPX><ns3:Speed>0.0</ns3:Speed></ns3:TPX></Extensions></Trackpoint><Trackpoint><Time>2025-07-16T19:26:54Z</Time><HeartRateBpm><Value>93</Value></HeartRateBpm><Cadence>70</Cadence><Extensions><ns3:TPX><ns3:Speed>0.0</ns3:Speed></ns3:TPX></Extensions></Trackpoint><Trackpoint><Time>2025-07-16T19:26:55Z</Time><HeartRateBpm><Value>96</Value></HeartRateBpm><Cadence>70</Cadence><Extensions><ns3:TPX><ns3:Speed>0.0</ns3:Speed></ns3:TPX></Extensions></Trackpoint><Trackpoint><Time>2025-07-16T19:26:56Z</Time><HeartRateBpm><Value>99</Value></HeartRateBpm><Cadence>70</Cadence><Extensions><ns3:TPX><ns3:Speed>0.0</ns3:Speed></ns3:TPX></Extensions></Trackpoint><Trackpoint><Time>2025-07-16T19:26:58Z</Time><HeartRateBpm><Value>101</Value></HeartRateBpm><Cadence>70</Cadence><Extensions><ns3:TPX><ns3:Speed>0.0</ns3:Speed></ns3:TPX></Extensions></Trackpoint><Trackpoint><Time>2025-07-16T19:26:59Z</Time><HeartRateBpm><Value>96</Value></HeartRateBpm><Cadence>70</Cadence><Extensions><ns3:TPX><ns3:Speed>0.0</ns3:Speed></ns3:TPX></Extensions></Trackpoint><Trackpoint><Time>2025-07-16T19:27:00Z</Time><HeartRateBpm><Value>99</Value></HeartRateBpm><Cadence>70</Cadence><Extensions><ns3:TPX><ns3:Speed>0.0</ns3:Speed></ns3:TPX></Extensions></Trackpoint><Trackpoint><Time>2025-07-16T19:27:01Z</Time><HeartRateBpm><Value>93</Value></HeartRateBpm><Cadence>70</Cadence><Extensions><ns3:TPX><ns3:Speed>0.0</ns3:Speed></ns3:TPX></Extensions></Trackpoint><Trackpoint><Time>2025-07-16T19:27:02Z</Time><HeartRateBpm><Value>91</Value></HeartRateBpm><Cadence>70</Cadence><Extensions><ns3:TPX><ns3:Speed>0.0</ns3:Speed></ns3:TPX></Extensions></Trackpoint><Trackpoint><Time>2025-07-16T19:27:04Z</Time><HeartRateBpm><Value>90</Value></HeartRateBpm><Cadence>70</Cadence><Extensions><ns3:TPX><ns3:Speed>0.0</ns3:Speed></ns3:TPX></Extensions></Trackpoint><Trackpoint><Time>2025-07-16T19:27:06Z</Time><HeartRateBpm><Value>89</Value></HeartRateBpm><Cadence>70</Cadence><Extensions><ns3:TPX><ns3:Speed>0.0</ns3:Speed></ns3:TPX></Extensions></Trackpoint><Trackpoint><Time>2025-07-16T19:27:07Z</Time><HeartRateBpm><Value>88</Value></HeartRateBpm><Cadence>70</Cadence><Extensions><ns3:TPX><ns3:Speed>0.0</ns3:Speed></ns3:TPX></Extensions></Trackpoint><Trackpoint><Time>2025-07-16T19:27:11Z</Time><HeartRateBpm><Value>89</Value></HeartRateBpm><Cadence>70</Cadence><Extensions><ns3:TPX><ns3:Speed>0.0</ns3:Speed></ns3:TPX></Extensions></Trackpoint><Trackpoint><Time>2025-07-16T19:27:12Z</Time><HeartRateBpm><Value>90</Value></HeartRateBpm><Cadence>70</Cadence><Extensions><ns3:TPX><ns3:Speed>0.0</ns3:Speed></ns3:TPX></Extensions></Trackpoint><Trackpoint><Time>2025-07-16T19:27:13Z</Time><HeartRateBpm><Value>91</Value></HeartRateBpm><Cadence>70</Cadence><Extensions><ns3:TPX><ns3:Speed>0.0</ns3:Speed></ns3:TPX></Extensions></Trackpoint><Trackpoint><Time>2025-07-16T19:27:18Z</Time><HeartRateBpm><Value>91</Value></HeartRateBpm><Cadence>70</Cadence><Extensions><ns3:TPX><ns3:Speed>0.0</ns3:Speed></ns3:TPX></Extensions></Trackpoint><Trackpoint><Time>2025-07-16T19:27:23Z</Time><HeartRateBpm><Value>91</Value></HeartRateBpm><Cadence>70</Cadence><Extensions><ns3:TPX><ns3:Speed>0.0</ns3:Speed></ns3:TPX></Extensions></Trackpoint><Trackpoint><Time>2025-07-16T19:27:25Z</Time><HeartRateBpm><Value>89</Value></HeartRateBpm><Cadence>70</Cadence><Extensions><ns3:TPX><ns3:Speed>0.0</ns3:Speed></ns3:TPX></Extensions></Trackpoint><Trackpoint><Time>2025-07-16T19:27:26Z</Time><HeartRateBpm><Value>90</Value></HeartRateBpm><Cadence>70</Cadence><Extensions><ns3:TPX><ns3:Speed>0.0</ns3:Speed></ns3:TPX></Extensions></Trackpoint><Trackpoint><Time>2025-07-16T19:27:31Z</Time><HeartRateBpm><Value>90</Value></HeartRateBpm><Cadence>70</Cadence><Extensions><ns3:TPX><ns3:Speed>0.0</ns3:Speed></ns3:TPX></Extensions></Trackpoint><Trackpoint><Time>2025-07-16T19:27:36Z</Time><HeartRateBpm><Value>91</Value></HeartRateBpm><Cadence>70</Cadence><Extensions><ns3:TPX><ns3:Speed>0.0</ns3:Speed></ns3:TPX></Extensions></Trackpoint><Trackpoint><Time>2025-07-16T19:27:38Z</Time><HeartRateBpm><Value>92</Value></HeartRateBpm><Cadence>70</Cadence><Extensions><ns3:TPX><ns3:Speed>0.0</ns3:Speed></ns3:TPX></Extensions></Trackpoint><Trackpoint><Time>2025-07-16T19:27:40Z</Time><HeartRateBpm><Value>90</Value></HeartRateBpm><Cadence>70</Cadence><Extensions><ns3:TPX><ns3:Speed>0.0</ns3:Speed></ns3:TPX></Extensions></Trackpoint><Trackpoint><Time>2025-07-16T19:27:41Z</Time><HeartRateBpm><Value>89</Value></HeartRateBpm><Cadence>70</Cadence><Extensions><ns3:TPX><ns3:Speed>0.0</ns3:Speed></ns3:TPX></Extensions></Trackpoint><Trackpoint><Time>2025-07-16T19:27:42Z</Time><HeartRateBpm><Value>88</Value></HeartRateBpm><Cadence>70</Cadence><Extensions><ns3:TPX><ns3:Speed>0.0</ns3:Speed></ns3:TPX></Extensions></Trackpoint><Trackpoint><Time>2025-07-16T19:27:43Z</Time><HeartRateBpm><Value>87</Value></HeartRateBpm><Cadence>70</Cadence><Extensions><ns3:TPX><ns3:Speed>0.0</ns3:Speed></ns3:TPX></Extensions></Trackpoint><Trackpoint><Time>2025-07-16T19:27:44Z</Time><HeartRateBpm><Value>88</Value></HeartRateBpm><Cadence>72</Cadence><Extensions><ns3:TPX><ns3:Speed>0.0</ns3:Speed></ns3:TPX></Extensions></Trackpoint><Trackpoint><Time>2025-07-16T19:27:49Z</Time><HeartRateBpm><Value>88</Value></HeartRateBpm><Cadence>72</Cadence><Extensions><ns3:TPX><ns3:Speed>0.0</ns3:Speed></ns3:TPX></Extensions></Trackpoint><Trackpoint><Time>2025-07-16T19:27:50Z</Time><HeartRateBpm><Value>87</Value></HeartRateBpm><Cadence>72</Cadence><Extensions><ns3:TPX><ns3:Speed>0.0</ns3:Speed></ns3:TPX></Extensions></Trackpoint><Trackpoint><Time>2025-07-16T19:27:53Z</Time><HeartRateBpm><Value>88</Value></HeartRateBpm><Cadence>72</Cadence><Extensions><ns3:TPX><ns3:Speed>0.0</ns3:Speed></ns3:TPX></Extensions></Trackpoint><Trackpoint><Time>2025-07-16T19:27:54Z</Time><HeartRateBpm><Value>90</Value></HeartRateBpm><Cadence>72</Cadence><Extensions><ns3:TPX><ns3:Speed>0.0</ns3:Speed></ns3:TPX></Extensions></Trackpoint><Trackpoint><Time>2025-07-16T19:27:55Z</Time><HeartRateBpm><Value>91</Value></HeartRateBpm><Cadence>72</Cadence><Extensions><ns3:TPX><ns3:Speed>0.0</ns3:Speed></ns3:TPX></Extensions></Trackpoint><Trackpoint><Time>2025-07-16T19:27:56Z</Time><HeartRateBpm><Value>92</Value></HeartRateBpm><Cadence>72</Cadence><Extensions><ns3:TPX><ns3:Speed>0.0</ns3:Speed></ns3:TPX></Extensions></Trackpoint><Trackpoint><Time>2025-07-16T19:27:58Z</Time><HeartRateBpm><Value>93</Value></HeartRateBpm><Cadence>72</Cadence><Extensions><ns3:TPX><ns3:Speed>0.0</ns3:Speed></ns3:TPX></Extensions></Trackpoint><Trackpoint><Time>2025-07-16T19:27:59Z</Time><HeartRateBpm><Value>94</Value></HeartRateBpm><Cadence>72</Cadence><Extensions><ns3:TPX><ns3:Speed>0.0</ns3:Speed></ns3:TPX></Extensions></Trackpoint><Trackpoint><Time>2025-07-16T19:28:03Z</Time><HeartRateBpm><Value>95</Value></HeartRateBpm><Cadence>72</Cadence><Extensions><ns3:TPX><ns3:Speed>0.0</ns3:Speed></ns3:TPX></Extensions></Trackpoint><Trackpoint><Time>2025-07-16T19:28:08Z</Time><HeartRateBpm><Value>95</Value></HeartRateBpm><Cadence>72</Cadence><Extensions><ns3:TPX><ns3:Speed>0.0</ns3:Speed></ns3:TPX></Extensions></Trackpoint><Trackpoint><Time>2025-07-16T19:28:13Z</Time><HeartRateBpm><Value>96</Value></HeartRateBpm><Cadence>72</Cadence><Extensions><ns3:TPX><ns3:Speed>0.0</ns3:Speed></ns3:TPX></Extensions></Trackpoint><Trackpoint><Time>2025-07-16T19:28:14Z</Time><HeartRateBpm><Value>97</Value></HeartRateBpm><Cadence>72</Cadence><Extensions><ns3:TPX><ns3:Speed>0.0</ns3:Speed></ns3:TPX></Extensions></Trackpoint><Trackpoint><Time>2025-07-16T19:28:15Z</Time><HeartRateBpm><Value>98</Value></HeartRateBpm><Cadence>72</Cadence><Extensions><ns3:TPX><ns3:Speed>0.0</ns3:Speed></ns3:TPX></Extensions></Trackpoint><Trackpoint><Time>2025-07-16T19:28:17Z</Time><HeartRateBpm><Value>99</Value></HeartRateBpm><Cadence>72</Cadence><Extensions><ns3:TPX><ns3:Speed>0.0</ns3:Speed></ns3:TPX></Extensions></Trackpoint><Trackpoint><Time>2025-07-16T19:28:18Z</Time><HeartRateBpm><Value>101</Value></HeartRateBpm><Cadence>72</Cadence><Extensions><ns3:TPX><ns3:Speed>0.0</ns3:Speed></ns3:TPX></Extensions></Trackpoint><Trackpoint><Time>2025-07-16T19:28:19Z</Time><HeartRateBpm><Value>103</Value></HeartRateBpm><Cadence>72</Cadence><Extensions><ns3:TPX><ns3:Speed>0.0</ns3:Speed></ns3:TPX></Extensions></Trackpoint><Trackpoint><Time>2025-07-16T19:28:20Z</Time><HeartRateBpm><Value>104</Value></HeartRateBpm><Cadence>72</Cadence><Extensions><ns3:TPX><ns3:Speed>0.0</ns3:Speed></ns3:TPX></Extensions></Trackpoint><Trackpoint><Time>2025-07-16T19:28:21Z</Time><HeartRateBpm><Value>105</Value></HeartRateBpm><Cadence>72</Cadence><Extensions><ns3:TPX><ns3:Speed>0.0</ns3:Speed></ns3:TPX></Extensions></Trackpoint><Trackpoint><Time>2025-07-16T19:28:26Z</Time><HeartRateBpm><Value>105</Value></HeartRateBpm><Cadence>72</Cadence><Extensions><ns3:TPX><ns3:Speed>0.0</ns3:Speed></ns3:TPX></Extensions></Trackpoint><Trackpoint><Time>2025-07-16T19:28:27Z</Time><HeartRateBpm><Value>106</Value></HeartRateBpm><Cadence>72</Cadence><Extensions><ns3:TPX><ns3:Speed>0.0</ns3:Speed></ns3:TPX></Extensions></Trackpoint><Trackpoint><Time>2025-07-16T19:28:30Z</Time><HeartRateBpm><Value>107</Value></HeartRateBpm><Cadence>72</Cadence><Extensions><ns3:TPX><ns3:Speed>0.0</ns3:Speed></ns3:TPX></Extensions></Trackpoint><Trackpoint><Time>2025-07-16T19:28:31Z</Time><HeartRateBpm><Value>108</Value></HeartRateBpm><Cadence>72</Cadence><Extensions><ns3:TPX><ns3:Speed>0.0</ns3:Speed></ns3:TPX></Extensions></Trackpoint><Trackpoint><Time>2025-07-16T19:28:33Z</Time><HeartRateBpm><Value>106</Value></HeartRateBpm><Cadence>72</Cadence><Extensions><ns3:TPX><ns3:Speed>0.0</ns3:Speed></ns3:TPX></Extensions></Trackpoint><Trackpoint><Time>2025-07-16T19:28:36Z</Time><HeartRateBpm><Value>107</Value></HeartRateBpm><Cadence>72</Cadence><Extensions><ns3:TPX><ns3:Speed>0.0</ns3:Speed></ns3:TPX></Extensions></Trackpoint><Trackpoint><Time>2025-07-16T19:28:42Z</Time><HeartRateBpm><Value>107</Value></HeartRateBpm><Cadence>72</Cadence><Extensions><ns3:TPX><ns3:Speed>0.550000011920929</ns3:Speed></ns3:TPX></Extensions></Trackpoint><Trackpoint><Time>2025-07-16T19:28:45Z</Time><HeartRateBpm><Value>108</Value></HeartRateBpm><Cadence>72</Cadence><Extensions><ns3:TPX><ns3:Speed>0.5799999833106995</ns3:Speed></ns3:TPX></Extensions></Trackpoint><Trackpoint><Time>2025-07-16T19:28:46Z</Time><HeartRateBpm><Value>109</Value></HeartRateBpm><Cadence>72</Cadence><Extensions><ns3:TPX><ns3:Speed>0.6700000166893005</ns3:Speed></ns3:TPX></Extensions></Trackpoint><Trackpoint><Time>2025-07-16T19:28:48Z</Time><HeartRateBpm><Value>110</Value></HeartRateBpm><Cadence>72</Cadence><Extensions><ns3:TPX><ns3:Speed>0.6800000071525574</ns3:Speed></ns3:TPX></Extensions></Trackpoint><Trackpoint><Time>2025-07-16T19:28:51Z</Time><HeartRateBpm><Value>111</Value></HeartRateBpm><Cadence>72</Cadence><Extensions><ns3:TPX><ns3:Speed>0.6800000071525574</ns3:Speed></ns3:TPX></Extensions></Trackpoint><Trackpoint><Time>2025-07-16T19:28:56Z</Time><HeartRateBpm><Value>110</Value></HeartRateBpm><Cadence>72</Cadence><Extensions><ns3:TPX><ns3:Speed>0.6100000143051147</ns3:Speed></ns3:TPX></Extensions></Trackpoint><Trackpoint><Time>2025-07-16T19:28:58Z</Time><HeartRateBpm><Value>109</Value></HeartRateBpm><Cadence>72</Cadence><Extensions><ns3:TPX><ns3:Speed>0.6800000071525574</ns3:Speed></ns3:TPX></Extensions></Trackpoint><Trackpoint><Time>2025-07-16T19:29:02Z</Time><HeartRateBpm><Value>108</Value></HeartRateBpm><Cadence>72</Cadence><Extensions><ns3:TPX><ns3:Speed>0.5799999833106995</ns3:Speed></ns3:TPX></Extensions></Trackpoint><Trackpoint><Time>2025-07-16T19:29:04Z</Time><HeartRateBpm><Value>111</Value></HeartRateBpm><Cadence>72</Cadence><Extensions><ns3:TPX><ns3:Speed>0.7400000095367432</ns3:Speed></ns3:TPX></Extensions></Trackpoint><Trackpoint><Time>2025-07-16T19:29:06Z</Time><HeartRateBpm><Value>113</Value></HeartRateBpm><Cadence>72</Cadence><Extensions><ns3:TPX><ns3:Speed>0.6800000071525574</ns3:Speed></ns3:TPX></Extensions></Trackpoint><Trackpoint><Time>2025-07-16T19:29:07Z</Time><HeartRateBpm><Value>114</Value></HeartRateBpm><Cadence>72</Cadence><Extensions><ns3:TPX><ns3:Speed>0.5400000214576721</ns3:Speed></ns3:TPX></Extensions></Trackpoint><Trackpoint><Time>2025-07-16T19:29:08Z</Time><HeartRateBpm><Value>115</Value></HeartRateBpm><Cadence>72</Cadence><Extensions><ns3:TPX><ns3:Speed>0.4699999988079071</ns3:Speed></ns3:TPX></Extensions></Trackpoint><Trackpoint><Time>2025-07-16T19:29:10Z</Time><HeartRateBpm><Value>118</Value></HeartRateBpm><Cadence>72</Cadence><Extensions><ns3:TPX><ns3:Speed>0.41999998688697815</ns3:Speed></ns3:TPX></Extensions></Trackpoint><Trackpoint><Time>2025-07-16T19:29:12Z</Time><HeartRateBpm><Value>119</Value></HeartRateBpm><Cadence>72</Cadence><Extensions><ns3:TPX><ns3:Speed>0.41999998688697815</ns3:Speed></ns3:TPX></Extensions></Trackpoint><Trackpoint><Time>2025-07-16T19:29:16Z</Time><HeartRateBpm><Value>119</Value></HeartRateBpm><Cadence>72</Cadence><Extensions><ns3:TPX><ns3:Speed>0.25</ns3:Speed></ns3:TPX></Extensions></Trackpoint><Trackpoint><Time>2025-07-16T19:29:17Z</Time><HeartRateBpm><Value>118</Value></HeartRateBpm><Cadence>72</Cadence><Extensions><ns3:TPX><ns3:Speed>0.11999999731779099</ns3:Speed></ns3:TPX></Extensions></Trackpoint><Trackpoint><Time>2025-07-16T19:29:22Z</Time><HeartRateBpm><Value>118</Value></HeartRateBpm><Cadence>72</Cadence><Extensions><ns3:TPX><ns3:Speed>0.0</ns3:Speed></ns3:TPX></Extensions></Trackpoint><Trackpoint><Time>2025-07-16T19:29:26Z</Time><HeartRateBpm><Value>117</Value></HeartRateBpm><Cadence>65</Cadence><Extensions><ns3:TPX><ns3:Speed>0.0</ns3:Speed></ns3:TPX></Extensions></Trackpoint><Trackpoint><Time>2025-07-16T19:29:29Z</Time><HeartRateBpm><Value>118</Value></HeartRateBpm><Cadence>65</Cadence><Extensions><ns3:TPX><ns3:Speed>0.0</ns3:Speed></ns3:TPX></Extensions></Trackpoint><Trackpoint><Time>2025-07-16T19:29:31Z</Time><HeartRateBpm><Value>119</Value></HeartRateBpm><Cadence>65</Cadence><Extensions><ns3:TPX><ns3:Speed>0.0</ns3:Speed></ns3:TPX></Extensions></Trackpoint><Trackpoint><Time>2025-07-16T19:29:33Z</Time><HeartRateBpm><Value>120</Value></HeartRateBpm><Cadence>65</Cadence><Extensions><ns3:TPX><ns3:Speed>0.0</ns3:Speed></ns3:TPX></Extensions></Trackpoint><Trackpoint><Time>2025-07-16T19:29:37Z</Time><HeartRateBpm><Value>119</Value></HeartRateBpm><Cadence>65</Cadence><Extensions><ns3:TPX><ns3:Speed>0.0</ns3:Speed></ns3:TPX></Extensions></Trackpoint><Trackpoint><Time>2025-07-16T19:29:40Z</Time><HeartRateBpm><Value>120</Value></HeartRateBpm><Cadence>65</Cadence><Extensions><ns3:TPX><ns3:Speed>0.0</ns3:Speed></ns3:TPX></Extensions></Trackpoint><Trackpoint><Time>2025-07-16T19:29:44Z</Time><HeartRateBpm><Value>120</Value></HeartRateBpm><Cadence>65</Cadence><Extensions><ns3:TPX><ns3:Speed>0.0</ns3:Speed></ns3:TPX></Extensions></Trackpoint><Trackpoint><Time>2025-07-16T19:29:49Z</Time><HeartRateBpm><Value>119</Value></HeartRateBpm><Cadence>65</Cadence><Extensions><ns3:TPX><ns3:Speed>0.0</ns3:Speed></ns3:TPX></Extensions></Trackpoint><Trackpoint><Time>2025-07-16T19:29:50Z</Time><HeartRateBpm><Value>118</Value></HeartRateBpm><Cadence>65</Cadence><Extensions><ns3:TPX><ns3:Speed>0.0</ns3:Speed></ns3:TPX></Extensions></Trackpoint><Trackpoint><Time>2025-07-16T19:29:51Z</Time><HeartRateBpm><Value>117</Value></HeartRateBpm><Cadence>65</Cadence><Extensions><ns3:TPX><ns3:Speed>0.0</ns3:Speed></ns3:TPX></Extensions></Trackpoint><Trackpoint><Time>2025-07-16T19:29:53Z</Time><HeartRateBpm><Value>116</Value></HeartRateBpm><Cadence>65</Cadence><Extensions><ns3:TPX><ns3:Speed>0.0</ns3:Speed></ns3:TPX></Extensions></Trackpoint><Trackpoint><Time>2025-07-16T19:29:55Z</Time><HeartRateBpm><Value>115</Value></HeartRateBpm><Cadence>65</Cadence><Extensions><ns3:TPX><ns3:Speed>0.0</ns3:Speed></ns3:TPX></Extensions></Trackpoint><Trackpoint><Time>2025-07-16T19:30:01Z</Time><HeartRateBpm><Value>114</Value></HeartRateBpm><Cadence>65</Cadence><Extensions><ns3:TPX><ns3:Speed>0.0</ns3:Speed></ns3:TPX></Extensions></Trackpoint><Trackpoint><Time>2025-07-16T19:30:07Z</Time><HeartRateBpm><Value>114</Value></HeartRateBpm><Cadence>65</Cadence><Extensions><ns3:TPX><ns3:Speed>0.0</ns3:Speed></ns3:TPX></Extensions></Trackpoint><Trackpoint><Time>2025-07-16T19:30:13Z</Time><HeartRateBpm><Value>115</Value></HeartRateBpm><Cadence>65</Cadence><Extensions><ns3:TPX><ns3:Speed>0.4399999976158142</ns3:Speed></ns3:TPX></Extensions></Trackpoint><Trackpoint><Time>2025-07-16T19:30:19Z</Time><HeartRateBpm><Value>115</Value></HeartRateBpm><Cadence>65</Cadence><Extensions><ns3:TPX><ns3:Speed>0.44999998807907104</ns3:Speed></ns3:TPX></Extensions></Trackpoint><Trackpoint><Time>2025-07-16T19:30:20Z</Time><HeartRateBpm><Value>114</Value></HeartRateBpm><Cadence>61</Cadence><Extensions><ns3:TPX><ns3:Speed>0.44999998807907104</ns3:Speed></ns3:TPX></Extensions></Trackpoint><Trackpoint><Time>2025-07-16T19:30:23Z</Time><HeartRateBpm><Value>115</Value></HeartRateBpm><Cadence>61</Cadence><Extensions><ns3:TPX><ns3:Speed>0.41999998688697815</ns3:Speed></ns3:TPX></Extensions></Trackpoint><Trackpoint><Time>2025-07-16T19:30:25Z</Time><HeartRateBpm><Value>116</Value></HeartRateBpm><Cadence>61</Cadence><Extensions><ns3:TPX><ns3:Speed>0.4000000059604645</ns3:Speed></ns3:TPX></Extensions></Trackpoint><Trackpoint><Time>2025-07-16T19:30:26Z</Time><HeartRateBpm><Value>117</Value></HeartRateBpm><Cadence>61</Cadence><Extensions><ns3:TPX><ns3:Speed>0.3799999952316284</ns3:Speed></ns3:TPX></Extensions></Trackpoint><Trackpoint><Time>2025-07-16T19:30:27Z</Time><HeartRateBpm><Value>116</Value></HeartRateBpm><Cadence>61</Cadence><Extensions><ns3:TPX><ns3:Speed>0.18000000715255737</ns3:Speed></ns3:TPX></Extensions></Trackpoint><Trackpoint><Time>2025-07-16T19:30:29Z</Time><HeartRateBpm><Value>117</Value></HeartRateBpm><Cadence>61</Cadence><Extensions><ns3:TPX><ns3:Speed>0.0</ns3:Speed></ns3:TPX></Extensions></Trackpoint><Trackpoint><Time>2025-07-16T19:30:34Z</Time><HeartRateBpm><Value>117</Value></HeartRateBpm><Cadence>61</Cadence><Extensions><ns3:TPX><ns3:Speed>0.0</ns3:Speed></ns3:TPX></Extensions></Trackpoint><Trackpoint><Time>2025-07-16T19:30:38Z</Time><HeartRateBpm><Value>116</Value></HeartRateBpm><Cadence>61</Cadence><Extensions><ns3:TPX><ns3:Speed>0.0</ns3:Speed></ns3:TPX></Extensions></Trackpoint><Trackpoint><Time>2025-07-16T19:30:39Z</Time><HeartRateBpm><Value>115</Value></HeartRateBpm><Cadence>61</Cadence><Extensions><ns3:TPX><ns3:Speed>0.0</ns3:Speed></ns3:TPX></Extensions></Trackpoint><Trackpoint><Time>2025-07-16T19:30:40Z</Time><HeartRateBpm><Value>114</Value></HeartRateBpm><Cadence>61</Cadence><Extensions><ns3:TPX><ns3:Speed>0.0</ns3:Speed></ns3:TPX></Extensions></Trackpoint><Trackpoint><Time>2025-07-16T19:30:45Z</Time><HeartRateBpm><Value>115</Value></HeartRateBpm><Cadence>61</Cadence><Extensions><ns3:TPX><ns3:Speed>0.0</ns3:Speed></ns3:TPX></Extensions></Trackpoint><Trackpoint><Time>2025-07-16T19:30:46Z</Time><HeartRateBpm><Value>114</Value></HeartRateBpm><Cadence>61</Cadence><Extensions><ns3:TPX><ns3:Speed>0.0</ns3:Speed></ns3:TPX></Extensions></Trackpoint><Trackpoint><Time>2025-07-16T19:30:47Z</Time><HeartRateBpm><Value>116</Value></HeartRateBpm><Cadence>61</Cadence><Extensions><ns3:TPX><ns3:Speed>0.0</ns3:Speed></ns3:TPX></Extensions></Trackpoint><Trackpoint><Time>2025-07-16T19:30:49Z</Time><HeartRateBpm><Value>119</Value></HeartRateBpm><Cadence>61</Cadence><Extensions><ns3:TPX><ns3:Speed>0.0</ns3:Speed></ns3:TPX></Extensions></Trackpoint><Trackpoint><Time>2025-07-16T19:30:50Z</Time><HeartRateBpm><Value>121</Value></HeartRateBpm><Cadence>61</Cadence><Extensions><ns3:TPX><ns3:Speed>0.0</ns3:Speed></ns3:TPX></Extensions></Trackpoint><Trackpoint><Time>2025-07-16T19:30:51Z</Time><HeartRateBpm><Value>122</Value></HeartRateBpm><Cadence>61</Cadence><Extensions><ns3:TPX><ns3:Speed>0.0</ns3:Speed></ns3:TPX></Extensions></Trackpoint><Trackpoint><Time>2025-07-16T19:30:56Z</Time><HeartRateBpm><Value>122</Value></HeartRateBpm><Cadence>61</Cadence><Extensions><ns3:TPX><ns3:Speed>0.0</ns3:Speed></ns3:TPX></Extensions></Trackpoint><Trackpoint><Time>2025-07-16T19:31:01Z</Time><HeartRateBpm><Value>122</Value></HeartRateBpm><Cadence>61</Cadence><Extensions><ns3:TPX><ns3:Speed>0.0</ns3:Speed></ns3:TPX></Extensions></Trackpoint><Trackpoint><Time>2025-07-16T19:31:04Z</Time><HeartRateBpm><Value>124</Value></HeartRateBpm><Cadence>61</Cadence><Extensions><ns3:TPX><ns3:Speed>0.0</ns3:Speed></ns3:TPX></Extensions></Trackpoint><Trackpoint><Time>2025-07-16T19:31:09Z</Time><HeartRateBpm><Value>124</Value></HeartRateBpm><Cadence>61</Cadence><Extensions><ns3:TPX><ns3:Speed>0.0</ns3:Speed></ns3:TPX></Extensions></Trackpoint><Trackpoint><Time>2025-07-16T19:31:13Z</Time><HeartRateBpm><Value>125</Value></HeartRateBpm><Cadence>61</Cadence><Extensions><ns3:TPX><ns3:Speed>0.0</ns3:Speed></ns3:TPX></Extensions></Trackpoint><Trackpoint><Time>2025-07-16T19:31:15Z</Time><HeartRateBpm><Value>124</Value></HeartRateBpm><Cadence>61</Cadence><Extensions><ns3:TPX><ns3:Speed>0.0</ns3:Speed></ns3:TPX></Extensions></Trackpoint><Trackpoint><Time>2025-07-16T19:31:19Z</Time><HeartRateBpm><Value>123</Value></HeartRateBpm><Cadence>61</Cadence><Extensions><ns3:TPX><ns3:Speed>0.0</ns3:Speed></ns3:TPX></Extensions></Trackpoint></Track></Lap></Activity></Activities></TrainingCenterDatabase>