<?xml version="1.0" encoding="UTF-8"?><TrainingCenterDatabase xmlns="http://www.garmin.com/xmlschemas/TrainingCenterDatabase/v2" xmlns:ns2="http://www.garmin.com/xmlschemas/UserProfile/v2" xmlns:ns3="http://www.garmin.com/xmlschemas/ActivityExtension/v2" xmlns:ns5="http://www.garmin.com/xmlschemas/ActivityGoals/v1" xmlns:xsi="http://www.w3.org/2001/XMLSchema-instance" xsi:schemaLocation="http://www.garmin.com/xmlschemas/TrainingCenterDatabase/v2 http://www.garmin.com/xmlschemas/TrainingCenterDatabasev2.xsd"><Activities><Activity Sport="Workout"><Id>2025-10-24T22:08:45Z</Id><Creator><Name>Amazfit Bip U Pro</Name></Creator><Lap StartTime="2025-10-24T22:08:45Z"><Calories>62.0</Calories><DistanceMeters>0.0</DistanceMeters><TotalTimeSeconds>737</TotalTimeSeconds><AverageHeartRateBpm><Value>91</Value></AverageHeartRateBpm><Track><Trackpoint><Time>2025-10-24T22:08:45Z</Time></Trackpoint><Trackpoint><Time>2025-10-24T22:08:56Z</Time><Cadence>59</Cadence><Extensions><ns3:TPX><ns3:Speed>0.0</ns3:Speed></ns3:TPX></Extensions></Trackpoint><Trackpoint><Time>2025-10-24T22:09:02Z</Time><HeartRateBpm><Value>68</Value></HeartRateBpm><Cadence>59</Cadence><Extensions><ns3:TPX><ns3:Speed>0.0</ns3:Speed></ns3:TPX></Extensions></Trackpoint><Trackpoint><Time>2025-10-24T22:09:04Z</Time><HeartRateBpm><Value>67</Value></HeartRateBpm><Cadence>59</Cadence><Extensions><ns3:TPX><ns3:Speed>0.0</ns3:Speed></ns3:TPX></Extensions></Trackpoint><Trackpoint><Time>2025-10-24T22:09:06Z</Time><HeartRateBpm><Value>66</Value></HeartRateBpm><Cadence>59</Cadence><Extensions><ns3:TPX><ns3:Speed>0.0</ns3:Speed></ns3:TPX></Extensions></Trackpoint><Trackpoint><Time>2025-10-24T22:09:09Z</Time><HeartRateBpm><Value>67</Value></HeartRateBpm><Cadence>59</Cadence><Extensions><ns3:TPX><ns3:Speed>0.0</ns3:Speed></ns3:TPX></Extensions></Trackpoint><Trackpoint><Time>2025-10-24T22:09:11Z</Time><HeartRateBpm><Value>69</Value></HeartRateBpm><Cadence>59</Cadence><Extensions><ns3:TPX><ns3:Speed>0.0</ns3:Speed></ns3:TPX></Extensions></Trackpoint><Trackpoint><Time>2025-10-24T22:09:12Z</Time><HeartRateBpm><Value>70</Value></HeartRateBpm><Cadence>59</Cadence><Extensions><ns3:TPX><ns3:Speed>0.0</ns3:Speed></ns3:TPX></Extensions></Trackpoint><Trackpoint><Time>2025-10-24T22:09:14Z</Time><HeartRateBpm><Value>71</Value></HeartRateBpm><Cadence>59</Cadence><Extensions><ns3:TPX><ns3:Speed>0.0</ns3:Speed></ns3:TPX></Extensions></Trackpoint><Trackpoint><Time>2025-10-24T22:09:16Z</Time><HeartRateBpm><Value>72</Value></HeartRateBpm><Cadence>59</Cadence><Extensions><ns3:TPX><ns3:Speed>0.0</ns3:Speed></ns3:TPX></Extensions></Trackpoint><Trackpoint><Time>2025-10-24T22:09:17Z</Time><HeartRateBpm><Value>73</Value></HeartRateBpm><Cadence>59</Cadence><Extensions><ns3:TPX><ns3:Speed>0.0</ns3:Speed></ns3:TPX></Extensions></Trackpoint><Trackpoint><Time>2025-10-24T22:09:22Z</Time><HeartRateBpm><Value>73</Value></HeartRateBpm><Cadence>59</Cadence><Extensions><ns3:TPX><ns3:Speed>0.0</ns3:Speed></ns3:TPX></Extensions></Trackpoint><Trackpoint><Time>2025-10-24T22:09:24Z</Time><HeartRateBpm><Value>74</Value></HeartRateBpm><Cadence>59</Cadence><Extensions><ns3:TPX><ns3:Speed>0.0</ns3:Speed></ns3:TPX></Extensions></Trackpoint><Trackpoint><Time>2025-10-24T22:09:27Z</Time><HeartRateBpm><Value>76</Value></HeartRateBpm><Cadence>59</Cadence><Extensions><ns3:TPX><ns3:Speed>0.0</ns3:Speed></ns3:TPX></Extensions></Trackpoint><Trackpoint><Time>2025-10-24T22:09:28Z</Time><HeartRateBpm><Value>77</Value></HeartRateBpm><Cadence>59</Cadence><Extensions><ns3:TPX><ns3:Speed>0.0</ns3:Speed></ns3:TPX></Extensions></Trackpoint><Trackpoint><Time>2025-10-24T22:09:29Z</Time><HeartRateBpm><Value>72</Value></HeartRateBpm><Cadence>59</Cadence><Extensions><ns3:TPX><ns3:Speed>0.0</ns3:Speed></ns3:TPX></Extensions></Trackpoint><Trackpoint><Time>2025-10-24T22:09:30Z</Time><HeartRateBpm><Value>75</Value></HeartRateBpm><Cadence>59</Cadence><Extensions><ns3:TPX><ns3:Speed>0.0</ns3:Speed></ns3:TPX></Extensions></Trackpoint><Trackpoint><Time>2025-10-24T22:09:32Z</Time><HeartRateBpm><Value>73</Value></HeartRateBpm><Cadence>59</Cadence><Extensions><ns3:TPX><ns3:Speed>0.0</ns3:Speed></ns3:TPX></Extensions></Trackpoint><Trackpoint><Time>2025-10-24T22:09:33Z</Time><HeartRateBpm><Value>74</Value></HeartRateBpm><Cadence>59</Cadence><Extensions><ns3:TPX><ns3:Speed>0.0</ns3:Speed></ns3:TPX></Extensions></Trackpoint><Trackpoint><Time>2025-10-24T22:09:34Z</Time><HeartRateBpm><Value>75</Value></HeartRateBpm><Cadence>59</Cadence><Extensions><ns3:TPX><ns3:Speed>0.0</ns3:Speed></ns3:TPX></Extensions></Trackpoint><Trackpoint><Time>2025-10-24T22:09:35Z</Time><HeartRateBpm><Value>77</Value></HeartRateBpm><Cadence>59</Cadence><Extensions><ns3:TPX><ns3:Speed>0.0</ns3:Speed></ns3:TPX></Extensions></Trackpoint><Trackpoint><Time>2025-10-24T22:09:37Z</Time><HeartRateBpm><Value>78</Value></HeartRateBpm><Cadence>59</Cadence><Extensions><ns3:TPX><ns3:Speed>0.0</ns3:Speed></ns3:TPX></Extensions></Trackpoint><Trackpoint><Time>2025-10-24T22:09:39Z</Time><HeartRateBpm><Value>79</Value></HeartRateBpm><Cadence>59</Cadence><Extensions><ns3:TPX><ns3:Speed>0.0</ns3:Speed></ns3:TPX></Extensions></Trackpoint><Trackpoint><Time>2025-10-24T22:09:41Z</Time><HeartRateBpm><Value>80</Value></HeartRateBpm><Cadence>59</Cadence><Extensions><ns3:TPX><ns3:Speed>0.0</ns3:Speed></ns3:TPX></Extensions></Trackpoint><Trackpoint><Time>2025-10-24T22:09:42Z</Time><HeartRateBpm><Value>81</Value></HeartRateBpm><Cadence>59</Cadence><Extensions><ns3:TPX><ns3:Speed>0.0</ns3:Speed></ns3:TPX></Extensions></Trackpoint><Trackpoint><Time>2025-10-24T22:09:43Z</Time><HeartRateBpm><Value>83</Value></HeartRateBpm><Cadence>59</Cadence><Extensions><ns3:TPX><ns3:Speed>0.0</ns3:Speed></ns3:TPX></Extensions></Trackpoint><Trackpoint><Time>2025-10-24T22:09:45Z</Time><HeartRateBpm><Value>84</Value></HeartRateBpm><Cadence>59</Cadence><Extensions><ns3:TPX><ns3:Speed>0.0</ns3:Speed></ns3:TPX></Extensions></Trackpoint><Trackpoint><Time>2025-10-24T22:09:47Z</Time><HeartRateBpm><Value>85</Value></HeartRateBpm><Cadence>59</Cadence><Extensions><ns3:TPX><ns3:Speed>0.0</ns3:Speed></ns3:TPX></Extensions></Trackpoint><Trackpoint><Time>2025-10-24T22:09:48Z</Time><HeartRateBpm><Value>80</Value></HeartRateBpm><Cadence>59</Cadence><Extensions><ns3:TPX><ns3:Speed>0.0</ns3:Speed></ns3:TPX></Extensions></Trackpoint><Trackpoint><Time>2025-10-24T22:09:49Z</Time><HeartRateBpm><Value>82</Value></HeartRateBpm><Cadence>59</Cadence><Extensions><ns3:TPX><ns3:Speed>0.0</ns3:Speed></ns3:TPX></Extensions></Trackpoint><Trackpoint><Time>2025-10-24T22:09:51Z</Time><HeartRateBpm><Value>79</Value></HeartRateBpm><Cadence>59</Cadence><Extensions><ns3:TPX><ns3:Speed>0.0</ns3:Speed></ns3:TPX></Extensions></Trackpoint><Trackpoint><Time>2025-10-24T22:09:52Z</Time><HeartRateBpm><Value>78</Value></HeartRateBpm><Cadence>59</Cadence><Extensions><ns3:TPX><ns3:Speed>0.0</ns3:Speed></ns3:TPX></Extensions></Trackpoint><Trackpoint><Time>2025-10-24T22:09:54Z</Time><HeartRateBpm><Value>79</Value></HeartRateBpm><Cadence>59</Cadence><Extensions><ns3:TPX><ns3:Speed>0.0</ns3:Speed></ns3:TPX></Extensions></Trackpoint><Trackpoint><Time>2025-10-24T22:09:55Z</Time><HeartRateBpm><Value>80</Value></HeartRateBpm><Cadence>59</Cadence><Extensions><ns3:TPX><ns3:Speed>0.0</ns3:Speed></ns3:TPX></Extensions></Trackpoint><Trackpoint><Time>2025-10-24T22:09:57Z</Time><HeartRateBpm><Value>81</Value></HeartRateBpm><Cadence>59</Cadence><Extensions><ns3:TPX><ns3:Speed>0.0</ns3:Speed></ns3:TPX></Extensions></Trackpoint><Trackpoint><Time>2025-10-24T22:09:58Z</Time><HeartRateBpm><Value>83</Value></HeartRateBpm><Cadence>59</Cadence><Extensions><ns3:TPX><ns3:Speed>0.0</ns3:Speed></ns3:TPX></Extensions></Trackpoint><Trackpoint><Time>2025-10-24T22:09:59Z</Time><HeartRateBpm><Value>85</Value></HeartRateBpm><Cadence>59</Cadence><Extensions><ns3:TPX><ns3:Speed>0.0</ns3:Speed></ns3:TPX></Extensions></Trackpoint><Trackpoint><Time>2025-10-24T22:10:04Z</Time><HeartRateBpm><Value>85</Value></HeartRateBpm><Cadence>59</Cadence><Extensions><ns3:TPX><ns3:Speed>0.0</ns3:Speed></ns3:TPX></Extensions></Trackpoint><Trackpoint><Time>2025-10-24T22:10:05Z</Time><HeartRateBpm><Value>86</Value></HeartRateBpm><Cadence>59</Cadence><Extensions><ns3:TPX><ns3:Speed>0.0</ns3:Speed></ns3:TPX></Extensions></Trackpoint><Trackpoint><Time>2025-10-24T22:10:06Z</Time><HeartRateBpm><Value>88</Value></HeartRateBpm><Cadence>59</Cadence><Extensions><ns3:TPX><ns3:Speed>0.0</ns3:Speed></ns3:TPX></Extensions></Trackpoint><Trackpoint><Time>2025-10-24T22:10:07Z</Time><HeartRateBpm><Value>89</Value></HeartRateBpm><Cadence>59</Cadence><Extensions><ns3:TPX><ns3:Speed>0.0</ns3:Speed></ns3:TPX></Extensions></Trackpoint><Trackpoint><Time>2025-10-24T22:10:09Z</Time><HeartRateBpm><Value>85</Value></HeartRateBpm><Cadence>59</Cadence><Extensions><ns3:TPX><ns3:Speed>0.0</ns3:Speed></ns3:TPX></Extensions></Trackpoint><Trackpoint><Time>2025-10-24T22:10:10Z</Time><HeartRateBpm><Value>86</Value></HeartRateBpm><Cadence>59</Cadence><Extensions><ns3:TPX><ns3:Speed>0.0</ns3:Speed></ns3:TPX></Extensions></Trackpoint><Trackpoint><Time>2025-10-24T22:10:11Z</Time><HeartRateBpm><Value>84</Value></HeartRateBpm><Cadence>59</Cadence><Extensions><ns3:TPX><ns3:Speed>0.0</ns3:Speed></ns3:TPX></Extensions></Trackpoint><Trackpoint><Time>2025-10-24T22:10:16Z</Time><HeartRateBpm><Value>84</Value></HeartRateBpm><Cadence>59</Cadence><Extensions><ns3:TPX><ns3:Speed>0.0</ns3:Speed></ns3:TPX></Extensions></Trackpoint><Trackpoint><Time>2025-10-24T22:10:17Z</Time><HeartRateBpm><Value>83</Value></HeartRateBpm><Cadence>59</Cadence><Extensions><ns3:TPX><ns3:Speed>0.0</ns3:Speed></ns3:TPX></Extensions></Trackpoint><Trackpoint><Time>2025-10-24T22:10:22Z</Time><HeartRateBpm><Value>83</Value></HeartRateBpm><Cadence>59</Cadence><Extensions><ns3:TPX><ns3:Speed>0.0</ns3:Speed></ns3:TPX></Extensions></Trackpoint><Trackpoint><Time>2025-10-24T22:10:23Z</Time><HeartRateBpm><Value>86</Value></HeartRateBpm><Cadence>59</Cadence><Extensions><ns3:TPX><ns3:Speed>0.0</ns3:Speed></ns3:TPX></Extensions></Trackpoint><Trackpoint><Time>2025-10-24T22:10:24Z</Time><HeartRateBpm><Value>88</Value></HeartRateBpm><Cadence>59</Cadence><Extensions><ns3:TPX><ns3:Speed>0.0</ns3:Speed></ns3:TPX></Extensions></Trackpoint><Trackpoint><Time>2025-10-24T22:10:25Z</Time><HeartRateBpm><Value>89</Value></HeartRateBpm><Cadence>59</Cadence><Extensions><ns3:TPX><ns3:Speed>0.0</ns3:Speed></ns3:TPX></Extensions></Trackpoint><Trackpoint><Time>2025-10-24T22:10:29Z</Time><HeartRateBpm><Value>91</Value></HeartRateBpm><Cadence>59</Cadence><Extensions><ns3:TPX><ns3:Speed>0.0</ns3:Speed></ns3:TPX></Extensions></Trackpoint><Trackpoint><Time>2025-10-24T22:10:30Z</Time><HeartRateBpm><Value>92</Value></HeartRateBpm><Cadence>59</Cadence><Extensions><ns3:TPX><ns3:Speed>0.0</ns3:Speed></ns3:TPX></Extensions></Trackpoint><Trackpoint><Time>2025-10-24T22:10:32Z</Time><HeartRateBpm><Value>93</Value></HeartRateBpm><Cadence>59</Cadence><Extensions><ns3:TPX><ns3:Speed>0.0</ns3:Speed></ns3:TPX></Extensions></Trackpoint><Trackpoint><Time>2025-10-24T22:10:34Z</Time><HeartRateBpm><Value>94</Value></HeartRateBpm><Cadence>59</Cadence><Extensions><ns3:TPX><ns3:Speed>0.0</ns3:Speed></ns3:TPX></Extensions></Trackpoint><Trackpoint><Time>2025-10-24T22:10:35Z</Time><HeartRateBpm><Value>95</Value></HeartRateBpm><Cadence>59</Cadence><Extensions><ns3:TPX><ns3:Speed>0.0</ns3:Speed></ns3:TPX></Extensions></Trackpoint><Trackpoint><Time>2025-10-24T22:10:38Z</Time><HeartRateBpm><Value>89</Value></HeartRateBpm><Cadence>59</Cadence><Extensions><ns3:TPX><ns3:Speed>0.0</ns3:Speed></ns3:TPX></Extensions></Trackpoint><Trackpoint><Time>2025-10-24T22:10:40Z</Time><HeartRateBpm><Value>92</Value></HeartRateBpm><Cadence>59</Cadence><Extensions><ns3:TPX><ns3:Speed>0.0</ns3:Speed></ns3:TPX></Extensions></Trackpoint><Trackpoint><Time>2025-10-24T22:10:41Z</Time><HeartRateBpm><Value>87</Value></HeartRateBpm><Cadence>59</Cadence><Extensions><ns3:TPX><ns3:Speed>0.0</ns3:Speed></ns3:TPX></Extensions></Trackpoint><Trackpoint><Time>2025-10-24T22:10:46Z</Time><HeartRateBpm><Value>87</Value></HeartRateBpm><Cadence>59</Cadence><Extensions><ns3:TPX><ns3:Speed>0.0</ns3:Speed></ns3:TPX></Extensions></Trackpoint><Trackpoint><Time>2025-10-24T22:10:47Z</Time><HeartRateBpm><Value>91</Value></HeartRateBpm><Cadence>59</Cadence><Extensions><ns3:TPX><ns3:Speed>0.0</ns3:Speed></ns3:TPX></Extensions></Trackpoint><Trackpoint><Time>2025-10-24T22:10:49Z</Time><HeartRateBpm><Value>92</Value></HeartRateBpm><Cadence>59</Cadence><Extensions><ns3:TPX><ns3:Speed>0.0</ns3:Speed></ns3:TPX></Extensions></Trackpoint><Trackpoint><Time>2025-10-24T22:10:54Z</Time><HeartRateBpm><Value>92</Value></HeartRateBpm><Cadence>59</Cadence><Extensions><ns3:TPX><ns3:Speed>0.0</ns3:Speed></ns3:TPX></Extensions></Trackpoint><Trackpoint><Time>2025-10-24T22:10:58Z</Time><HeartRateBpm><Value>93</Value></HeartRateBpm><Cadence>59</Cadence><Extensions><ns3:TPX><ns3:Speed>0.0</ns3:Speed></ns3:TPX></Extensions></Trackpoint><Trackpoint><Time>2025-10-24T22:11:00Z</Time><HeartRateBpm><Value>94</Value></HeartRateBpm><Cadence>59</Cadence><Extensions><ns3:TPX><ns3:Speed>0.0</ns3:Speed></ns3:TPX></Extensions></Trackpoint><Trackpoint><Time>2025-10-24T22:11:01Z</Time><HeartRateBpm><Value>95</Value></HeartRateBpm><Cadence>59</Cadence><Extensions><ns3:TPX><ns3:Speed>0.0</ns3:Speed></ns3:TPX></Extensions></Trackpoint><Trackpoint><Time>2025-10-24T22:11:05Z</Time><HeartRateBpm><Value>97</Value></HeartRateBpm><Cadence>59</Cadence><Extensions><ns3:TPX><ns3:Speed>0.0</ns3:Speed></ns3:TPX></Extensions></Trackpoint><Trackpoint><Time>2025-10-24T22:11:06Z</Time><HeartRateBpm><Value>98</Value></HeartRateBpm><Cadence>59</Cadence><Extensions><ns3:TPX><ns3:Speed>0.0</ns3:Speed></ns3:TPX></Extensions></Trackpoint><Trackpoint><Time>2025-10-24T22:11:11Z</Time><HeartRateBpm><Value>98</Value></HeartRateBpm><Cadence>59</Cadence><Extensions><ns3:TPX><ns3:Speed>0.0</ns3:Speed></ns3:TPX></Extensions></Trackpoint><Trackpoint><Time>2025-10-24T22:11:12Z</Time><HeartRateBpm><Value>100</Value></HeartRateBpm><Cadence>59</Cadence><Extensions><ns3:TPX><ns3:Speed>0.0</ns3:Speed></ns3:TPX></Extensions></Trackpoint><Trackpoint><Time>2025-10-24T22:11:13Z</Time><HeartRateBpm><Value>101</Value></HeartRateBpm><Cadence>59</Cadence><Extensions><ns3:TPX><ns3:Speed>0.0</ns3:Speed></ns3:TPX></Extensions></Trackpoint><Trackpoint><Time>2025-10-24T22:11:18Z</Time><HeartRateBpm><Value>98</Value></HeartRateBpm><Cadence>59</Cadence><Extensions><ns3:TPX><ns3:Speed>0.0</ns3:Speed></ns3:TPX></Extensions></Trackpoint><Trackpoint><Time>2025-10-24T22:11:19Z</Time><HeartRateBpm><Value>101</Value></HeartRateBpm><Cadence>59</Cadence><Extensions><ns3:TPX><ns3:Speed>0.0</ns3:Speed></ns3:TPX></Extensions></Trackpoint><Trackpoint><Time>2025-10-24T22:11:20Z</Time><HeartRateBpm><Value>98</Value></HeartRateBpm><Cadence>59</Cadence><Extensions><ns3:TPX><ns3:Speed>0.0</ns3:Speed></ns3:TPX></Extensions></Trackpoint><Trackpoint><Time>2025-10-24T22:11:21Z</Time><HeartRateBpm><Value>97</Value></HeartRateBpm><Cadence>59</Cadence><Extensions><ns3:TPX><ns3:Speed>0.0</ns3:Speed></ns3:TPX></Extensions></Trackpoint><Trackpoint><Time>2025-10-24T22:11:23Z</Time><HeartRateBpm><Value>96</Value></HeartRateBpm><Cadence>59</Cadence><Extensions><ns3:TPX><ns3:Speed>0.0</ns3:Speed></ns3:TPX></Extensions></Trackpoint><Trackpoint><Time>2025-10-24T22:11:24Z</Time><HeartRateBpm><Value>95</Value></HeartRateBpm><Cadence>59</Cadence><Extensions><ns3:TPX><ns3:Speed>0.0</ns3:Speed></ns3:TPX></Extensions></Trackpoint><Trackpoint><Time>2025-10-24T22:11:27Z</Time><HeartRateBpm><Value>96</Value></HeartRateBpm><Cadence>59</Cadence><Extensions><ns3:TPX><ns3:Speed>0.0</ns3:Speed></ns3:TPX></Extensions></Trackpoint><Trackpoint><Time>2025-10-24T22:11:32Z</Time><HeartRateBpm><Value>98</Value></HeartRateBpm><Cadence>59</Cadence><Extensions><ns3:TPX><ns3:Speed>0.0</ns3:Speed></ns3:TPX></Extensions></Trackpoint><Trackpoint><Time>2025-10-24T22:11:33Z</Time><HeartRateBpm><Value>99</Value></HeartRateBpm><Cadence>59</Cadence><Extensions><ns3:TPX><ns3:Speed>0.0</ns3:Speed></ns3:TPX></Extensions></Trackpoint><Trackpoint><Time>2025-10-24T22:11:35Z</Time><HeartRateBpm><Value>100</Value></HeartRateBpm><Cadence>59</Cadence><Extensions><ns3:TPX><ns3:Speed>0.0</ns3:Speed></ns3:TPX></Extensions></Trackpoint><Trackpoint><Time>2025-10-24T22:11:39Z</Time><HeartRateBpm><Value>100</Value></HeartRateBpm><Cadence>59</Cadence><Extensions><ns3:TPX><ns3:Speed>0.0</ns3:Speed></ns3:TPX></Extensions></Trackpoint><Trackpoint><Time>2025-10-24T22:11:40Z</Time><HeartRateBpm><Value>99</Value></HeartRateBpm><Cadence>59</Cadence><Extensions><ns3:TPX><ns3:Speed>0.0</ns3:Speed></ns3:TPX></Extensions></Trackpoint><Trackpoint><Time>2025-10-24T22:11:45Z</Time><HeartRateBpm><Value>98</Value></HeartRateBpm><Cadence>59</Cadence><Extensions><ns3:TPX><ns3:Speed>0.0</ns3:Speed></ns3:TPX></Extensions></Trackpoint><Trackpoint><Time>2025-10-24T22:11:46Z</Time><HeartRateBpm><Value>97</Value></HeartRateBpm><Cadence>59</Cadence><Extensions><ns3:TPX><ns3:Speed>0.0</ns3:Speed></ns3:TPX></Extensions></Trackpoint><Trackpoint><Time>2025-10-24T22:11:49Z</Time><HeartRateBpm><Value>95</Value></HeartRateBpm><Cadence>59</Cadence><Extensions><ns3:TPX><ns3:Speed>0.0</ns3:Speed></ns3:TPX></Extensions></Trackpoint><Trackpoint><Time>2025-10-24T22:11:50Z</Time><HeartRateBpm><Value>94</Value></HeartRateBpm><Cadence>59</Cadence><Extensions><ns3:TPX><ns3:Speed>0.0</ns3:Speed></ns3:TPX></Extensions></Trackpoint><Trackpoint><Time>2025-10-24T22:11:51Z</Time><HeartRateBpm><Value>93</Value></HeartRateBpm><Cadence>59</Cadence><Extensions><ns3:TPX><ns3:Speed>0.0</ns3:Speed></ns3:TPX></Extensions></Trackpoint><Trackpoint><Time>2025-10-24T22:11:55Z</Time><HeartRateBpm><Value>90</Value></HeartRateBpm><Cadence>59</Cadence><Extensions><ns3:TPX><ns3:Speed>0.0</ns3:Speed></ns3:TPX></Extensions></Trackpoint><Trackpoint><Time>2025-10-24T22:11:56Z</Time><HeartRateBpm><Value>88</Value></HeartRateBpm><Cadence>59</Cadence><Extensions><ns3:TPX><ns3:Speed>0.0</ns3:Speed></ns3:TPX></Extensions></Trackpoint><Trackpoint><Time>2025-10-24T22:11:57Z</Time><HeartRateBpm><Value>87</Value></HeartRateBpm><Cadence>59</Cadence><Extensions><ns3:TPX><ns3:Speed>0.0</ns3:Speed></ns3:TPX></Extensions></Trackpoint><Trackpoint><Time>2025-10-24T22:11:59Z</Time><HeartRateBpm><Value>86</Value></HeartRateBpm><Cadence>59</Cadence><Extensions><ns3:TPX><ns3:Speed>0.0</ns3:Speed></ns3:TPX></Extensions></Trackpoint><Trackpoint><Time>2025-10-24T22:12:01Z</Time><HeartRateBpm><Value>85</Value></HeartRateBpm><Cadence>59</Cadence><Extensions><ns3:TPX><ns3:Speed>0.0</ns3:Speed></ns3:TPX></Extensions></Trackpoint><Trackpoint><Time>2025-10-24T22:12:06Z</Time><HeartRateBpm><Value>86</Value></HeartRateBpm><Cadence>59</Cadence><Extensions><ns3:TPX><ns3:Speed>0.0</ns3:Speed></ns3:TPX></Extensions></Trackpoint><Trackpoint><Time>2025-10-24T22:12:07Z</Time><HeartRateBpm><Value>87</Value></HeartRateBpm><Cadence>59</Cadence><Extensions><ns3:TPX><ns3:Speed>0.0</ns3:Speed></ns3:TPX></Extensions></Trackpoint><Trackpoint><Time>2025-10-24T22:12:12Z</Time><HeartRateBpm><Value>87</Value></HeartRateBpm><Cadence>59</Cadence><Extensions><ns3:TPX><ns3:Speed>0.0</ns3:Speed></ns3:TPX></Extensions></Trackpoint><Trackpoint><Time>2025-10-24T22:12:13Z</Time><HeartRateBpm><Value>86</Value></HeartRateBpm><Cadence>59</Cadence><Extensions><ns3:TPX><ns3:Speed>0.0</ns3:Speed></ns3:TPX></Extensions></Trackpoint><Trackpoint><Time>2025-10-24T22:12:15Z</Time><HeartRateBpm><Value>85</Value></HeartRateBpm><Cadence>59</Cadence><Extensions><ns3:TPX><ns3:Speed>0.0</ns3:Speed></ns3:TPX></Extensions></Trackpoint><Trackpoint><Time>2025-10-24T22:12:18Z</Time><HeartRateBpm><Value>86</Value></HeartRateBpm><Cadence>59</Cadence><Extensions><ns3:TPX><ns3:Speed>0.0</ns3:Speed></ns3:TPX></Extensions></Trackpoint><Trackpoint><Time>2025-10-24T22:12:20Z</Time><HeartRateBpm><Value>85</Value></HeartRateBpm><Cadence>59</Cadence><Extensions><ns3:TPX><ns3:Speed>0.0</ns3:Speed></ns3:TPX></Extensions></Trackpoint><Trackpoint><Time>2025-10-24T22:12:24Z</Time><HeartRateBpm><Value>86</Value></HeartRateBpm><Cadence>59</Cadence><Extensions><ns3:TPX><ns3:Speed>0.0</ns3:Speed></ns3:TPX></Extensions></Trackpoint><Trackpoint><Time>2025-10-24T22:12:25Z</Time><HeartRateBpm><Value>88</Value></HeartRateBpm><Cadence>59</Cadence><Extensions><ns3:TPX><ns3:Speed>0.0</ns3:Speed></ns3:TPX></Extensions></Trackpoint><Trackpoint><Time>2025-10-24T22:12:26Z</Time><HeartRateBpm><Value>89</Value></HeartRateBpm><Cadence>59</Cadence><Extensions><ns3:TPX><ns3:Speed>0.0</ns3:Speed></ns3:TPX></Extensions></Trackpoint><Trackpoint><Time>2025-10-24T22:12:28Z</Time><HeartRateBpm><Value>90</Value></HeartRateBpm><Cadence>59</Cadence><Extensions><ns3:TPX><ns3:Speed>0.0</ns3:Speed></ns3:TPX></Extensions></Trackpoint><Trackpoint><Time>2025-10-24T22:12:30Z</Time><HeartRateBpm><Value>91</Value></HeartRateBpm><Cadence>59</Cadence><Extensions><ns3:TPX><ns3:Speed>0.0</ns3:Speed></ns3:TPX></Extensions></Trackpoint><Trackpoint><Time>2025-10-24T22:12:31Z</Time><HeartRateBpm><Value>89</Value></HeartRateBpm><Cadence>59</Cadence><Extensions><ns3:TPX><ns3:Speed>0.0</ns3:Speed></ns3:TPX></Extensions></Trackpoint><Trackpoint><Time>2025-10-24T22:12:32Z</Time><HeartRateBpm><Value>88</Value></HeartRateBpm><Cadence>59</Cadence><Extensions><ns3:TPX><ns3:Speed>0.0</ns3:Speed></ns3:TPX></Extensions></Trackpoint><Trackpoint><Time>2025-10-24T22:12:36Z</Time><HeartRateBpm><Value>87</Value></HeartRateBpm><Cadence>59</Cadence><Extensions><ns3:TPX><ns3:Speed>0.0</ns3:Speed></ns3:TPX></Extensions></Trackpoint><Trackpoint><Time>2025-10-24T22:12:37Z</Time><HeartRateBpm><Value>86</Value></HeartRateBpm><Cadence>59</Cadence><Extensions><ns3:TPX><ns3:Speed>0.0</ns3:Speed></ns3:TPX></Extensions></Trackpoint><Trackpoint><Time>2025-10-24T22:12:38Z</Time><HeartRateBpm><Value>87</Value></HeartRateBpm><Cadence>59</Cadence><Extensions><ns3:TPX><ns3:Speed>0.0</ns3:Speed></ns3:TPX></Extensions></Trackpoint><Trackpoint><Time>2025-10-24T22:12:40Z</Time><HeartRateBpm><Value>88</Value></HeartRateBpm><Cadence>59</Cadence><Extensions><ns3:TPX><ns3:Speed>0.0</ns3:Speed></ns3:TPX></Extensions></Trackpoint><Trackpoint><Time>2025-10-24T22:12:44Z</Time><HeartRateBpm><Value>89</Value></HeartRateBpm><Cadence>59</Cadence><Extensions><ns3:TPX><ns3:Speed>0.0</ns3:Speed></ns3:TPX></Extensions></Trackpoint><Trackpoint><Time>2025-10-24T22:12:49Z</Time><HeartRateBpm><Value>90</Value></HeartRateBpm><Cadence>59</Cadence><Extensions><ns3:TPX><ns3:Speed>0.0</ns3:Speed></ns3:TPX></Extensions></Trackpoint><Trackpoint><Time>2025-10-24T22:12:50Z</Time><HeartRateBpm><Value>91</Value></HeartRateBpm><Cadence>59</Cadence><Extensions><ns3:TPX><ns3:Speed>0.0</ns3:Speed></ns3:TPX></Extensions></Trackpoint><Trackpoint><Time>2025-10-24T22:12:51Z</Time><HeartRateBpm><Value>90</Value></HeartRateBpm><Cadence>59</Cadence><Extensions><ns3:TPX><ns3:Speed>0.0</ns3:Speed></ns3:TPX></Extensions></Trackpoint><Trackpoint><Time>2025-10-24T22:12:53Z</Time><HeartRateBpm><Value>92</Value></HeartRateBpm><Cadence>59</Cadence><Extensions><ns3:TPX><ns3:Speed>0.0</ns3:Speed></ns3:TPX></Extensions></Trackpoint><Trackpoint><Time>2025-10-24T22:12:57Z</Time><HeartRateBpm><Value>93</Value></HeartRateBpm><Cadence>59</Cadence><Extensions><ns3:TPX><ns3:Speed>0.0</ns3:Speed></ns3:TPX></Extensions></Trackpoint><Trackpoint><Time>2025-10-24T22:13:00Z</Time><HeartRateBpm><Value>92</Value></HeartRateBpm><Cadence>59</Cadence><Extensions><ns3:TPX><ns3:Speed>0.0</ns3:Speed></ns3:TPX></Extensions></Trackpoint><Trackpoint><Time>2025-10-24T22:13:04Z</Time><HeartRateBpm><Value>93</Value></HeartRateBpm><Cadence>59</Cadence><Extensions><ns3:TPX><ns3:Speed>0.0</ns3:Speed></ns3:TPX></Extensions></Trackpoint><Trackpoint><Time>2025-10-24T22:13:07Z</Time><HeartRateBpm><Value>94</Value></HeartRateBpm><Cadence>59</Cadence><Extensions><ns3:TPX><ns3:Speed>0.0</ns3:Speed></ns3:TPX></Extensions></Trackpoint><Trackpoint><Time>2025-10-24T22:13:08Z</Time><HeartRateBpm><Value>95</Value></HeartRateBpm><Cadence>59</Cadence><Extensions><ns3:TPX><ns3:Speed>0.0</ns3:Speed></ns3:TPX></Extensions></Trackpoint><Trackpoint><Time>2025-10-24T22:13:09Z</Time><HeartRateBpm><Value>96</Value></HeartRateBpm><Cadence>59</Cadence><Extensions><ns3:TPX><ns3:Speed>0.0</ns3:Speed></ns3:TPX></Extensions></Trackpoint><Trackpoint><Time>2025-10-24T22:13:11Z</Time><HeartRateBpm><Value>97</Value></HeartRateBpm><Cadence>59</Cadence><Extensions><ns3:TPX><ns3:Speed>0.0</ns3:Speed></ns3:TPX></Extensions></Trackpoint><Trackpoint><Time>2025-10-24T22:13:15Z</Time><HeartRateBpm><Value>96</Value></HeartRateBpm><Cadence>59</Cadence><Extensions><ns3:TPX><ns3:Speed>0.0</ns3:Speed></ns3:TPX></Extensions></Trackpoint><Trackpoint><Time>2025-10-24T22:13:20Z</Time><HeartRateBpm><Value>96</Value></HeartRateBpm><Cadence>59</Cadence><Extensions><ns3:TPX><ns3:Speed>0.0</ns3:Speed></ns3:TPX></Extensions></Trackpoint><Trackpoint><Time>2025-10-24T22:13:22Z</Time><HeartRateBpm><Value>94</Value></HeartRateBpm><Cadence>59</Cadence><Extensions><ns3:TPX><ns3:Speed>0.0</ns3:Speed></ns3:TPX></Extensions></Trackpoint><Trackpoint><Time>2025-10-24T22:13:23Z</Time><HeartRateBpm><Value>92</Value></HeartRateBpm><Cadence>59</Cadence><Extensions><ns3:TPX><ns3:Speed>0.0</ns3:Speed></ns3:TPX></Extensions></Trackpoint><Trackpoint><Time>2025-10-24T22:13:25Z</Time><HeartRateBpm><Value>91</Value></HeartRateBpm><Cadence>59</Cadence><Extensions><ns3:TPX><ns3:Speed>0.0</ns3:Speed></ns3:TPX></Extensions></Trackpoint><Trackpoint><Time>2025-10-24T22:13:26Z</Time><HeartRateBpm><Value>92</Value></HeartRateBpm><Cadence>59</Cadence><Extensions><ns3:TPX><ns3:Speed>0.0</ns3:Speed></ns3:TPX></Extensions></Trackpoint><Trackpoint><Time>2025-10-24T22:13:31Z</Time><HeartRateBpm><Value>92</Value></HeartRateBpm><Cadence>59</Cadence><Extensions><ns3:TPX><ns3:Speed>0.0</ns3:Speed></ns3:TPX></Extensions></Trackpoint><Trackpoint><Time>2025-10-24T22:13:32Z</Time><HeartRateBpm><Value>90</Value></HeartRateBpm><Cadence>59</Cadence><Extensions><ns3:TPX><ns3:Speed>0.0</ns3:Speed></ns3:TPX></Extensions></Trackpoint><Trackpoint><Time>2025-10-24T22:13:37Z</Time><HeartRateBpm><Value>90</Value></HeartRateBpm><Cadence>59</Cadence><Extensions><ns3:TPX><ns3:Speed>0.0</ns3:Speed></ns3:TPX></Extensions></Trackpoint><Trackpoint><Time>2025-10-24T22:13:43Z</Time><HeartRateBpm><Value>89</Value></HeartRateBpm><Cadence>59</Cadence><Extensions><ns3:TPX><ns3:Speed>0.0</ns3:Speed></ns3:TPX></Extensions></Trackpoint><Trackpoint><Time>2025-10-24T22:13:44Z</Time><HeartRateBpm><Value>86</Value></HeartRateBpm><Cadence>59</Cadence><Extensions><ns3:TPX><ns3:Speed>0.0</ns3:Speed></ns3:TPX></Extensions></Trackpoint><Trackpoint><Time>2025-10-24T22:13:49Z</Time><HeartRateBpm><Value>86</Value></HeartRateBpm><Cadence>59</Cadence><Extensions><ns3:TPX><ns3:Speed>0.0</ns3:Speed></ns3:TPX></Extensions></Trackpoint><Trackpoint><Time>2025-10-24T22:13:55Z</Time><HeartRateBpm><Value>86</Value></HeartRateBpm><Cadence>59</Cadence><Extensions><ns3:TPX><ns3:Speed>0.0</ns3:Speed></ns3:TPX></Extensions></Trackpoint><Trackpoint><Time>2025-10-24T22:13:56Z</Time><HeartRateBpm><Value>87</Value></HeartRateBpm><Cadence>59</Cadence><Extensions><ns3:TPX><ns3:Speed>0.0</ns3:Speed></ns3:TPX></Extensions></Trackpoint><Trackpoint><Time>2025-10-24T22:14:01Z</Time><HeartRateBpm><Value>87</Value></HeartRateBpm><Cadence>59</Cadence><Extensions><ns3:TPX><ns3:Speed>0.0</ns3:Speed></ns3:TPX></Extensions></Trackpoint><Trackpoint><Time>2025-10-24T22:14:07Z</Time><HeartRateBpm><Value>87</Value></HeartRateBpm><Cadence>59</Cadence><Extensions><ns3:TPX><ns3:Speed>0.0</ns3:Speed></ns3:TPX></Extensions></Trackpoint><Trackpoint><Time>2025-10-24T22:14:08Z</Time><HeartRateBpm><Value>86</Value></HeartRateBpm><Cadence>59</Cadence><Extensions><ns3:TPX><ns3:Speed>0.0</ns3:Speed></ns3:TPX></Extensions></Trackpoint><Trackpoint><Time>2025-10-24T22:14:13Z</Time><HeartRateBpm><Value>87</Value></HeartRateBpm><Cadence>59</Cadence><Extensions><ns3:TPX><ns3:Speed>0.0</ns3:Speed></ns3:TPX></Extensions></Trackpoint><Trackpoint><Time>2025-10-24T22:14:15Z</Time><HeartRateBpm><Value>88</Value></HeartRateBpm><Cadence>59</Cadence><Extensions><ns3:TPX><ns3:Speed>0.0</ns3:Speed></ns3:TPX></Extensions></Trackpoint><Trackpoint><Time>2025-10-24T22:14:16Z</Time><HeartRateBpm><Value>89</Value></HeartRateBpm><Cadence>59</Cadence><Extensions><ns3:TPX><ns3:Speed>0.0</ns3:Speed></ns3:TPX></Extensions></Trackpoint><Trackpoint><Time>2025-10-24T22:14:21Z</Time><HeartRateBpm><Value>89</Value></HeartRateBpm><Cadence>59</Cadence><Extensions><ns3:TPX><ns3:Speed>0.0</ns3:Speed></ns3:TPX></Extensions></Trackpoint><Trackpoint><Time>2025-10-24T22:14:26Z</Time><HeartRateBpm><Value>90</Value></HeartRateBpm><Cadence>59</Cadence><Extensions><ns3:TPX><ns3:Speed>0.0</ns3:Speed></ns3:TPX></Extensions></Trackpoint><Trackpoint><Time>2025-10-24T22:14:27Z</Time><HeartRateBpm><Value>92</Value></HeartRateBpm><Cadence>59</Cadence><Extensions><ns3:TPX><ns3:Speed>0.0</ns3:Speed></ns3:TPX></Extensions></Trackpoint><Trackpoint><Time>2025-10-24T22:14:28Z</Time><HeartRateBpm><Value>93</Value></HeartRateBpm><Cadence>59</Cadence><Extensions><ns3:TPX><ns3:Speed>0.0</ns3:Speed></ns3:TPX></Extensions></Trackpoint><Trackpoint><Time>2025-10-24T22:14:30Z</Time><HeartRateBpm><Value>92</Value></HeartRateBpm><Cadence>59</Cadence><Extensions><ns3:TPX><ns3:Speed>0.0</ns3:Speed></ns3:TPX></Extensions></Trackpoint><Trackpoint><Time>2025-10-24T22:14:33Z</Time><HeartRateBpm><Value>94</Value></HeartRateBpm><Cadence>59</Cadence><Extensions><ns3:TPX><ns3:Speed>0.0</ns3:Speed></ns3:TPX></Extensions></Trackpoint><Trackpoint><Time>2025-10-24T22:14:34Z</Time><HeartRateBpm><Value>95</Value></HeartRateBpm><Cadence>59</Cadence><Extensions><ns3:TPX><ns3:Speed>0.0</ns3:Speed></ns3:TPX></Extensions></Trackpoint><Trackpoint><Time>2025-10-24T22:14:35Z</Time><HeartRateBpm><Value>97</Value></HeartRateBpm><Cadence>59</Cadence><Extensions><ns3:TPX><ns3:Speed>0.0</ns3:Speed></ns3:TPX></Extensions></Trackpoint><Trackpoint><Time>2025-10-24T22:14:36Z</Time><HeartRateBpm><Value>96</Value></HeartRateBpm><Cadence>59</Cadence><Extensions><ns3:TPX><ns3:Speed>0.0</ns3:Speed></ns3:TPX></Extensions></Trackpoint><Trackpoint><Time>2025-10-24T22:14:38Z</Time><HeartRateBpm><Value>97</Value></HeartRateBpm><Cadence>59</Cadence><Extensions><ns3:TPX><ns3:Speed>0.0</ns3:Speed></ns3:TPX></Extensions></Trackpoint><Trackpoint><Time>2025-10-24T22:14:39Z</Time><HeartRateBpm><Value>99</Value></HeartRateBpm><Cadence>59</Cadence><Extensions><ns3:TPX><ns3:Speed>0.0</ns3:Speed></ns3:TPX></Extensions></Trackpoint><Trackpoint><Time>2025-10-24T22:14:40Z</Time><HeartRateBpm><Value>102</Value></HeartRateBpm><Cadence>59</Cadence><Extensions><ns3:TPX><ns3:Speed>0.0</ns3:Speed></ns3:TPX></Extensions></Trackpoint><Trackpoint><Time>2025-10-24T22:14:41Z</Time><HeartRateBpm><Value>101</Value></HeartRateBpm><Cadence>59</Cadence><Extensions><ns3:TPX><ns3:Speed>0.0</ns3:Speed></ns3:TPX></Extensions></Trackpoint><Trackpoint><Time>2025-10-24T22:14:42Z</Time><HeartRateBpm><Value>99</Value></HeartRateBpm><Cadence>59</Cadence><Extensions><ns3:TPX><ns3:Speed>0.0</ns3:Speed></ns3:TPX></Extensions></Trackpoint><Trackpoint><Time>2025-10-24T22:14:44Z</Time><HeartRateBpm><Value>98</Value></HeartRateBpm><Cadence>59</Cadence><Extensions><ns3:TPX><ns3:Speed>0.0</ns3:Speed></ns3:TPX></Extensions></Trackpoint><Trackpoint><Time>2025-10-24T22:14:45Z</Time><HeartRateBpm><Value>100</Value></HeartRateBpm><Cadence>59</Cadence><Extensions><ns3:TPX><ns3:Speed>0.0</ns3:Speed></ns3:TPX></Extensions></Trackpoint><Trackpoint><Time>2025-10-24T22:14:46Z</Time><HeartRateBpm><Value>98</Value></HeartRateBpm><Cadence>59</Cadence><Extensions><ns3:TPX><ns3:Speed>0.0</ns3:Speed></ns3:TPX></Extensions></Trackpoint><Trackpoint><Time>2025-10-24T22:14:50Z</Time><HeartRateBpm><Value>99</Value></HeartRateBpm><Cadence>59</Cadence><Extensions><ns3:TPX><ns3:Speed>0.0</ns3:Speed></ns3:TPX></Extensions></Trackpoint><Trackpoint><Time>2025-10-24T22:14:51Z</Time><HeartRateBpm><Value>98</Value></HeartRateBpm><Cadence>59</Cadence><Extensions><ns3:TPX><ns3:Speed>0.0</ns3:Speed></ns3:TPX></Extensions></Trackpoint><Trackpoint><Time>2025-10-24T22:14:52Z</Time><HeartRateBpm><Value>97</Value></HeartRateBpm><Cadence>59</Cadence><Extensions><ns3:TPX><ns3:Speed>0.0</ns3:Speed></ns3:TPX></Extensions></Trackpoint><Trackpoint><Time>2025-10-24T22:14:54Z</Time><HeartRateBpm><Value>96</Value></HeartRateBpm><Cadence>59</Cadence><Extensions><ns3:TPX><ns3:Speed>0.0</ns3:Speed></ns3:TPX></Extensions></Trackpoint><Trackpoint><Time>2025-10-24T22:14:56Z</Time><HeartRateBpm><Value>95</Value></HeartRateBpm><Cadence>59</Cadence><Extensions><ns3:TPX><ns3:Speed>0.0</ns3:Speed></ns3:TPX></Extensions></Trackpoint><Trackpoint><Time>2025-10-24T22:15:00Z</Time><HeartRateBpm><Value>94</Value></HeartRateBpm><Cadence>59</Cadence><Extensions><ns3:TPX><ns3:Speed>0.0</ns3:Speed></ns3:TPX></Extensions></Trackpoint><Trackpoint><Time>2025-10-24T22:15:02Z</Time><HeartRateBpm><Value>93</Value></HeartRateBpm><Cadence>59</Cadence><Extensions><ns3:TPX><ns3:Speed>0.0</ns3:Speed></ns3:TPX></Extensions></Trackpoint><Trackpoint><Time>2025-10-24T22:15:03Z</Time><HeartRateBpm><Value>95</Value></HeartRateBpm><Cadence>59</Cadence><Extensions><ns3:TPX><ns3:Speed>0.0</ns3:Speed></ns3:TPX></Extensions></Trackpoint><Trackpoint><Time>2025-10-24T22:15:04Z</Time><HeartRateBpm><Value>94</Value></HeartRateBpm><Cadence>59</Cadence><Extensions><ns3:TPX><ns3:Speed>0.0</ns3:Speed></ns3:TPX></Extensions></Trackpoint><Trackpoint><Time>2025-10-24T22:15:05Z</Time><HeartRateBpm><Value>93</Value></HeartRateBpm><Cadence>59</Cadence><Extensions><ns3:TPX><ns3:Speed>0.0</ns3:Speed></ns3:TPX></Extensions></Trackpoint><Trackpoint><Time>2025-10-24T22:15:06Z</Time><HeartRateBpm><Value>92</Value></HeartRateBpm><Cadence>59</Cadence><Extensions><ns3:TPX><ns3:Speed>0.0</ns3:Speed></ns3:TPX></Extensions></Trackpoint><Trackpoint><Time>2025-10-24T22:15:09Z</Time><HeartRateBpm><Value>90</Value></HeartRateBpm><Cadence>59</Cadence><Extensions><ns3:TPX><ns3:Speed>0.0</ns3:Speed></ns3:TPX></Extensions></Trackpoint><Trackpoint><Time>2025-10-24T22:15:14Z</Time><HeartRateBpm><Value>90</Value></HeartRateBpm><Cadence>59</Cadence><Extensions><ns3:TPX><ns3:Speed>0.0</ns3:Speed></ns3:TPX></Extensions></Trackpoint><Trackpoint><Time>2025-10-24T22:15:20Z</Time><HeartRateBpm><Value>90</Value></HeartRateBpm><Cadence>59</Cadence><Extensions><ns3:TPX><ns3:Speed>0.0</ns3:Speed></ns3:TPX></Extensions></Trackpoint><Trackpoint><Time>2025-10-24T22:15:21Z</Time><HeartRateBpm><Value>91</Value></HeartRateBpm><Cadence>59</Cadence><Extensions><ns3:TPX><ns3:Speed>0.0</ns3:Speed></ns3:TPX></Extensions></Trackpoint><Trackpoint><Time>2025-10-24T22:15:22Z</Time><HeartRateBpm><Value>92</Value></HeartRateBpm><Cadence>59</Cadence><Extensions><ns3:TPX><ns3:Speed>0.0</ns3:Speed></ns3:TPX></Extensions></Trackpoint><Trackpoint><Time>2025-10-24T22:15:23Z</Time><HeartRateBpm><Value>91</Value></HeartRateBpm><Cadence>59</Cadence><Extensions><ns3:TPX><ns3:Speed>0.0</ns3:Speed></ns3:TPX></Extensions></Trackpoint><Trackpoint><Time>2025-10-24T22:15:26Z</Time><HeartRateBpm><Value>90</Value></HeartRateBpm><Cadence>59</Cadence><Extensions><ns3:TPX><ns3:Speed>0.0</ns3:Speed></ns3:TPX></Extensions></Trackpoint><Trackpoint><Time>2025-10-24T22:15:27Z</Time><HeartRateBpm><Value>89</Value></HeartRateBpm><Cadence>59</Cadence><Extensions><ns3:TPX><ns3:Speed>0.0</ns3:Speed></ns3:TPX></Extensions></Trackpoint><Trackpoint><Time>2025-10-24T22:15:29Z</Time><HeartRateBpm><Value>88</Value></HeartRateBpm><Cadence>59</Cadence><Extensions><ns3:TPX><ns3:Speed>0.0</ns3:Speed></ns3:TPX></Extensions></Trackpoint><Trackpoint><Time>2025-10-24T22:15:34Z</Time><HeartRateBpm><Value>88</Value></HeartRateBpm><Cadence>59</Cadence><Extensions><ns3:TPX><ns3:Speed>0.0</ns3:Speed></ns3:TPX></Extensions></Trackpoint><Trackpoint><Time>2025-10-24T22:15:35Z</Time><HeartRateBpm><Value>89</Value></HeartRateBpm><Cadence>59</Cadence><Extensions><ns3:TPX><ns3:Speed>0.0</ns3:Speed></ns3:TPX></Extensions></Trackpoint><Trackpoint><Time>2025-10-24T22:15:36Z</Time><HeartRateBpm><Value>90</Value></HeartRateBpm><Cadence>59</Cadence><Extensions><ns3:TPX><ns3:Speed>0.0</ns3:Speed></ns3:TPX></Extensions></Trackpoint><Trackpoint><Time>2025-10-24T22:15:39Z</Time><HeartRateBpm><Value>91</Value></HeartRateBpm><Cadence>59</Cadence><Extensions><ns3:TPX><ns3:Speed>0.0</ns3:Speed></ns3:TPX></Extensions></Trackpoint><Trackpoint><Time>2025-10-24T22:15:40Z</Time><HeartRateBpm><Value>92</Value></HeartRateBpm><Cadence>59</Cadence><Extensions><ns3:TPX><ns3:Speed>0.0</ns3:Speed></ns3:TPX></Extensions></Trackpoint><Trackpoint><Time>2025-10-24T22:15:43Z</Time><HeartRateBpm><Value>91</Value></HeartRateBpm><Cadence>59</Cadence><Extensions><ns3:TPX><ns3:Speed>0.0</ns3:Speed></ns3:TPX></Extensions></Trackpoint><Trackpoint><Time>2025-10-24T22:15:45Z</Time><HeartRateBpm><Value>90</Value></HeartRateBpm><Cadence>59</Cadence><Extensions><ns3:TPX><ns3:Speed>0.0</ns3:Speed></ns3:TPX></Extensions></Trackpoint><Trackpoint><Time>2025-10-24T22:15:46Z</Time><HeartRateBpm><Value>89</Value></HeartRateBpm><Cadence>59</Cadence><Extensions><ns3:TPX><ns3:Speed>0.0</ns3:Speed></ns3:TPX></Extensions></Trackpoint><Trackpoint><Time>2025-10-24T22:15:47Z</Time><HeartRateBpm><Value>88</Value></HeartRateBpm><Cadence>59</Cadence><Extensions><ns3:TPX><ns3:Speed>0.0</ns3:Speed></ns3:TPX></Extensions></Trackpoint><Trackpoint><Time>2025-10-24T22:15:49Z</Time><HeartRateBpm><Value>87</Value></HeartRateBpm><Cadence>59</Cadence><Extensions><ns3:TPX><ns3:Speed>0.0</ns3:Speed></ns3:TPX></Extensions></Trackpoint><Trackpoint><Time>2025-10-24T22:15:51Z</Time><HeartRateBpm><Value>86</Value></HeartRateBpm><Cadence>59</Cadence><Extensions><ns3:TPX><ns3:Speed>0.0</ns3:Speed></ns3:TPX></Extensions></Trackpoint><Trackpoint><Time>2025-10-24T22:15:52Z</Time><HeartRateBpm><Value>85</Value></HeartRateBpm><Cadence>59</Cadence><Extensions><ns3:TPX><ns3:Speed>0.0</ns3:Speed></ns3:TPX></Extensions></Trackpoint><Trackpoint><Time>2025-10-24T22:15:53Z</Time><HeartRateBpm><Value>84</Value></HeartRateBpm><Cadence>59</Cadence><Extensions><ns3:TPX><ns3:Speed>0.0</ns3:Speed></ns3:TPX></Extensions></Trackpoint><Trackpoint><Time>2025-10-24T22:15:54Z</Time><HeartRateBpm><Value>85</Value></HeartRateBpm><Cadence>59</Cadence><Extensions><ns3:TPX><ns3:Speed>0.0</ns3:Speed></ns3:TPX></Extensions></Trackpoint><Trackpoint><Time>2025-10-24T22:15:55Z</Time><HeartRateBpm><Value>86</Value></HeartRateBpm><Cadence>59</Cadence><Extensions><ns3:TPX><ns3:Speed>0.0</ns3:Speed></ns3:TPX></Extensions></Trackpoint><Trackpoint><Time>2025-10-24T22:15:57Z</Time><HeartRateBpm><Value>87</Value></HeartRateBpm><Cadence>59</Cadence><Extensions><ns3:TPX><ns3:Speed>0.0</ns3:Speed></ns3:TPX></Extensions></Trackpoint><Trackpoint><Time>2025-10-24T22:16:03Z</Time><HeartRateBpm><Value>87</Value></HeartRateBpm><Cadence>59</Cadence><Extensions><ns3:TPX><ns3:Speed>0.0</ns3:Speed></ns3:TPX></Extensions></Trackpoint><Trackpoint><Time>2025-10-24T22:16:04Z</Time><HeartRateBpm><Value>86</Value></HeartRateBpm><Cadence>59</Cadence><Extensions><ns3:TPX><ns3:Speed>0.0</ns3:Speed></ns3:TPX></Extensions></Trackpoint><Trackpoint><Time>2025-10-24T22:16:05Z</Time><HeartRateBpm><Value>87</Value></HeartRateBpm><Cadence>59</Cadence><Extensions><ns3:TPX><ns3:Speed>0.0</ns3:Speed></ns3:TPX></Extensions></Trackpoint><Trackpoint><Time>2025-10-24T22:16:10Z</Time><HeartRateBpm><Value>86</Value></HeartRateBpm><Cadence>59</Cadence><Extensions><ns3:TPX><ns3:Speed>0.0</ns3:Speed></ns3:TPX></Extensions></Trackpoint><Trackpoint><Time>2025-10-24T22:16:12Z</Time><HeartRateBpm><Value>85</Value></HeartRateBpm><Cadence>59</Cadence><Extensions><ns3:TPX><ns3:Speed>0.0</ns3:Speed></ns3:TPX></Extensions></Trackpoint><Trackpoint><Time>2025-10-24T22:16:13Z</Time><HeartRateBpm><Value>84</Value></HeartRateBpm><Cadence>59</Cadence><Extensions><ns3:TPX><ns3:Speed>0.0</ns3:Speed></ns3:TPX></Extensions></Trackpoint><Trackpoint><Time>2025-10-24T22:16:16Z</Time><HeartRateBpm><Value>83</Value></HeartRateBpm><Cadence>59</Cadence><Extensions><ns3:TPX><ns3:Speed>0.0</ns3:Speed></ns3:TPX></Extensions></Trackpoint><Trackpoint><Time>2025-10-24T22:16:21Z</Time><HeartRateBpm><Value>84</Value></HeartRateBpm><Cadence>59</Cadence><Extensions><ns3:TPX><ns3:Speed>0.0</ns3:Speed></ns3:TPX></Extensions></Trackpoint><Trackpoint><Time>2025-10-24T22:16:25Z</Time><HeartRateBpm><Value>84</Value></HeartRateBpm><Cadence>59</Cadence><Extensions><ns3:TPX><ns3:Speed>0.0</ns3:Speed></ns3:TPX></Extensions></Trackpoint><Trackpoint><Time>2025-10-24T22:16:28Z</Time><HeartRateBpm><Value>83</Value></HeartRateBpm><Cadence>59</Cadence><Extensions><ns3:TPX><ns3:Speed>0.0</ns3:Speed></ns3:TPX></Extensions></Trackpoint><Trackpoint><Time>2025-10-24T22:16:29Z</Time><HeartRateBpm><Value>82</Value></HeartRateBpm><Cadence>59</Cadence><Extensions><ns3:TPX><ns3:Speed>0.0</ns3:Speed></ns3:TPX></Extensions></Trackpoint><Trackpoint><Time>2025-10-24T22:16:31Z</Time><HeartRateBpm><Value>83</Value></HeartRateBpm><Cadence>59</Cadence><Extensions><ns3:TPX><ns3:Speed>0.0</ns3:Speed></ns3:TPX></Extensions></Trackpoint><Trackpoint><Time>2025-10-24T22:16:32Z</Time><HeartRateBpm><Value>82</Value></HeartRateBpm><Cadence>59</Cadence><Extensions><ns3:TPX><ns3:Speed>0.0</ns3:Speed></ns3:TPX></Extensions></Trackpoint><Trackpoint><Time>2025-10-24T22:16:35Z</Time><HeartRateBpm><Value>84</Value></HeartRateBpm><Cadence>59</Cadence><Extensions><ns3:TPX><ns3:Speed>0.0</ns3:Speed></ns3:TPX></Extensions></Trackpoint><Trackpoint><Time>2025-10-24T22:16:36Z</Time><HeartRateBpm><Value>85</Value></HeartRateBpm><Cadence>59</Cadence><Extensions><ns3:TPX><ns3:Speed>0.0</ns3:Speed></ns3:TPX></Extensions></Trackpoint><Trackpoint><Time>2025-10-24T22:16:40Z</Time><HeartRateBpm><Value>86</Value></HeartRateBpm><Cadence>59</Cadence><Extensions><ns3:TPX><ns3:Speed>0.0</ns3:Speed></ns3:TPX></Extensions></Trackpoint><Trackpoint><Time>2025-10-24T22:16:41Z</Time><HeartRateBpm><Value>87</Value></HeartRateBpm><Cadence>59</Cadence><Extensions><ns3:TPX><ns3:Speed>0.0</ns3:Speed></ns3:TPX></Extensions></Trackpoint><Trackpoint><Time>2025-10-24T22:16:42Z</Time><HeartRateBpm><Value>89</Value></HeartRateBpm><Cadence>59</Cadence><Extensions><ns3:TPX><ns3:Speed>0.0</ns3:Speed></ns3:TPX></Extensions></Trackpoint><Trackpoint><Time>2025-10-24T22:16:43Z</Time><HeartRateBpm><Value>91</Value></HeartRateBpm><Cadence>59</Cadence><Extensions><ns3:TPX><ns3:Speed>0.0</ns3:Speed></ns3:TPX></Extensions></Trackpoint><Trackpoint><Time>2025-10-24T22:16:44Z</Time><HeartRateBpm><Value>92</Value></HeartRateBpm><Cadence>59</Cadence><Extensions><ns3:TPX><ns3:Speed>0.0</ns3:Speed></ns3:TPX></Extensions></Trackpoint><Trackpoint><Time>2025-10-24T22:16:46Z</Time><HeartRateBpm><Value>94</Value></HeartRateBpm><Cadence>59</Cadence><Extensions><ns3:TPX><ns3:Speed>0.0</ns3:Speed></ns3:TPX></Extensions></Trackpoint><Trackpoint><Time>2025-10-24T22:16:47Z</Time><HeartRateBpm><Value>95</Value></HeartRateBpm><Cadence>59</Cadence><Extensions><ns3:TPX><ns3:Speed>0.0</ns3:Speed></ns3:TPX></Extensions></Trackpoint><Trackpoint><Time>2025-10-24T22:16:48Z</Time><HeartRateBpm><Value>90</Value></HeartRateBpm><Cadence>59</Cadence><Extensions><ns3:TPX><ns3:Speed>0.0</ns3:Speed></ns3:TPX></Extensions></Trackpoint><Trackpoint><Time>2025-10-24T22:16:49Z</Time><HeartRateBpm><Value>93</Value></HeartRateBpm><Cadence>59</Cadence><Extensions><ns3:TPX><ns3:Speed>0.0</ns3:Speed></ns3:TPX></Extensions></Trackpoint><Trackpoint><Time>2025-10-24T22:16:50Z</Time><HeartRateBpm><Value>91</Value></HeartRateBpm><Cadence>59</Cadence><Extensions><ns3:TPX><ns3:Speed>0.0</ns3:Speed></ns3:TPX></Extensions></Trackpoint><Trackpoint><Time>2025-10-24T22:16:52Z</Time><HeartRateBpm><Value>90</Value></HeartRateBpm><Cadence>59</Cadence><Extensions><ns3:TPX><ns3:Speed>0.0</ns3:Speed></ns3:TPX></Extensions></Trackpoint><Trackpoint><Time>2025-10-24T22:16:56Z</Time><HeartRateBpm><Value>91</Value></HeartRateBpm><Cadence>59</Cadence><Extensions><ns3:TPX><ns3:Speed>0.0</ns3:Speed></ns3:TPX></Extensions></Trackpoint><Trackpoint><Time>2025-10-24T22:16:58Z</Time><HeartRateBpm><Value>93</Value></HeartRateBpm><Cadence>59</Cadence><Extensions><ns3:TPX><ns3:Speed>0.0</ns3:Speed></ns3:TPX></Extensions></Trackpoint><Trackpoint><Time>2025-10-24T22:16:59Z</Time><HeartRateBpm><Value>94</Value></HeartRateBpm><Cadence>59</Cadence><Extensions><ns3:TPX><ns3:Speed>0.0</ns3:Speed></ns3:TPX></Extensions></Trackpoint><Trackpoint><Time>2025-10-24T22:17:00Z</Time><HeartRateBpm><Value>95</Value></HeartRateBpm><Cadence>59</Cadence><Extensions><ns3:TPX><ns3:Speed>0.0</ns3:Speed></ns3:TPX></Extensions></Trackpoint><Trackpoint><Time>2025-10-24T22:17:01Z</Time><HeartRateBpm><Value>96</Value></HeartRateBpm><Cadence>59</Cadence><Extensions><ns3:TPX><ns3:Speed>0.0</ns3:Speed></ns3:TPX></Extensions></Trackpoint><Trackpoint><Time>2025-10-24T22:17:02Z</Time><HeartRateBpm><Value>98</Value></HeartRateBpm><Cadence>59</Cadence><Extensions><ns3:TPX><ns3:Speed>0.0</ns3:Speed></ns3:TPX></Extensions></Trackpoint><Trackpoint><Time>2025-10-24T22:17:05Z</Time><HeartRateBpm><Value>100</Value></HeartRateBpm><Cadence>59</Cadence><Extensions><ns3:TPX><ns3:Speed>0.0</ns3:Speed></ns3:TPX></Extensions></Trackpoint><Trackpoint><Time>2025-10-24T22:17:06Z</Time><HeartRateBpm><Value>101</Value></HeartRateBpm><Cadence>59</Cadence><Extensions><ns3:TPX><ns3:Speed>0.0</ns3:Speed></ns3:TPX></Extensions></Trackpoint><Trackpoint><Time>2025-10-24T22:17:07Z</Time><HeartRateBpm><Value>102</Value></HeartRateBpm><Cadence>59</Cadence><Extensions><ns3:TPX><ns3:Speed>0.0</ns3:Speed></ns3:TPX></Extensions></Trackpoint><Trackpoint><Time>2025-10-24T22:17:08Z</Time><HeartRateBpm><Value>97</Value></HeartRateBpm><Cadence>59</Cadence><Extensions><ns3:TPX><ns3:Speed>0.0</ns3:Speed></ns3:TPX></Extensions></Trackpoint><Trackpoint><Time>2025-10-24T22:17:10Z</Time><HeartRateBpm><Value>99</Value></HeartRateBpm><Cadence>59</Cadence><Extensions><ns3:TPX><ns3:Speed>0.0</ns3:Speed></ns3:TPX></Extensions></Trackpoint><Trackpoint><Time>2025-10-24T22:17:11Z</Time><HeartRateBpm><Value>94</Value></HeartRateBpm><Cadence>59</Cadence><Extensions><ns3:TPX><ns3:Speed>0.0</ns3:Speed></ns3:TPX></Extensions></Trackpoint><Trackpoint><Time>2025-10-24T22:17:15Z</Time><HeartRateBpm><Value>94</Value></HeartRateBpm><Cadence>59</Cadence><Extensions><ns3:TPX><ns3:Speed>0.0</ns3:Speed></ns3:TPX></Extensions></Trackpoint><Trackpoint><Time>2025-10-24T22:17:16Z</Time><HeartRateBpm><Value>96</Value></HeartRateBpm><Cadence>59</Cadence><Extensions><ns3:TPX><ns3:Speed>0.0</ns3:Speed></ns3:TPX></Extensions></Trackpoint><Trackpoint><Time>2025-10-24T22:17:21Z</Time><HeartRateBpm><Value>96</Value></HeartRateBpm><Cadence>59</Cadence><Extensions><ns3:TPX><ns3:Speed>0.0</ns3:Speed></ns3:TPX></Extensions></Trackpoint><Trackpoint><Time>2025-10-24T22:17:27Z</Time><HeartRateBpm><Value>97</Value></HeartRateBpm><Cadence>59</Cadence><Extensions><ns3:TPX><ns3:Speed>0.0</ns3:Speed></ns3:TPX></Extensions></Trackpoint><Trackpoint><Time>2025-10-24T22:17:30Z</Time><HeartRateBpm><Value>96</Value></HeartRateBpm><Cadence>59</Cadence><Extensions><ns3:TPX><ns3:Speed>0.0</ns3:Speed></ns3:TPX></Extensions></Trackpoint><Trackpoint><Time>2025-10-24T22:17:31Z</Time><HeartRateBpm><Value>95</Value></HeartRateBpm><Cadence>59</Cadence><Extensions><ns3:TPX><ns3:Speed>0.0</ns3:Speed></ns3:TPX></Extensions></Trackpoint><Trackpoint><Time>2025-10-24T22:17:34Z</Time><HeartRateBpm><Value>96</Value></HeartRateBpm><Cadence>59</Cadence><Extensions><ns3:TPX><ns3:Speed>0.0</ns3:Speed></ns3:TPX></Extensions></Trackpoint><Trackpoint><Time>2025-10-24T22:17:35Z</Time><HeartRateBpm><Value>97</Value></HeartRateBpm><Cadence>59</Cadence><Extensions><ns3:TPX><ns3:Speed>0.0</ns3:Speed></ns3:TPX></Extensions></Trackpoint><Trackpoint><Time>2025-10-24T22:17:37Z</Time><HeartRateBpm><Value>98</Value></HeartRateBpm><Cadence>59</Cadence><Extensions><ns3:TPX><ns3:Speed>0.0</ns3:Speed></ns3:TPX></Extensions></Trackpoint><Trackpoint><Time>2025-10-24T22:17:42Z</Time><HeartRateBpm><Value>98</Value></HeartRateBpm><Cadence>59</Cadence><Extensions><ns3:TPX><ns3:Speed>0.0</ns3:Speed></ns3:TPX></Extensions></Trackpoint><Trackpoint><Time>2025-10-24T22:17:43Z</Time><HeartRateBpm><Value>99</Value></HeartRateBpm><Cadence>59</Cadence><Extensions><ns3:TPX><ns3:Speed>0.0</ns3:Speed></ns3:TPX></Extensions></Trackpoint><Trackpoint><Time>2025-10-24T22:17:48Z</Time><HeartRateBpm><Value>98</Value></HeartRateBpm><Cadence>59</Cadence><Extensions><ns3:TPX><ns3:Speed>0.0</ns3:Speed></ns3:TPX></Extensions></Trackpoint><Trackpoint><Time>2025-10-24T22:17:53Z</Time><HeartRateBpm><Value>99</Value></HeartRateBpm><Cadence>59</Cadence><Extensions><ns3:TPX><ns3:Speed>0.0</ns3:Speed></ns3:TPX></Extensions></Trackpoint><Trackpoint><Time>2025-10-24T22:17:58Z</Time><HeartRateBpm><Value>98</Value></HeartRateBpm><Cadence>59</Cadence><Extensions><ns3:TPX><ns3:Speed>0.0</ns3:Speed></ns3:TPX></Extensions></Trackpoint><Trackpoint><Time>2025-10-24T22:17:59Z</Time><HeartRateBpm><Value>97</Value></HeartRateBpm><Cadence>59</Cadence><Extensions><ns3:TPX><ns3:Speed>0.0</ns3:Speed></ns3:TPX></Extensions></Trackpoint><Trackpoint><Time>2025-10-24T22:18:04Z</Time><HeartRateBpm><Value>97</Value></HeartRateBpm><Cadence>59</Cadence><Extensions><ns3:TPX><ns3:Speed>0.0</ns3:Speed></ns3:TPX></Extensions></Trackpoint><Trackpoint><Time>2025-10-24T22:18:06Z</Time><HeartRateBpm><Value>98</Value></HeartRateBpm><Cadence>59</Cadence><Extensions><ns3:TPX><ns3:Speed>0.0</ns3:Speed></ns3:TPX></Extensions></Trackpoint><Trackpoint><Time>2025-10-24T22:18:10Z</Time><HeartRateBpm><Value>100</Value></HeartRateBpm><Cadence>59</Cadence><Extensions><ns3:TPX><ns3:Speed>0.0</ns3:Speed></ns3:TPX></Extensions></Trackpoint><Trackpoint><Time>2025-10-24T22:18:11Z</Time><HeartRateBpm><Value>99</Value></HeartRateBpm><Cadence>59</Cadence><Extensions><ns3:TPX><ns3:Speed>0.0</ns3:Speed></ns3:TPX></Extensions></Trackpoint><Trackpoint><Time>2025-10-24T22:18:12Z</Time><HeartRateBpm><Value>97</Value></HeartRateBpm><Cadence>59</Cadence><Extensions><ns3:TPX><ns3:Speed>0.0</ns3:Speed></ns3:TPX></Extensions></Trackpoint><Trackpoint><Time>2025-10-24T22:18:13Z</Time><HeartRateBpm><Value>96</Value></HeartRateBpm><Cadence>59</Cadence><Extensions><ns3:TPX><ns3:Speed>0.0</ns3:Speed></ns3:TPX></Extensions></Trackpoint><Trackpoint><Time>2025-10-24T22:18:18Z</Time><HeartRateBpm><Value>97</Value></HeartRateBpm><Cadence>59</Cadence><Extensions><ns3:TPX><ns3:Speed>0.0</ns3:Speed></ns3:TPX></Extensions></Trackpoint><Trackpoint><Time>2025-10-24T22:18:19Z</Time><HeartRateBpm><Value>99</Value></HeartRateBpm><Cadence>59</Cadence><Extensions><ns3:TPX><ns3:Speed>0.0</ns3:Speed></ns3:TPX></Extensions></Trackpoint><Trackpoint><Time>2025-10-24T22:18:20Z</Time><HeartRateBpm><Value>98</Value></HeartRateBpm><Cadence>59</Cadence><Extensions><ns3:TPX><ns3:Speed>0.0</ns3:Speed></ns3:TPX></Extensions></Trackpoint><Trackpoint><Time>2025-10-24T22:18:23Z</Time><HeartRateBpm><Value>99</Value></HeartRateBpm><Cadence>59</Cadence><Extensions><ns3:TPX><ns3:Speed>0.0</ns3:Speed></ns3:TPX></Extensions></Trackpoint><Trackpoint><Time>2025-10-24T22:18:25Z</Time><HeartRateBpm><Value>100</Value></HeartRateBpm><Cadence>59</Cadence><Extensions><ns3:TPX><ns3:Speed>0.0</ns3:Speed></ns3:TPX></Extensions></Trackpoint><Trackpoint><Time>2025-10-24T22:18:26Z</Time><HeartRateBpm><Value>99</Value></HeartRateBpm><Cadence>59</Cadence><Extensions><ns3:TPX><ns3:Speed>0.0</ns3:Speed></ns3:TPX></Extensions></Trackpoint><Trackpoint><Time>2025-10-24T22:18:31Z</Time><HeartRateBpm><Value>99</Value></HeartRateBpm><Cadence>59</Cadence><Extensions><ns3:TPX><ns3:Speed>0.0</ns3:Speed></ns3:TPX></Extensions></Trackpoint><Trackpoint><Time>2025-10-24T22:18:36Z</Time><HeartRateBpm><Value>99</Value></HeartRateBpm><Cadence>59</Cadence><Extensions><ns3:TPX><ns3:Speed>0.0</ns3:Speed></ns3:TPX></Extensions></Trackpoint><Trackpoint><Time>2025-10-24T22:18:41Z</Time><HeartRateBpm><Value>99</Value></HeartRateBpm><Cadence>59</Cadence><Extensions><ns3:TPX><ns3:Speed>0.0</ns3:Speed></ns3:TPX></Extensions></Trackpoint><Trackpoint><Time>2025-10-24T22:18:44Z</Time><HeartRateBpm><Value>100</Value></HeartRateBpm><Cadence>59</Cadence><Extensions><ns3:TPX><ns3:Speed>0.0</ns3:Speed></ns3:TPX></Extensions></Trackpoint><Trackpoint><Time>2025-10-24T22:18:46Z</Time><HeartRateBpm><Value>101</Value></HeartRateBpm><Cadence>59</Cadence><Extensions><ns3:TPX><ns3:Speed>0.0</ns3:Speed></ns3:TPX></Extensions></Trackpoint><Trackpoint><Time>2025-10-24T22:18:48Z</Time><HeartRateBpm><Value>100</Value></HeartRateBpm><Cadence>59</Cadence><Extensions><ns3:TPX><ns3:Speed>0.0</ns3:Speed></ns3:TPX></Extensions></Trackpoint><Trackpoint><Time>2025-10-24T22:18:53Z</Time><HeartRateBpm><Value>101</Value></HeartRateBpm><Cadence>59</Cadence><Extensions><ns3:TPX><ns3:Speed>0.0</ns3:Speed></ns3:TPX></Extensions></Trackpoint><Trackpoint><Time>2025-10-24T22:18:55Z</Time><HeartRateBpm><Value>102</Value></HeartRateBpm><Cadence>59</Cadence><Extensions><ns3:TPX><ns3:Speed>0.0</ns3:Speed></ns3:TPX></Extensions></Trackpoint><Trackpoint><Time>2025-10-24T22:18:59Z</Time><HeartRateBpm><Value>105</Value></HeartRateBpm><Cadence>59</Cadence><Extensions><ns3:TPX><ns3:Speed>0.0</ns3:Speed></ns3:TPX></Extensions></Trackpoint><Trackpoint><Time>2025-10-24T22:19:05Z</Time><HeartRateBpm><Value>106</Value></HeartRateBpm><Cadence>59</Cadence><Extensions><ns3:TPX><ns3:Speed>0.0</ns3:Speed></ns3:TPX></Extensions></Trackpoint><Trackpoint><Time>2025-10-24T22:19:06Z</Time><HeartRateBpm><Value>105</Value></HeartRateBpm><Cadence>59</Cadence><Extensions><ns3:TPX><ns3:Speed>0.0</ns3:Speed></ns3:TPX></Extensions></Trackpoint><Trackpoint><Time>2025-10-24T22:19:08Z</Time><HeartRateBpm><Value>104</Value></HeartRateBpm><Cadence>59</Cadence><Extensions><ns3:TPX><ns3:Speed>0.0</ns3:Speed></ns3:TPX></Extensions></Trackpoint><Trackpoint><Time>2025-10-24T22:19:11Z</Time><HeartRateBpm><Value>105</Value></HeartRateBpm><Cadence>59</Cadence><Extensions><ns3:TPX><ns3:Speed>0.0</ns3:Speed></ns3:TPX></Extensions></Trackpoint><Trackpoint><Time>2025-10-24T22:19:12Z</Time><HeartRateBpm><Value>106</Value></HeartRateBpm><Cadence>59</Cadence><Extensions><ns3:TPX><ns3:Speed>0.0</ns3:Speed></ns3:TPX></Extensions></Trackpoint><Trackpoint><Time>2025-10-24T22:19:17Z</Time><HeartRateBpm><Value>106</Value></HeartRateBpm><Cadence>59</Cadence><Extensions><ns3:TPX><ns3:Speed>0.0</ns3:Speed></ns3:TPX></Extensions></Trackpoint><Trackpoint><Time>2025-10-24T22:19:23Z</Time><HeartRateBpm><Value>106</Value></HeartRateBpm><Cadence>59</Cadence><Extensions><ns3:TPX><ns3:Speed>0.0</ns3:Speed></ns3:TPX></Extensions></Trackpoint><Trackpoint><Time>2025-10-24T22:19:26Z</Time><HeartRateBpm><Value>105</Value></HeartRateBpm><Cadence>59</Cadence><Extensions><ns3:TPX><ns3:Speed>0.0</ns3:Speed></ns3:TPX></Extensions></Trackpoint><Trackpoint><Time>2025-10-24T22:19:27Z</Time><HeartRateBpm><Value>102</Value></HeartRateBpm><Cadence>59</Cadence><Extensions><ns3:TPX><ns3:Speed>0.0</ns3:Speed></ns3:TPX></Extensions></Trackpoint><Trackpoint><Time>2025-10-24T22:19:29Z</Time><HeartRateBpm><Value>99</Value></HeartRateBpm><Cadence>59</Cadence><Extensions><ns3:TPX><ns3:Speed>0.0</ns3:Speed></ns3:TPX></Extensions></Trackpoint><Trackpoint><Time>2025-10-24T22:19:30Z</Time><HeartRateBpm><Value>97</Value></HeartRateBpm><Cadence>59</Cadence><Extensions><ns3:TPX><ns3:Speed>0.0</ns3:Speed></ns3:TPX></Extensions></Trackpoint><Trackpoint><Time>2025-10-24T22:19:33Z</Time><HeartRateBpm><Value>96</Value></HeartRateBpm><Cadence>59</Cadence><Extensions><ns3:TPX><ns3:Speed>0.0</ns3:Speed></ns3:TPX></Extensions></Trackpoint><Trackpoint><Time>2025-10-24T22:19:35Z</Time><HeartRateBpm><Value>94</Value></HeartRateBpm><Cadence>59</Cadence><Extensions><ns3:TPX><ns3:Speed>0.0</ns3:Speed></ns3:TPX></Extensions></Trackpoint><Trackpoint><Time>2025-10-24T22:19:36Z</Time><HeartRateBpm><Value>93</Value></HeartRateBpm><Cadence>59</Cadence><Extensions><ns3:TPX><ns3:Speed>0.0</ns3:Speed></ns3:TPX></Extensions></Trackpoint><Trackpoint><Time>2025-10-24T22:19:41Z</Time><HeartRateBpm><Value>94</Value></HeartRateBpm><Cadence>59</Cadence><Extensions><ns3:TPX><ns3:Speed>0.0</ns3:Speed></ns3:TPX></Extensions></Trackpoint><Trackpoint><Time>2025-10-24T22:19:42Z</Time><HeartRateBpm><Value>93</Value></HeartRateBpm><Cadence>59</Cadence><Extensions><ns3:TPX><ns3:Speed>0.0</ns3:Speed></ns3:TPX></Extensions></Trackpoint><Trackpoint><Time>2025-10-24T22:19:48Z</Time><HeartRateBpm><Value>95</Value></HeartRateBpm><Cadence>59</Cadence><Extensions><ns3:TPX><ns3:Speed>0.0</ns3:Speed></ns3:TPX></Extensions></Trackpoint><Trackpoint><Time>2025-10-24T22:19:49Z</Time><HeartRateBpm><Value>96</Value></HeartRateBpm><Cadence>59</Cadence><Extensions><ns3:TPX><ns3:Speed>0.0</ns3:Speed></ns3:TPX></Extensions></Trackpoint><Trackpoint><Time>2025-10-24T22:19:50Z</Time><HeartRateBpm><Value>99</Value></HeartRateBpm><Cadence>59</Cadence><Extensions><ns3:TPX><ns3:Speed>0.0</ns3:Speed></ns3:TPX></Extensions></Trackpoint><Trackpoint><Time>2025-10-24T22:19:51Z</Time><HeartRateBpm><Value>101</Value></HeartRateBpm><Cadence>59</Cadence><Extensions><ns3:TPX><ns3:Speed>0.0</ns3:Speed></ns3:TPX></Extensions></Trackpoint><Trackpoint><Time>2025-10-24T22:19:52Z</Time><HeartRateBpm><Value>102</Value></HeartRateBpm><Cadence>59</Cadence><Extensions><ns3:TPX><ns3:Speed>0.0</ns3:Speed></ns3:TPX></Extensions></Trackpoint><Trackpoint><Time>2025-10-24T22:19:54Z</Time><HeartRateBpm><Value>105</Value></HeartRateBpm><Cadence>59</Cadence><Extensions><ns3:TPX><ns3:Speed>0.0</ns3:Speed></ns3:TPX></Extensions></Trackpoint><Trackpoint><Time>2025-10-24T22:19:55Z</Time><HeartRateBpm><Value>108</Value></HeartRateBpm><Cadence>59</Cadence><Extensions><ns3:TPX><ns3:Speed>0.0</ns3:Speed></ns3:TPX></Extensions></Trackpoint><Trackpoint><Time>2025-10-24T22:19:56Z</Time><HeartRateBpm><Value>109</Value></HeartRateBpm><Cadence>59</Cadence><Extensions><ns3:TPX><ns3:Speed>0.0</ns3:Speed></ns3:TPX></Extensions></Trackpoint><Trackpoint><Time>2025-10-24T22:19:57Z</Time><HeartRateBpm><Value>104</Value></HeartRateBpm><Cadence>59</Cadence><Extensions><ns3:TPX><ns3:Speed>0.0</ns3:Speed></ns3:TPX></Extensions></Trackpoint><Trackpoint><Time>2025-10-24T22:19:58Z</Time><HeartRateBpm><Value>98</Value></HeartRateBpm><Cadence>59</Cadence><Extensions><ns3:TPX><ns3:Speed>0.0</ns3:Speed></ns3:TPX></Extensions></Trackpoint><Trackpoint><Time>2025-10-24T22:20:00Z</Time><HeartRateBpm><Value>100</Value></HeartRateBpm><Cadence>59</Cadence><Extensions><ns3:TPX><ns3:Speed>0.0</ns3:Speed></ns3:TPX></Extensions></Trackpoint><Trackpoint><Time>2025-10-24T22:20:01Z</Time><HeartRateBpm><Value>97</Value></HeartRateBpm><Cadence>59</Cadence><Extensions><ns3:TPX><ns3:Speed>0.0</ns3:Speed></ns3:TPX></Extensions></Trackpoint><Trackpoint><Time>2025-10-24T22:20:04Z</Time><HeartRateBpm><Value>96</Value></HeartRateBpm><Cadence>59</Cadence><Extensions><ns3:TPX><ns3:Speed>0.0</ns3:Speed></ns3:TPX></Extensions></Trackpoint><Trackpoint><Time>2025-10-24T22:20:07Z</Time><HeartRateBpm><Value>97</Value></HeartRateBpm><Cadence>59</Cadence><Extensions><ns3:TPX><ns3:Speed>0.0</ns3:Speed></ns3:TPX></Extensions></Trackpoint><Trackpoint><Time>2025-10-24T22:20:12Z</Time><HeartRateBpm><Value>98</Value></HeartRateBpm><Cadence>59</Cadence><Extensions><ns3:TPX><ns3:Speed>0.0</ns3:Speed></ns3:TPX></Extensions></Trackpoint><Trackpoint><Time>2025-10-24T22:20:18Z</Time><HeartRateBpm><Value>98</Value></HeartRateBpm><Cadence>59</Cadence><Extensions><ns3:TPX><ns3:Speed>0.0</ns3:Speed></ns3:TPX></Extensions></Trackpoint><Trackpoint><Time>2025-10-24T22:20:21Z</Time><HeartRateBpm><Value>97</Value></HeartRateBpm><Cadence>59</Cadence><Extensions><ns3:TPX><ns3:Speed>0.0</ns3:Speed></ns3:TPX></Extensions></Trackpoint><Trackpoint><Time>2025-10-24T22:20:25Z</Time><HeartRateBpm><Value>98</Value></HeartRateBpm><Cadence>59</Cadence><Extensions><ns3:TPX><ns3:Speed>0.0</ns3:Speed></ns3:TPX></Extensions></Trackpoint><Trackpoint><Time>2025-10-24T22:20:30Z</Time><HeartRateBpm><Value>97</Value></HeartRateBpm><Cadence>59</Cadence><Extensions><ns3:TPX><ns3:Speed>0.0</ns3:Speed></ns3:TPX></Extensions></Trackpoint><Trackpoint><Time>2025-10-24T22:20:31Z</Time><HeartRateBpm><Value>95</Value></HeartRateBpm><Cadence>59</Cadence><Extensions><ns3:TPX><ns3:Speed>0.0</ns3:Speed></ns3:TPX></Extensions></Trackpoint><Trackpoint><Time>2025-10-24T22:20:32Z</Time><HeartRateBpm><Value>96</Value></HeartRateBpm><Cadence>59</Cadence><Extensions><ns3:TPX><ns3:Speed>0.0</ns3:Speed></ns3:TPX></Extensions></Trackpoint><Trackpoint><Time>2025-10-24T22:20:37Z</Time><HeartRateBpm><Value>97</Value></HeartRateBpm><Cadence>59</Cadence><Extensions><ns3:TPX><ns3:Speed>0.0</ns3:Speed></ns3:TPX></Extensions></Trackpoint><Trackpoint><Time>2025-10-24T22:20:41Z</Time><HeartRateBpm><Value>98</Value></HeartRateBpm><Cadence>59</Cadence><Extensions><ns3:TPX><ns3:Speed>0.0</ns3:Speed></ns3:TPX></Extensions></Trackpoint><Trackpoint><Time>2025-10-24T22:20:44Z</Time><HeartRateBpm><Value>99</Value></HeartRateBpm><Cadence>59</Cadence><Extensions><ns3:TPX><ns3:Speed>0.0</ns3:Speed></ns3:TPX></Extensions></Trackpoint><Trackpoint><Time>2025-10-24T22:20:49Z</Time><HeartRateBpm><Value>100</Value></HeartRateBpm><Cadence>59</Cadence><Extensions><ns3:TPX><ns3:Speed>0.0</ns3:Speed></ns3:TPX></Extensions></Trackpoint><Trackpoint><Time>2025-10-24T22:20:50Z</Time><HeartRateBpm><Value>102</Value></HeartRateBpm><Cadence>59</Cadence><Extensions><ns3:TPX><ns3:Speed>0.0</ns3:Speed></ns3:TPX></Extensions></Trackpoint><Trackpoint><Time>2025-10-24T22:20:51Z</Time><HeartRateBpm><Value>103</Value></HeartRateBpm><Cadence>59</Cadence><Extensions><ns3:TPX><ns3:Speed>0.0</ns3:Speed></ns3:TPX></Extensions></Trackpoint><Trackpoint><Time>2025-10-24T22:20:52Z</Time><HeartRateBpm><Value>104</Value></HeartRateBpm><Cadence>59</Cadence><Extensions><ns3:TPX><ns3:Speed>0.0</ns3:Speed></ns3:TPX></Extensions></Trackpoint><Trackpoint><Time>2025-10-24T22:20:53Z</Time><HeartRateBpm><Value>105</Value></HeartRateBpm><Cadence>59</Cadence><Extensions><ns3:TPX><ns3:Speed>0.0</ns3:Speed></ns3:TPX></Extensions></Trackpoint><Trackpoint><Time>2025-10-24T22:20:55Z</Time><HeartRateBpm><Value>106</Value></HeartRateBpm><Cadence>59</Cadence><Extensions><ns3:TPX><ns3:Speed>0.0</ns3:Speed></ns3:TPX></Extensions></Trackpoint><Trackpoint><Time>2025-10-24T22:20:56Z</Time><HeartRateBpm><Value>108</Value></HeartRateBpm><Cadence>59</Cadence><Extensions><ns3:TPX><ns3:Speed>0.0</ns3:Speed></ns3:TPX></Extensions></Trackpoint><Trackpoint><Time>2025-10-24T22:20:57Z</Time><HeartRateBpm><Value>102</Value></HeartRateBpm><Cadence>59</Cadence><Extensions><ns3:TPX><ns3:Speed>0.0</ns3:Speed></ns3:TPX></Extensions></Trackpoint><Trackpoint><Time>2025-10-24T22:20:58Z</Time><HeartRateBpm><Value>106</Value></HeartRateBpm><Cadence>59</Cadence><Extensions><ns3:TPX><ns3:Speed>0.0</ns3:Speed></ns3:TPX></Extensions></Trackpoint><Trackpoint><Time>2025-10-24T22:20:59Z</Time><HeartRateBpm><Value>105</Value></HeartRateBpm><Cadence>59</Cadence><Extensions><ns3:TPX><ns3:Speed>0.0</ns3:Speed></ns3:TPX></Extensions></Trackpoint><Trackpoint><Time>2025-10-24T22:21:01Z</Time><HeartRateBpm><Value>104</Value></HeartRateBpm><Cadence>59</Cadence><Extensions><ns3:TPX><ns3:Speed>0.0</ns3:Speed></ns3:TPX></Extensions></Trackpoint></Track></Lap></Activity></Activities></TrainingCenterDatabase>